parentCompany,businessName,businessType,expires,street,city,state,zip
LUCERO MATTHEWLUCERO BOBBY JEAN,NAVAJO LIQUORS,Liquor Store (city), 11/12/2015,410 E MAIN ST,AGUILAR,CO,810200000,
RINGO STORES INC,RINGO'S DISCOUNT LIQUOR STORE INC,Liquor Store (city), 03/17/2016,213 EAST MAIN STREET,Aguilar,CO,81020,
MGD LIQUORS LLC,MGD LIQUORS,Liquor Store (city), 04/25/2016,102 DATE AVE,Akron,CO,80720,
STARLIN JERRY & JANET SCHOLES KAREN & ALLEN,THE GRASSHOPPER,Liquor Store (city), 09/14/2015,364 E FIRST ST,Akron,CO,807201506,
AIRPORT LIQUOR LLC,AIRPORT LIQUOR,Liquor Store (city), 07/01/2016,1619 STATE AVE,Alamosa,CO,81101,
A-O.K. LIQUORS INC,CHIEF LIQUOR,Liquor Store (city), 10/30/2015,1280 MAIN ST,Alamosa,CO,81101,
PS LIQUOR LLC,BEER KEG DEPOT,Liquor Store (city), 01/17/2016,603 DEL SOL DRIVE,Alamosa,CO,81101,
SLV WINE AND SPIRITS,TERRYS LIQUOR,Liquor Store (city), 09/30/2015,408 DENVER AVE,Alamosa,CO,811012657,
NAGRA LLC,DISCOUNT LIQUOR,Liquor Store (county), 09/24/2016,151 BROADWAY AVE,Alamosa,CO,81101,
GALLEGOS MELANIE R,HOOSIER DADDY LIQUORS,Liquor Store (city), 11/17/2015,17 S MAIN ST,ALMA,CO,80420,
TAYLOR PARK MARINA LTD,TAYLOR PARK MARINA,Liquor Store (county), 06/15/2016,21700 COUNTY RD #742,ALMONT,CO,81210,
LOYDE NEAL LLC,HELENS LIQUORS,Liquor Store (city), 02/09/2016,523 MAIN ST,ANTONITO,CO,81120,
VIGIL DELIA,VIGILS LIQUORS,Liquor Store (city), 11/01/2015,610 MAIN ST,Antonito,CO,811200000,
PIEDRA PEAK GENERAL STORE LLC,PIEDRA PEAK GENERAL STORE,Liquor Store (county), 05/01/2016,53 COUNTY ROAD 982,ARBOLES,CO,81121,
AIS LLC,SIMMS LIQUOR,Liquor Store (city), 08/10/2016,11651 W 64TH AVE UNIT E-6,ARVADA,CO,800044323,
ANMOL ENTERPRISES INC,TWO PONDS WINE & SPIRITS,Liquor Store (city), 08/16/2015,9969 W 80TH AVE,ARVADA,CO,800053912,
ARVADA LIQUOR MART INC,ARVADA LIQUOR MART,Liquor Store (city), 02/17/2016,9489 RALSTON RD,Arvada,CO,800022003,
COLORADO LIQUOR COMPANY INC,COSTCO LIQUORS,Liquor Store (city), 08/20/2016,5185 WADSWORTH BLVD,ARVADA,CO,800024617,
CRAZYHOUSE LLC,TOWN CENTER LIQUORS,Liquor Store (city), 07/09/2016,14455 W 64TH AVE,ARVADA,CO,80403,
CTS ENTERPRISESLLC,TRIANGLE LIQUORS,Liquor Store (city), 12/17/2015,9545 W 58TH AVE,ARVADA,CO,800022031,
GAGAN INC,ARVADA WINE AND SPIRITS,Liquor Store (city), 02/11/2016,6350 SHERIDAN BLVD SUITE 117 AND 118,Arvada,CO,80003,
GOLDEN CREEK LIQUORS LLC,ROSSI'S LIQUORS,Liquor Store (city), 02/14/2016,12399 W 64TH AVE,Arvada,CO,800044015,
H T & T LIQUORS INC,H T & T LIQUORS,Liquor Store (city), 03/10/2016,6415 SHERIDAN,Arvada,CO,800034749,
HAN KYE T,HIDDEN LAKE LIQUOR,Liquor Store (city), 09/10/2015,6790 SHERIDAN BLVD #B,Arvada,CO,800036300,
HGS ENTERPRISES INC,CORNERSTONE LIQUOR,Liquor Store (city), 11/24/2015,7355 RALSTON RD #R-500,Arvada,CO,800022574,
HILL TOP LIQUOR LLC,HILL TOP LIQUOR,Liquor Store (city), 12/10/2015,6390 WADSWORTH BLVD UNIT B,Arvada,CO,800034858,
LEE JONG KOOK,LAGUARDIA LIQUORS,Liquor Store (city), 08/04/2015,8008 CHASE DR,ARVADA,CO,800031806,
MAJESTIC LIQUOR LLC,MAJESTIC LIQUOR,Liquor Store (city), 03/10/2016,12385 W 58TH AVE,ARVADA,CO,800021210,
MH CORPORATION,LAKE ARBOR LIQUOR,Liquor Store (city), 03/26/2016,7517 & 7519 WEST 80TH AVE,ARVADA,CO,80003,
MILE HIGH WINECELLARS LLC,MILE HIGH WINECELLARS,Liquor Store (city), 11/05/2015,15400 W 64TH AVE #E-7,ARVADA,CO,800076852,
"PRIMO VINO, INC",PRIMO VINO,Liquor Store (city), 08/18/2015,5713 OLD WADSWORTH,ARVADA,CO,800022534,
R & W LLC,LIQUOR PARADISE,Liquor Store (city), 03/24/2016,5220 WADSWORTH BYPASS # P,Arvada,CO,80002,
RALSTON SQUARE LIQUORS INC,RALSTON SQUARE LIQUORS,Liquor Store (city), 10/30/2015,6318 WARD RD,Arvada,CO,800043820,
ROYAL LIQUOR CORPORATION,ROYAL LIQUOR,Liquor Store (city), 10/01/2015,7735 WADSWORTH BLVD #21,Arvada,CO,800032143,
"RTJ, LLC",WATER TOWER LIQUORS,Liquor Store (city), 06/04/2016,5545 OLDE WADSWORTH BLVD,ARVADA,CO,800022586,
SAMS WEST INC,SAMS CLUB #6630,Liquor Store (city), 04/20/2016,7370 W 52ND AVE,Arvada,CO,800023708,
SAWAGED FERAS H,LIONS LIQUOR,Liquor Store (city), 06/27/2015,10378-10380 RALSTON RD,Arvada,CO,80004,
SAWAGED OSAMA W,WADSWORTH LIQUOR,Liquor Store (city), 08/15/2015,6781-6783 WADSWORTH BLVD,Arvada,CO,800033947,
SIX A LLC,VINELANDS LIQUORS,Liquor Store (city), 10/10/2015,8770 WADSWORTH UNIT K,Arvada,CO,800030927,
T & D LIQUORS LLC,SUNRISE LIQUORS,Liquor Store (city), 09/04/2015,6430 WADSWORTH BLVD,Arvada,CO,80003,
WEST WOODS WINE & SPRITS LLC,WEST WOODS WINE & SPIRITS,Liquor Store (city), 04/22/2016,16255 W 64TH AVE UNIT I,ARVADA,CO,800077400,
BLAIR KENNETH W BLAIR LISA BEHRINGER,BERKELEY VILLAGE DISCOUNT LIQUORS,Liquor Store (county), 02/14/2016,5302 SHERIDAN,Arvada,CO,800027018,
KS CORP,MARSHALL LIQUOR,Liquor Store (county), 12/07/2015,5216 MARSHALL ST,Arvada,CO,800023931,
LOCAL SPIRITS INC,LOCAL SPIRITS,Liquor Store (city), 06/06/2016,435 E MAIN ST,ASPEN,CO,816111931,
MOUNTAIN LAUREL LLC,ASPEN WINE & SPIRITS,Liquor Store (city), 01/02/2016,300 PUPPY SMITH ST,Aspen,CO,816111455,
PAUL ROBINSON INC,GREAT WESTERN GROG SHOP,Liquor Store (city), 12/31/2015,710 E DURANT,Aspen,CO,816112070,
PLUMLEY CORP,ASPEN WINE GUILD INC THE,Liquor Store (city), 12/14/2015,111 S MONARCH ST,Aspen,CO,81611,
WC IWM LLC,IWM CELLARS,Liquor Store (city), 06/27/2016,665 E DURANT AVE,Aspen,CO,81611,
AIRPORT LIQUOR INC,AIRPORT LIQUOR INC,Liquor Store (county), 12/25/2015,119F AABC,ASPEN,CO,816112561,
AULT LIQUOR INC,AULT DISCOUNT LIQUORS INC,Liquor Store (city), 08/19/2016,103 S HWY 85,Ault,CO,80610,
KYNE KATHY,BOOZE BARN THE,Liquor Store (city), 12/05/2015,213 HWY 85,AULT,CO,80610,
6TH AVENUE LIQUORS LLC,6TH AVENUE LIQUORS,Liquor Store (city), 10/24/2015,10310 E 6TH AVENUE #C,Aurora,CO,80013,
A & I LIQUOR LLC,A & I LIQUOR,Liquor Store (city), 03/28/2016,306 S IRONTON UNIT B,Aurora,CO,800122078,
A & T LLC,QUINCY LIQUOR,Liquor Store (city), 02/26/2016,"19330 E QUINCY AVE, UNIT D",Aurora,CO,80015,
A N A CORPORATION,SONORA LIQUORS AURORA,Liquor Store (city), 09/21/2015,566 NORTH DAYTON STREET,Aurora,CO,800104203,
AB LIQUOR INC,AB LIQUOR,Liquor Store (city), 02/08/2016,4286 S CHAMBERS RD,AURORA,CO,800144130,
ABEL LLC,SMOKY HILL WINE AND SPIRITS,Liquor Store (city), 07/24/2015,15275 E SMOKY HILL RD,Aurora,CO,80015,
AKELOM CORPORATION,CHAMBERS LIQUOR MART AURORA,Liquor Store (city), 11/27/2015,15201 EAST COLFAX,Aurora,CO,800115724,
ALAMEDA CROSSING INC,ALAMEDA CROSSING LIQUOR,Liquor Store (city), 09/08/2015,542 S CHAMBERS RD #20,AURORA,CO,800173606,
ALDO GROUP LLC,LIQUOR PLUS,Liquor Store (city), 01/29/2016,13490 E MISSISSIPPI VE,Aurora,CO,80012,
AMINDO INVESTMENTS INC,VILLAGE GREEN LIQUORS,Liquor Store (city), 10/12/2015,15092 E MISSISSIPPI AVE,Aurora,CO,800123728,
ARUSTAMYAN ENTERPRISES LLC,STOCKADE WINE & LIQUORS,Liquor Store (city), 03/02/2016,2694 S PARKER RD,AURORA,CO,800141616,
AURORA LIQUORS LLC,AURORA LIQUORS,Liquor Store (city), 03/25/2016,10 SOUTH HAVANA ST UNIT 101,Aurora,CO,800126431,
B & J CORP,HIGHPOINT LIQUORS,Liquor Store (city), 08/18/2016,18674 E HAMPDEN AVE,AURORA,CO,800133500,
BISM LLC,FAN FAIR DISCOUNT LIQUOR,Liquor Store (city), 11/11/2015,475 HAVANA ST,Aurora,CO,80010,
BK DISCOUNT LIQUORS INC,BK DISCOUNT LIQUOR,Liquor Store (city), 07/20/2015,14293 E 6TH AVE,Aurora,CO,800118706,
BUCKINGHAM LIQUOR LLC,BUCKINGHAM LIQUOR,Liquor Store (city), 04/24/2016,11093 E MISSISSIPPI AVE,AURORA,CO,800123104,
CHAMBERS STREET INC,CHAMBERS WINE & LIQUOR,Liquor Store (city), 10/31/2015,15260 E ILIFF,AURORA,CO,800144516,
CHERRY CREEK LIQUORS LLC,CHERRY CREEK LIQUORS,Liquor Store (city), 01/31/2016,13750 E QUINCY AVE #20,Aurora,CO,800151129,
COHAGEN LLC,HAVANA PARK LIQUOR,Liquor Store (city), 10/27/2015,10772 E ILIFF AVE,Aurora,CO,80014,
COLORADICAL CORP,BRISTOL POINTE LIQUORS,Liquor Store (city), 01/02/2016,852 S BUCKLEY RD,Aurora,CO,80017,
CORNERSTAR WINE & LIQUOR LLC,CORNERSTAR WINE & LIQUOR,Liquor Store (city), 07/21/2015,15405 E BRIARWOOD CIR UNIT C,Aurora,CO,80016,
COURTESY LIQUORS INC,COURTESY LIQUORS INC,Liquor Store (city), 01/06/2016,1080 HAVANA ST,AURORA,CO,800103961,
D&T CORPORATION,HARRY'S LIQUOR STORE,Liquor Store (city), 09/18/2015,9508 EAST COLFAX AVENUE,Aurora,CO,80010,
DHILLON-PUREWALL INC,DANDY DISCOUNT LIQUOR,Liquor Store (city), 08/12/2015,12507 E MISSISSIPPI AVE UNIT 802,Aurora,CO,800123479,
DOO HYUNG RA INC,DICKERSON LIQUORS INC,Liquor Store (city), 03/21/2016,11104 E COLFAX AVE,AURORA,CO,800105026,
DUONG TO CORPORATION,ILIFF SQUARE DISCOUNT LIQUOR,Liquor Store (city), 10/22/2015,2211 S PEORIA ST,AURORA,CO,800141193,
E QUINCY LIQUOR LLC,E QUINCY LIQUOR,Liquor Store (city), 05/20/2016,16342 E QUINCY AVE,Aurora,CO,800151596,
E-470 WINES & SPIRITS INC,E-470 WINES & SPIRITS,Liquor Store (city), 04/04/2016,22910 E SMOKEY HILL RD,AURORA,CO,800161382,
EDNA LLC,GREAT VINES LIQUORS,Liquor Store (city), 11/19/2015,6140 SO GUN CLUB RD #J-1,Aurora,CO,800165306,
ENJ LLC,M&M LIQUORS,Liquor Store (city), 05/09/2016,18881 E COLFAX AVE UNIT 1,AURORA,CO,800116100,
ENVC LIQUOR LLC,ENVC LIQUOR,Liquor Store (city), 03/05/2016,24300 E SMOKY HILL RD #108,Aurora,CO,80016,
FELSEN ENTERPRISES INC,RESERVE LIST EAGLE BEND,Liquor Store (city), 08/10/2015,22691 E AURORA PKWY,Aurora,CO,800166087,
GIORGIS TARIKU W MENGISTU ROMAN,T&R LIQUOR STORE,Liquor Store (city), 04/07/2016,9697 MONTVIEW BLVD,Aurora,CO,800102036,
GMAN INC,G & E LIQUORS,Liquor Store (city), 10/16/2015,18680 E ILIFF AVE # D,AURORA,CO,800135995,
GRIFFIN REAL ESTATE & INVESTMENTS LLC,TOWER LANDING LIQUORS,Liquor Store (city), 08/05/2015,1155 S TOWER RD UNIT A,AURORA,CO,80017,
HA SEUNG MIN,CHAMBERS POINT LIQUORS,Liquor Store (city), 05/24/2016,1650 S CHAMBERS RD,Aurora,CO,800175023,
HAZOMO MT LLC,SMOKEY HILL LIQUORS,Liquor Store (city), 10/13/2015,16621 E. SMOKY HILL RD,Aurora,CO,80015,
HEBRET LLC,POWDERHORN LIQUOR,Liquor Store (city), 08/08/2015,12078 E MISSISSIPPI AVE,Aurora,CO,80012,
HMB LLC,DAYTON LIQUORS,Liquor Store (city), 02/04/2016,816 DAYTON ST,Aurora,CO,80010,
HNE INC,I-P LIQUORS,Liquor Store (city), 06/26/2016,12131 E ILIFF AVE STE E,AURORA,CO,800147322,
HY INC,MONTVIEW PLAZA LIQUOR,Liquor Store (city), 04/07/2016,9435 E MONTVIEW BLVD,AURORA,CO,800101924,
J & M LIQUORS LLC,PIONEER HILLS LIQUOR,Liquor Store (city), 07/01/2016,"5594 SOUTH PARKER RD, UNIT 49",Aurora,CO,80011,
JD LEE INC,COUNTRY LIQUOR,Liquor Store (city), 04/07/2016,14155 E COLFAX AVE #A-1,AURORA,CO,800115704,
JOONOO INC,LIQUOR PORT,Liquor Store (city), 04/17/2016,15210 E 6TH AVE #9,Aurora,CO,800118831,
K C INCORPORATEDSALES,CAPSHAW LIQUORS,Liquor Store (city), 01/14/2016,1555 S HAVANA UNIT C&D,Aurora,CO,800125034,
KAMALJIT CORP,AZ LIQUORS,Liquor Store (city), 06/26/2016,"16070 E DARTMOUTH AVE, UNIT 12",Aurora,CO,80013,
KIM OK SUN,5TH QUARTER LIQUORS,Liquor Store (city), 09/04/2015,14585 E ALAMEDA AVE,Aurora,CO,800122601,
KK LIQUORS INC,SERENITY RIDGE LIQUORS,Liquor Store (city), 10/15/2015,25791 E SMOKY HILL RD #70,Aurora,CO,80016,
LEETSDALE CORPORATION,DOLLAR SAVER DISCOUNT LIQUOR,Liquor Store (city), 04/28/2016,15355 E COLFAX AVE,Aurora,CO,800115955,
LIQUOR 4 LESS CORPORATION,LIQUOR 4 LESS,Liquor Store (city), 10/24/2015,15451 E MISSISSIPPI AVE UNIT A,Aurora,CO,80017,
LYG INC,AZZY DISCOUNT LIQUOR,Liquor Store (city), 06/21/2016,13916 E MISSISSIPPI AVE,AURORA,CO,800123603,
M&H LIQUOR CORP,M & H DISCOUNT LIQUORS,Liquor Store (city), 09/25/2015,1155 S HAVANA ST #65,AURORA,CO,800124017,
M&M INC,AURORA PLAZA LIQUORS,Liquor Store (city), 03/09/2016,677 PEORIA ST,AURORA,CO,800118228,
MARK J RUBIN ENTERPRISES INC,HAMPDEN CROSSING LIQUORS INC,Liquor Store (city), 01/24/2016,18121 E HAMPDEN AVE UNIT M,AURORA,CO,800133589,
MHS INC,HOFFMAN HEIGHTS LIQUORS,Liquor Store (city), 08/21/2015,728 PEORIA ST,AURORA,CO,800118231,
MIKE & FRANK'S JACKPOT LLC,BOTTLE BARN LIQUOR M L,Liquor Store (city), 01/11/2016,1720 S BUCKLEY RD,AURORA,CO,800175172,
MOHAN LLC,MOHAN LIQUORS,Liquor Store (city), 09/06/2015,13700 EAST ALAMEDA AVENUE,Aurora,CO,80012,
MURPHY CREEK LLC,MK LIQUOR,Liquor Store (city), 04/15/2016,1305 S ZANTE ST,Aurora,CO,80018,
N AND T INC,SOMERSET LIQUOR,Liquor Store (city), 12/12/2015,1250 S BUCKLEY RD STE B,Aurora,CO,800174180,
NATHANAEL & DELINA LLC,HAMPDEN LIQUOR,Liquor Store (city), 10/24/2015,15433 E HAMPDEN AVE SUITES E & F,Aurora,CO,80013,
NICK'S LIQUORS INC,NICK'S LIQUORS INC,Liquor Store (city), 05/08/2016,12030 E COLFAX AVE,Aurora,CO,800105111,
NZW INC,NZW DISCOUNT LIQUORS,Liquor Store (city), 01/27/2016,3095 S PEORIA UNIT E,Aurora,CO,800143158,
OK INC,PEORIA LIQUORS,Liquor Store (city), 05/16/2016,3113 PEORIA ST #B,Aurora,CO,800101512,
OLD AURORA LIQUOR STORE INC,ORIGINAL AURORA LIQUORS INC,Liquor Store (city), 03/07/2016,11651 E MONTVIEW BLVD,AURORA,CO,800101601,
PEACHWOOD LIQUORS LLC,PEACHWOOD LIQUORS,Liquor Store (city), 10/05/2015,980 SOUTH PEORIA ST #b,Aurora,CO,80012,
PLAZA LIQUOR LLC,PLAZA LIQUOR,Liquor Store (city), 01/06/2016,1144 YOSEMITE ST,Aurora,CO,80010,
ROLLING CLOUD INC,SADDLE ROCK WINE & SPIRITS,Liquor Store (city), 05/27/2016,"7450 SOUTH GARTRELL ROAD, #A5-A6",Aurora,CO,80016,
S&A ENTERPRISE LLC,BUCKLEY DISCOUNT LIQUORS,Liquor Store (city), 07/08/2016,17150 E ILIFF AVE C-3,AURORA,CO,80013,
SAM'S SOUTHEAST LIQUORS LLC,SAM'S SOUTHEAST LIQUORS,Liquor Store (city), 12/06/2015,6201 S AURORA PARKWAY,Aurora,CO,80016,
SHIFERAW METSLAL,ANTIQUE LIQUORS,Liquor Store (city), 07/17/2016,13690 E ILIFF AVE UNIT A,AURORA,CO,800146522,
SOLO LIQUOR INC,SOLO LIQUOR,Liquor Store (city), 05/05/2016,13751 EAST YALE AVENUE,Aurora,CO,80014,
SONI INC,SHANA'S LIQUOR,Liquor Store (city), 12/19/2015,14573 E MISSISSIPPI AVE,Aurora,CO,80012,
"STEVE ARAYA, INC",BOTTLE SHOP LIQUORS,Liquor Store (city), 02/28/2016,876 S HAVANA,Aurora,CO,800123016,
T & H LLC,PAYLESS LIQUOR,Liquor Store (city), 12/01/2015,1512 FLORENCE ST,Aurora,CO,80010,
TANA BUSINESS CORPORATION,J&M LIQUOR STORE,Liquor Store (city), 12/04/2015,"2101 N URSULA ST, UNIT #45",Aurora,CO,80045,
V & V INC,GATEWAY LIQUOR,Liquor Store (city), 01/13/2016,3751 N TOWER RD UNIT E,Aurora,CO,80011,
VP ENTERPRISES INC,SAGE DISCOUNT LIQUOR,Liquor Store (city), 10/25/2015,2280 S CHAMBERS RD,Aurora,CO,800144528,
WORLD CELLAR LTD,WORLD CELLAR,Liquor Store (city), 07/17/2015,6240 S MAIN ST L114,Aurora,CO,800165376,
YEFTER INC,MISSION VIEJO LIQUORS,Liquor Store (city), 05/23/2016,15400 E HAMPDEN AVE,AURORA,CO,800132404,
YELLOW FRONT LIQUORS INC,YELLOW FRONT LIQUORS,Liquor Store (city), 03/10/2016,9343 E COLFAX AVE,AURORA,CO,800101919,
YOUNG'S LIQUOR MART LLC,YOUNG'S LIQUOR MART,Liquor Store (city), 03/27/2016,15500 E COLFAX AVE,Aurora,CO,800115821,
YS CORPORATIONS INC,JY LIQUOR,Liquor Store (city), 08/26/2015,10201 E COLFAX AVE,Aurora,CO,80010,
ZIMAR INC,ILIFF CROSSING LIQUOR DEPOT,Liquor Store (city), 04/03/2016,16841 E ILIFF AVE,AURORA,CO,800131136,
AVON PROPERTIES LEASING LLC,VILLAGE WAREHOUSE WINES,Liquor Store (city), 12/14/2015,101 FAWCETT RD,Avon,CO,81620,
BENCHMARK LIQUORS INC,BEAVER LIQUORS,Liquor Store (city), 06/19/2016,110 E BEAVER CRK BLV,AVON,CO,816209999,
KRUSEN INC,AVON LIQUORS,Liquor Store (city), 10/29/2015,100 W BEAVER CREEK BLVD,Avon,CO,81620,
MILLER'S BOTTLE SHOP LLC,JOE'S LIQUORS,Liquor Store (city), 03/28/2016,1060 W BEAVER CREEK BLVD #1B,AVON,CO,81620,
PIER 13 LIQUOR INC,PIER 13 LIQUOR,Liquor Store (county), 04/08/2016,41131 US HWY 6 & 24,Avon,CO,81620,
SOUTH CENTRAL TRADING COMPANY,MARKET WINE & SPIRITS,Liquor Store (county), 06/23/2016,210 OFFERSON RD #C101C ST. JAMES PLACE,AVON,CO,81620,
BAILEY DISCOUNT LIQUORS CORPORATION,BAILEY LIQUORS AT RUSTIC SQUARE,Liquor Store (county), 08/23/2015,49 PARK COUNTY ROAD 68,Bailey,CO,80421,
BAILEY J L HENTERPRISES LTD,BAILEY JLH'S DELWOOD SQUARE LIQUORS INC,Liquor Store (county), 04/19/2016,#1 DELWOOD DR,Bailey,CO,804213100,
ALPINE LIQUOR STORE LLC THE,ALPINE LIQUOR STORE THE,Liquor Store (city), 09/07/2015,134 EMMA RD,Basalt,CO,816219162,
JEBEL CAPITAL CORP,EL JEBEVERAGE,Liquor Store (city), 09/08/2015,300 E VALLEY RD,Basalt,CO,816218317,
QUICK CHASE LLC,JIMBO'S LIQUOR,Liquor Store (city), 01/07/2016,128 BASALT CENTER CIR,Basalt,CO,81621,
WILLITS FINE WINE LLC,FOUR DOGS FINE WINE & SPIRITS,Liquor Store (city), 10/04/2015,350 REED ST STE 218,Basalt,CO,81621,
SHADETREE ENTERPRISES INC,GUZZLER THE,Liquor Store (county), 08/23/2016,73 SIPPRELLE DR #D,BATTLEMENT MESA,CO,816369213,
COLE FAMILY LLC,BAYFIELD LIQUOR,Liquor Store (city), 01/21/2016,455 COLORADO DRIVE,Bayfield,CO,81122,
WELLS LIQUOR LLC,WELLS LIQUOR,Liquor Store (city), 01/05/2016,2400 BAYFIELD PKWY 160B,Bayfield,CO,81122,
ROCKY MOUNTAIN LIQUORS LLC,ROCKY MOUNTAIN LIQUORS,Liquor Store (county), 11/12/2015,17454 CR 501 STE B,BAYFIELD,CO,811228712,
VALLECITO LAKE COUNTRY MARKET LLC,VALLECITO LAKE COUNTRY MARKET,Liquor Store (county), 08/17/2015,18071 CR 501,Bayfield,CO,811228715,
ARCHER & ARCHER LLC,POUDRE SPIRITS AND WINE,Liquor Store (county), 02/22/2016,33021 POUDRE CANYON RD,Bellvue,CO,805129426,
"DBLD LIQUOR, LLC",GLEN ECHO LIQUOR,Liquor Store (county), 06/18/2016,31503 POUDRE CANYON HIGHWAY 14,Bellvue,CO,80512,
BENNETT MARKETPLACE LIQUOR LLC,BENNETT MARKETPLACE LIQUOR,Liquor Store (city), 04/01/2016,965 S 1ST ST,Bennett,CO,80102,
JD'S LIQUOR LLC,JD'S LIQUOR,Liquor Store (city), 04/16/2016,101 S FIRST ST,Bennett,CO,80102,
LOG CABIN LIQUORS LLC,BERTHOUD LOG CABIN LIQUOR,Liquor Store (city), 03/18/2016,443 MOUNTAIN AVE,Berthoud,CO,805131256,
SHIRAZI-BEHESHTI J,BERTHOUD WINE & SPIRITS,Liquor Store (city), 01/14/2016,265 MOUNTAIN AVE,BERTHOUD,CO,80513,
KHOOTENAI LLC,HOMETOWN LIQUORS,Liquor Store (county), 02/21/2016,425 N. US HWY 287,Berthoud,CO,80513,
BLACK HAWK DEVELOPMENT CORP,COYOTE LIQUORS,Liquor Store (county), 08/10/2016,5312 HWY 119,Black Hawk,CO,80422,
PICKLE LIQUORS LLC,PICKLE LIQUORS,Liquor Store (county), 08/27/2016,661 HWY 46,Black Hawk,CO,80422,
UNDERGROUND LIQUOR LLC,UNDERGROUND LIQUOR,Liquor Store (county), 08/08/2015,15107 HIGHWAY 119,Black Hawk,CO,80422,
XTRACT LLC,MID COUNTY LIQUORS,Liquor Store (county), 02/15/2016,17218 HWY 119,Black Hawk,CO,804224553,
TOCZEK ZBIGNIEW,RED ROCK GENERAL STORE,Liquor Store (city), 06/08/2016,HWY 160 UNIT A,Blanca,CO,81123,
RIO RANCHO LLC,RANCHO DEL RIO,Liquor Store (county), 10/14/2015,4199 TROUGH RD,Bond,CO,804239702,
A-M HOLDINGS LLC,ALFALFA'S MARKET,Liquor Store (city), 09/28/2015,1655 BROADWAY,Boulder,CO,803026218,
BATTAMBANG INC,GUNBARREL LIQUOR,Liquor Store (city), 04/13/2016,6566-6570 LOOKOUT ROAD,Boulder,CO,80301,
BOULDER WINE MERCHANTS LTD,BOULDER WINE MERCHANT THE,Liquor Store (city), 04/15/2016,2690 BROADWAY,Boulder,CO,803043542,
BUFFALO SPIRITS LIQUOR LLC,REDS LIQUOR,Liquor Store (city), 11/08/2015,4481 N BROADWAY,Boulder,CO,803040586,
CHANSCO INC,PETTYJOHNS LIQUOR & WINE,Liquor Store (city), 11/03/2015,613 S BROADWAY,Boulder,CO,803035926,
CMG VENTURES LLC,WEST END WINE SHOP,Liquor Store (city), 09/25/2015,"777 PEARL ST, UNIT C",Boulder,CO,80302,
CONIS INC,NORTH BOULDER LIQUORS,Liquor Store (city), 12/31/2015,3990 BROADWAY,Boulder,CO,803041132,
CURED WINES LLC,CURED WINES,Liquor Store (city), 04/21/2016,1825B PEARL ST,Boulder,CO,803025527,
DHALIWAL INC,BAILEY'S WINE & SPIRITS,Liquor Store (city), 01/29/2016,4800 BASELINE ROAD UNIT E-101,Boulder,CO,80303,
GINGER?S DRIVE-THRU LIQUOR LLC,GINGER'S DRIVE-THRU LIQUOR,Liquor Store (city), 01/28/2016,3053 28TH ST,Boulder,CO,803011313,
INTEGRITY RETAIL PARTNERS LLC,HAZEL'S BEVERAGE WORLD,Liquor Store (city), 12/05/2015,1955 28TH ST,BOULDER,CO,803011101,
JOY CORPORATION,WILLOW SPRINGS LIQUOR,Liquor Store (city), 01/01/2016,2795 IRIS AVE,Boulder,CO,803042433,
KIM DO SOOK,WILLIAMS VILLAGE LIQUOR,Liquor Store (city), 03/31/2016,655 30TH ST,BOULDER,CO,803032310,
KIMI CORP.,BOTTLES,Liquor Store (city), 04/11/2016,2520 ARAPAHOE AVE,Boulder,CO,80302,
LIQUOR MART INC,LIQUOR MART,Liquor Store (city), 12/31/2015,1750 15TH ST,Boulder,CO,803026338,
LU & ASSOCIATES INC,ROSE HILL WINE & SPIRITS,Liquor Store (city), 06/01/2016,1089 13TH STREET,Boulder,CO,803027305,
MALO  LLC,B TOWN,Liquor Store (city), 01/08/2016,5360 ARAPAHOE AVE STE C,Boulder,CO,803038105,
MCELWEIDA INC,HARVEST WINE & SPIRITS INC,Liquor Store (city), 05/23/2016,3075 ARAPAHOE,Boulder,CO,803011016,
OH JIN,BROADWAY WINE & SPIRITS,Liquor Store (city), 03/10/2016,2550 BASELINE RD,Boulder,CO,803033324,
POPINDER CORP,BASELINE LIQUOR,Liquor Store (city), 06/09/2016,2750 BASELINE ROAD,BOULDER,CO,803033326,
SUN DELI AND LIQUOR LLC,SUN DELI AND LIQUOR,Liquor Store (city), 02/08/2016,2299 PEARL ST UNIT B,Boulder,CO,803024668,
SW LIQUOR CORP,BOULDER BEER & LIQUOR EMPORIUM,Liquor Store (city), 07/22/2016,4700 TABLE MESA DR,Boulder,CO,803035541,
TLIM INC,VIKING SPIRITS & LIQUORS,Liquor Store (city), 11/14/2015,5250 MANATTAN CIRCLE,Boulder,CO,803034258,
WHOLE FOODS MARKET ROCKY MTN/SW LP,WHOLE FOODS WINE AND SPIRITS,Liquor Store (city), 08/18/2016,2315 30TH ST,Boulder,CO,803011103,
YJ ENTERPRISES INC,A-OK LIQUOR,Liquor Store (city), 07/08/2015,2690 28TH ST UNIT #A,BOULDER,CO,803011254,
ELDORADO LIQUOR INC,ELDO WINE & SPIRITS,Liquor Store (county), 02/10/2016,1807 FOOTHILLS HIGHWAY,Boulder,CO,80303,
CITY LIQUORS INC,CITY LIQUORS,Liquor Store (city), 10/08/2015,400 N PARK UNIT 6B,Breckenridge,CO,804249999,
COHN PHILIP L,SKEE VUE LIQUORS,Liquor Store (city), 12/25/2015,311 S RIDGE,Breckenridge,CO,804249999,
RIDGE STREET WINE LLC,RIDGE STREET WINE,Liquor Store (city), 08/08/2015,304 B SOUTH MAIN ST.,BRECKENRIDGE,CO,804248830,
THE LIQUOR SHED LLC,THE LIQUOR SHED,Liquor Store (city), 06/21/2016,116 NORTH MAIN STREET,BRECKENRIDGE,CO,80424,
YOUNG-ILL LLC,SUMMIT WINE & LIQUORS,Liquor Store (city), 05/28/2016,110 S PARK AVENUE,BRECKENRIDGE,CO,80424,
AMERICAN LIQUORS LLC,AMERICAN LIQUORS,Liquor Store (county), 06/20/2016,76 HURON RD,Breckenridge,CO,80424,
CROW VALLEY LIQUORS LLC,CROW VALLEY LIQUORS,Liquor Store (county), 05/30/2016,37937 HWY 14,Briggsdale,CO,80611,
BRIGHTON CROSSING LIQUORS LLC,BRIGHTON CROSSING LIQUORS,Liquor Store (city), 06/04/2016,96 NORTH 50TH AVENUE UNIT D,Brighton,CO,80601,
BROMLEY LIQUOR INC.,BROMLEY LIQUOR,Liquor Store (city), 12/02/2015,843 S. KUNER RD.,Brighton,CO,80601,
"CHIRAVUTH TOUCH, INC",ALE HOUSE LIQUORS,Liquor Store (city), 02/05/2016,1595 E BRIDGE ST,Brighton,CO,806011929,
DAK SQUARED LLC,MARKETPLACE WINE & SPIRITS,Liquor Store (city), 01/21/2016,450 E BROMLEY LANE #150,Brighton,CO,80601,
G & D LIQUORS LLC,EAST BRIDGE FINE WINES AND DISTILLED SPIRITS,Liquor Store (city), 05/22/2016,1810 E BRIDGE ST,Brighton,CO,80601,
HOMCHANH INC,PRAIRIE WINE & SPIRITS,Liquor Store (city), 07/27/2015,"2223 PRAIRIE CTR PKWY, UNIT A",BRIGHTON,CO,806011633,
J N W CORPORATION,BRIGHTON LIQUOR,Liquor Store (city), 04/03/2016,611 S 4TH AVE,BRIGHTON,CO,806013201,
KIDANE GHENNET,EAST BRIDGE DISCOUNT LIQUORS,Liquor Store (city), 04/14/2016,2400 E BRIDGE ST,BRIGHTON,CO,806012546,
LOCHBUIE LIQUOR INC,LOCHBUIE LIQUOR INC,Liquor Store (city), 06/17/2016,0100 WELD CNTY RD 37,Brighton,CO,806019524,
PAISANO LIQUORS INC,PAISANO LIQUORS,Liquor Store (city), 03/22/2016,126 W BRIDGE ST UNIT A,BRIGHTON,CO,806011796,
SB LIQUOR LLC,CHERRYWOOD LIQUOR,Liquor Store (city), 09/15/2015,13679 COLORADO BLVD,Brighton,CO,80602,
WHISKEY BARREL INC,WHISKEY BARREL,Liquor Store (city), 09/03/2015,104 W LONGSPEAK,Brighton,CO,806011673,
BOGEYS LLC,CASABLANCA WINE & SPIRITS,Liquor Store (city), 05/03/2016,6765 W 120TH AVE UNIT B3,Broomfield,CO,800200301,
GROVE LIQUOR LLC,GROVE LIQUOR,Liquor Store (city), 10/22/2015,14344 LINCOLN ST,Broomfield,CO,80023,
H.K. ATOM LLC,287 LIQUOR MARKET,Liquor Store (city), 01/19/2016,1140 HWY 287 STE 500,Broomfield,CO,80020,
KM LIQUORS INC,BROADLANDS LIQUORS,Liquor Store (city), 03/10/2016,3700 W 144TH AVE #D-800,BROOMFIELD,CO,800209530,
LUCAS REZENE K,BROOMFIELD LIQUORS,Liquor Store (city), 06/11/2016,300 NICKEL ST #16,Broomfield,CO,800202097,
PEMBERTON FAMILY LIQUOR LLC,HIGH FIVE LIQUOR,Liquor Store (city), 08/02/2016,"5099 W 120TH AVE, STE C4-6",Broomfield,CO,80020,
QUAIL CREEK WINE AND SPIRITS INC,QUAIL CREEK WINE & SPIRITS,Liquor Store (city), 09/18/2015,2255 W 136TH AVE STE 130,Broomfield,CO,800239304,
S AND L ENTERPRISES,GO GO LIQUORS,Liquor Store (city), 07/26/2015,1398 HWY 287,BROOMFIELD,CO,800202224,
SNS INC,ARISTA WINE  & SPIRIT,Liquor Store (city), 08/07/2016,8200 ARISTA PL #110,Broomfield,CO,80021,
TL CORPORATION,KELLY'S WINE AND SPIRITS,Liquor Store (city), 02/06/2016,1000 DEPOT HILL RD,BROOMFIELD,CO,800206719,
WESTLAKE LIQUOR FNLLC,WESTLAKE LIQUOR FN,Liquor Store (city), 12/04/2015,12920 LOWELL BLVD,Broomfield,CO,800205449,
WOODLAND BAY CORPORATION,LIQUOR STAR,Liquor Store (city), 08/17/2015,6650 W 120TH AVE STE A-10,Broomfield,CO,800207614,
BRUSH GROCERY KART INC,KART LIQUORS,Liquor Store (city), 06/04/2016,1306 W EDISON ST,BRUSH,CO,807232310,
EASTSIDE LIQUORS INC,EASTSIDE LIQUOR,Liquor Store (city), 12/07/2015,320 E EDISON,BRUSH,CO,807232522,
KANG MIKE HYONG,BRUSH LIQUOR MART,Liquor Store (city), 10/28/2015,520 EDISON ST,BRUSH,CO,807232011,
C J ENTERPRISES LLC,RALLY LIQUORS,Liquor Store (city), 11/09/2015,402 S HWY 24,Buena Vista,CO,81211,
LA VALLE'S GAS & LIQUORS INC,LA VALLE LIQUORS,Liquor Store (city), 02/18/2016,543 N HWY 24,Buena Vista,CO,81211,
LITTLE DAISY COMPANY,LITTLE DAISY COMPANY,Liquor Store (city), 09/23/2015,302 N HWY 24,BUENA VISTA,CO,812119651,
WEEKS KATHLEEN ANN,HIGH PEAKS LIQUOR,Liquor Store (county), 06/22/2015,12916 UNIT A HWY 24/285,BUENA VISTA,CO,81211,
DAVIS RICHARD W DAVIS JANET ELAINE,DAVIS & DAVIS,Liquor Store (city), 10/30/2015,1775 ROSE AVE,Burlington,CO,808071553,
MITCHELL HAROLD A MITCHELL KATHERINE M,BURLINGTON LIQUORS,Liquor Store (city), 06/07/2016,430 S LINCOLN,BURLINGTON,CO,808072107,
RB & BG INVESTMENTS LLC,LINCOLN LIQUORS,Liquor Store (city), 10/10/2015,132 LINCOLN ST,BURLINGTON,CO,808071406,
MAC'S LIQUOR STORE INC,MAC'S LIQUORS,Liquor Store (city), 11/30/2015,1005 5TH ST,Calhan,CO,808088826,
AMENDT BROTHERS INC,MT'S LIQUOR,Liquor Store (county), 11/07/2015,23520 HWY 94,Calhan,CO,80808,
AMERICAN LIQUOR INC,AMERICAN LIQUOR,Liquor Store (city), 01/01/2016,628 ROYAL GORGE BLVD,CANON CITY,CO,812123751,
JEWETT DRUGS INC,JEWETT'S,Liquor Store (city), 07/18/2016,121 N 16TH ST,Canon City,CO,812122401,
MCROWE CORPORATION,SKYLINE LIQUOR,Liquor Store (city), 02/06/2016,2401 N 9TH ST,Canon City,CO,812122105,
SHARON R DODGE LLC,BIG MAMAS DISCOUNT LIQUOR,Liquor Store (city), 02/02/2016,2753 E MAIN ST,CANON CITY,CO,812124009,
SHARPER LIQUORS LLC,BOTTLE SHOPPE THE,Liquor Store (city), 02/04/2016,2405 FREMONT DR,Canon City,CO,812122601,
THUNDER ROAD LIQUOR LLC,THUNDER ROAD LIQUOR,Liquor Store (city), 08/17/2015,725 S 9TH,Canon City,CO,81212,
JEE ENTERPRISES INC,GATEWAY LIQUOR,Liquor Store (county), 10/04/2015,3055 E HWY 50 STE A & B,CANON CITY,CO,812120000,
MCGILLS WINE & SPIRITS INC,WATERHOLE NO 1,Liquor Store (county), 01/25/2016,1503 ELM AVE,Canon City,CO,812124518,
PS CAMPING INC,PROSPECTOR RV PARK,Liquor Store (county), 02/24/2016,43595 HWY 50 W,Canon City,CO,81212,
TZ LIQUOR LLC,TZ LIQUOR,Liquor Store (county), 09/30/2015,105 FORGE RD,Canon City,CO,81212,
BERNIES BAIT AND TACKLE SHOP LLC,BERNIE'S BAIT & TACKLE SHOP,Liquor Store (county), 07/07/2015,7998 HWY 15,Capulin,CO,81124,
QUINTANA ERNEST E,EL CENTRITO LIQUOR,Liquor Store (county), 07/30/2015,6262 STATE HWY 15,Capulin,CO,81124,
JOLLY MAUNS LLC,RHUMBA GIRL LIQUORS,Liquor Store (city), 12/22/2015,1310 HWY 133,Carbondale,CO,81623,
K & A LLC,SOPRIS LIQUOR AND WINE,Liquor Store (city), 07/20/2016,1026 HWY 133,Carbondale,CO,81623,
MARY'S MAIN STREET SPIRITS LLC,MARY'S MAIN STREET SPIRITS,Liquor Store (city), 09/01/2015,389 MAIN STREET,Carbondale,CO,81623,
POP'S LIQUORS INC,POP'S LIQUORS,Liquor Store (city), 05/27/2016,990 COWEN DRIVE,CARBONDALE,CO,816231583,
WINETIME LLC,WINETIME,Liquor Store (city), 03/24/2016,792 & 798 HWY 133,CARBONDALE,CO,81623,
CATHERINE STORE WINE& LIQUOR INC,CATHERINE STORE WINE & LIQUOR,Liquor Store (county), 05/07/2016,15783 HWY 82,Carbondale,CO,816239557,
CVL INVESTMENTS LLC,REDSTONE GENERAL STORE,Liquor Store (county), 04/13/2016,292 REDSTONE BLVD,Carbondale,CO,816238926,
"K&D INVESTMENT, INC",TRUE LIQUORS,Liquor Store (city), 10/01/2015,572 E CASTLE PINES PKWY,Castle Pines,CO,80108,
T & G ENTERPRISES LLC,CASTLE PINES NORTH WINE & SPIRITS,Liquor Store (city), 06/07/2016,7280 LAGAE RD UNIT A,Castle Pines,CO,801089454,
AMKO TRADING COMPANY INC.,I-25 LIQUOR,Liquor Store (city), 04/22/2016,1001 CAPRICE DR,CASTLE ROCK,CO,801091502,
CASTLE ROCK LIQUORS & WINES INC,CASTLE ROCK LIQUORS & WINES,Liquor Store (city), 10/30/2015,20 S WILCOX ST,CASTLE ROCK,CO,801041909,
EUN GROUP CORPORATION,PERRY POINTE LIQUORS,Liquor Store (city), 06/30/2016,325 E MILLER CT,Castle Rock,CO,80104,
G&M THIARA INC,SEVEN STAR LIQUOR MART,Liquor Store (city), 02/03/2016,390 SOUTH WILCOX ST UNIT F,Castle Rock,CO,80104,
JFK INVESTMENTS LLC,BUBBLES LIQUOR WORLD,Liquor Store (city), 08/30/2016,675 GENOA WAY,Castle Rock,CO,801091979,
K&M LTD,PLUM CREEK LIQUOR,Liquor Store (city), 10/14/2015,834 S PERRY ST UNIT A,Castle Rock,CO,80104,
"MACH5 ENTERPRISES, INC",CASTLE PINES WINE & SPIRITS,Liquor Store (city), 09/01/2015,"62 FOUNDERS PKWY, UNIT J",Castle Rock,CO,80104,
VILLAGE SOUTH WINE &SPIRITS INC,VILLAGE SOUTH WINE & SPIRITS,Liquor Store (city), 06/02/2016,804 RIDGE RD UNIT A,CASTLE ROCK,CO,801049763,
GOOD LIFE LLC,DODDS WINE WAULT,Liquor Store (county), 05/16/2016,872 W HAPPY CANYON ROAD #110,CASTLE ROCK,CO,801083911,
A-LAZY-Y INC,SHORT BRANCH LIQUOR,Liquor Store (city), 12/25/2015,130 N GRAND MESA DR,CEDAREDGE,CO,814133335,
CEDAREDGE WINE & SPIRITS INC,MESA LIQUORS OF CEDAREDGE,Liquor Store (city), 11/09/2015,690 S GRAND MESA DR,CEDAREDGE,CO,814134015,
ARIJE JIDE R,SPIRITS OF PINEY CREEK,Liquor Store (city), 03/25/2016,16750 E SMOKY HILL RD,CENTENNIAL,CO,800152470,
BOVA ENTERPRISES INC,SMOKY HILL VILLAGE LIQUORS,Liquor Store (city), 10/22/2015,19731 E SMOKY HILL RD,CENTENNIAL,CO,800153101,
D C D L INC,DRY CREEK DISCOUNT LIQUORS,Liquor Store (city), 11/02/2015,7500 S UNIVERSITY BL,Centennial,CO,801223168,
FORREST WINE & LIQUOR MART LLC,FORREST WINE & LIQUOR MART,Liquor Store (city), 03/31/2016,20239 E. SMOKEY HILL RD #A,Centennial,CO,80015,
FOXRIDGE DISCOUNT LIQUORS INC,FOXRIDGE DISCOUNT LIQUORS,Liquor Store (city), 08/10/2016,8178 S HOLLY ST,Centennial,CO,801224004,
GOOD TIME BEVERAGE LLC,CAMELOT LIQUORS,Liquor Store (city), 08/16/2015,18525 E SMOKEY HILL RD #F,Centennial,CO,800153108,
HERITAGE WINE & LIQUOR INC,HERITAGE WINE & LIQUOR,Liquor Store (city), 12/31/2015,7475 E ARAPAHOE RD,Centennial,CO,801121255,
KIDANE ABRAHA CORPORATION,ARAPAHOE VILLAGE LIQUORS,Liquor Store (city), 06/06/2016,5070 E ARAPAHOE RD #A2,Centennial,CO,80122,
LE VIGNE INC,GRAPES WINE MARKET,Liquor Store (city), 04/12/2016,6853 S YORK ST #122,Centennial,CO,801223213,
MOJO BEAU CO,WILLOW CREEK WINE & SPIRIT,Liquor Store (city), 04/10/2016,8200 SO QUEBEC ST #A2,Centennial,CO,80112,
OASIS WINE & SPIRITS INC,OASIS WINE & SPIRITS,Liquor Store (city), 08/20/2015,4530 S RESERVOIR ROAD UNITS F&G,Centennial,CO,80015,
SAHIB THIARA INC,PEAKVIEW WINE & SPIRITS,Liquor Store (city), 10/11/2015,"6631 S PEORIA ST, #170",Centennial,CO,80112,
SDK ENTERPRISES CORP,PINEY CREEK LIQUOR,Liquor Store (city), 06/09/2016,15442 E ORCHARD RD,Centennial,CO,80016,
SHREE BINAYAK INC,SADDLE ROCK DISCOUNT LIQUORS,Liquor Store (city), 11/24/2015,20941 E SMOKY HILL RD #D,Centennial,CO,800155196,
SIDHU ENTERPRISES INC,CHERRY KNOLLS WINE & SPIRITS,Liquor Store (city), 10/20/2015,6812 S UNIVERSITY BLVD,Centennial,CO,801221515,
TAMARIND YARD INC,TAMARIND YARD,Liquor Store (city), 02/10/2016,"10639 E BRIARWOOD AVENUE, SUITE C-2",Centennial,CO,80112,
WINE LIST INC THE,TONY B'S WINE LIST,Liquor Store (city), 10/24/2015,4991 EAST DRY CREEK RD,Centennial,CO,801223803,
CENTER LIQUOR INC,CENTER LIQUOR,Liquor Store (city), 04/29/2016,236 WORTH ST,CENTER,CO,81125,
P K M INC,M & M LIQUOR,Liquor Store (city), 01/05/2016,365 WORTH ST,Center,CO,811250698,
BORING DEBRA L,ANNIE'S LIQUORS,Liquor Store (city), 06/11/2013,135 NEVADA ST,CENTRAL CITY,CO,80427,
LEGENDS INC,ANNIE OAKLEY'S LIQUOR AND GROCERY,Liquor Store (city), 03/13/2016,135 NEVADA ST,Central City,CO,80427,
OCHO VINO,VINO VINO,Liquor Store (city), 08/27/2015,"1400 E HAMPDEN, STE 130",Cherry Hills,CO,80113,
BOTTLE BARN LIQUOR LLC,BOTTLE BARN LIQUOR,Liquor Store (city), 11/20/2015,90 S 1 WEST,Cheyenne Wells,CO,80810,
CREEK JOINT VENTURES LLC,KWIK KORNER,Liquor Store (city), 05/12/2016,515 SOUTH 4TH EAST,CHEYENNE WELLS,CO,80810,
MILLER KAREN SUE,NAN'S LIQUOR,Liquor Store (city), 03/01/2016,635 W HWY 40,Cheyenne Wells,CO,80810,
CLARK LIQUOR COMPANY LLC,CLARK LIQUORS,Liquor Store (county), 11/09/2015,54175 ROUTT COUNTY ROAD 129,Clark,CO,80428,
CST METRO LLC,CORNER STORE LIQUOR #4061,Liquor Store (county), 06/17/2016,3202 E RD,Clifton,CO,81520,
EAST VALLEY LIQUORS INC,EAST VALLEY LIQUORS,Liquor Store (county), 12/02/2015,418 32 ROAD UNIT B,CLIFTON,CO,815209501,
KENT BALOG LLC,MT GARFIELD LIQUORS,Liquor Store (county), 06/13/2013,3233 1-70 BUSINESS LOOP,CLIFTON,CO,81520,
MAVERIK INC,MAVERIK INC #424,Liquor Store (county), 08/24/2016,3249 F ROAD,Clifton,CO,815207545,
VEZAKIS ENTERPRISES INC,CLIFTON LIQUORS,Liquor Store (county), 01/26/2016,3255 F ROAD,Clifton,CO,81520,
WOOD ROBERT A & WOOD VICKI J,OLE DAD'S LIQUOR,Liquor Store (city), 08/05/2015,107 MAIN STREET,Collbran,CO,816249900,
MCCALLISTER JEFFREY,FAST BREAK LIQUOR STORE,Liquor Store (county), 04/10/2016,6654 HWY 165,Colorado City,CO,81019,
SMITH THOMAS L,ALPINE LIQUORS,Liquor Store (county), 05/04/2016,4340 VALVERDE WAY,COLORADO CITY,CO,81019,
ACADEMY DISCOUNTLIQUOR INC,ACADEMY DISCOUNT LIQUOR,Liquor Store (city), 10/11/2015,1210 N ACADEMY BLVD,COLORADO SPRINGS,CO,809094407,
AMERICAN SPIRIT LIQUOR LLC,AMERICAN SPIRIT LIQUOR,Liquor Store (city), 12/04/2015,3842 NORTH NEVADA AVE,Colorado Springs,CO,80907,
ANGIE'S LIQUOR LLC,ANGIE'S LIQUOR,Liquor Store (city), 03/05/2016,1109 S CHELTON ROAD,Colorado Springs,CO,809101738,
ARUSHI INC,DIAMOND LIQUORS,Liquor Store (city), 11/30/2015,5490 POWERS CENTER PT. #100,Colorado Springs,CO,80920,
B STREET LIQUORS INC,NEIGHBORS LIQUORS,Liquor Store (city), 06/04/2016,5044 N ACADEMY BLVD,COLORADO SPRINGS,CO,809194124,
BADHESHA SURINDER S BADHESHA RAJINDER K,VILLAGE SEVEN LIQUOR,Liquor Store (city), 05/27/2016,4759 N CAREFREE CIRCLE,COLORADO SPRINGS,CO,809172118,
BKAA LLC,BLUFFS WINE AND LIQUOR,Liquor Store (city), 06/12/2016,3609 AUSTIN BLUFFS PARKWAY # 26,Colorado Springs,CO,80918,
BOO JA  LLC,CLASSIC LIQUORS,Liquor Store (city), 01/27/2016,1712 DUBLIN BLVD,Colorado Springs,CO,809188348,
CBH LLC,LIGHTHOUSE LIQUORS,Liquor Store (city), 01/04/2016,1670 CHEYENNE MOUNTAIN BLVD,Colorado Springs,CO,80906,
"CH, LLC",CHEYENNE TRAIL LIQUORS,Liquor Store (city), 04/30/2016,1703 S 8TH ST,Colorado Springs,CO,80905,
CHAHAL LLC,SHAMROCK LIQUORS,Liquor Store (city), 10/20/2015,2867 DUBLIN BLVD,Colorado Springs,CO,809181662,
CHEYENNE ROAD LIQUORS LLC,CHEYENNE ROAD LIQUORS,Liquor Store (city), 06/10/2016,100 E CHEYENNE RD,Colorado Springs,CO,809062556,
CHOIS INC,HARRY'S LIQUORS,Liquor Store (city), 03/11/2016,1527 S NEVADA AVE,Colorado Springs,CO,809062219,
CHUNG WEON INC,CHUNG'S ASPEN LIQUORS,Liquor Store (city), 07/29/2015,3857 E PIKES PEAK AVE,COLORADO SPRINGS,CO,809096716,
"CIRCLE LIQUOR, LLC",CIRCLE LIQUOR,Liquor Store (city), 12/04/2015,441 S CIRCLE DR,Colorado Springs,CO,809102318,
CLUB WINE & SPIRITS INC,SPIRITS AT WESTWIND,Liquor Store (city), 02/14/2016,4333 CENTENNIAL BLVD,COLORADO SPRINGS,CO,809193769,
COALTRAIN INC,COALTRAIN WINE & LIQUOR,Liquor Store (city), 06/07/2016,330 W UINTAH,COLORADO SPRINGS,CO,809051045,
COLORADO WINE & LIQUOR INC,COLORADO WINE & LIQUOR,Liquor Store (city), 07/14/2016,5055 N ACADEMY BLVD,COLORADO SPRINGS,CO,809184125,
CROWN LIQUOR INC,CROWN WINE & LIQUOR,Liquor Store (city), 09/22/2015,6932 N ACADEMY BL,COLORADO SPRINGS,CO,809181127,
"CWS LIQUOR, LLC",ACADEMY LIQUOR MART,Liquor Store (city), 09/15/2015,1705 SOUTH ACADEMY BOULEVARD,Colorado Springs,CO,80916,
D&K HUE MANG INC,ASTRO LIQUORS,Liquor Store (city), 06/25/2016,3865 ASTROZON BLVD,COLORADO SPRINGS,CO,809162409,
DAEBUCK INVESTMENT INC,FAMILY LIQUORS,Liquor Store (city), 02/06/2016,435 N MURRAY BLVD,Colorado Springs,CO,809161029,
DAJEDA LLC,CANYON CREST LIQUORS,Liquor Store (city), 09/05/2015,4935 CENTENNIAL BLVD #E,Colorado Springs,CO,809192495,
DAL B LEE,OLD FARM WINE & SPIRITS,Liquor Store (city), 01/23/2016,5109 AUSTIN BLUFFS PKWY,Colorado Springs,CO,80918,
DESAI BROTHERS LLC,B & B WINE & SPIRITS,Liquor Store (city), 12/07/2015,837 CHEYENNE MEADOWS RD,Colorado Springs,CO,809064929,
DMC ENTERPRISE INC,GIN MILL LIQUORS,Liquor Store (city), 06/27/2016,410 N CIRCLE DR,COLORADO SPRINGS,CO,809096247,
DSH LIQUORS INC,DSH LIQUORS,Liquor Store (city), 07/19/2016,5046 N NEVADA AVE,COLORADO SPRINGS,CO,809018602,
E&J SIDHU INC.,SANDCREEK LIQUOR,Liquor Store (city), 02/06/2016,1447 S MURRAY BLVD,Colorado Springs,CO,80916,
EL REY LIQUOR LLC,EL REY LIQUOR,Liquor Store (city), 11/13/2015,3746 E PIKES PEAK AVE,COLORADO SPRINGS,CO,809166569,
EMPIRE LIQUORS INC,EMPIRE LIQUORS,Liquor Store (city), 07/09/2016,3381 N ACADEMY BLVD,Colorado Springs,CO,809185103,
FRE LLC,WEBER STREET WINES SPIRITS & CRAFT BEER,Liquor Store (city), 11/09/2015,712 N WEBER ST,Colorado Springs,CO,809031016,
FREESPRITS CORP,AUSTIN BLUFFS WINE & LIQUOR,Liquor Store (city), 06/20/2016,4535 AUSTIN BLUFFS PARKWAY,Colorado Springs,CO,80918,
GALLEY  LIQUORS INC,GALLEY DISCOUNT LIQUORS,Liquor Store (city), 08/21/2015,4311 GALLEY ROAD,Colorado Springs,CO,80915,
GALLEY DISCOUNT LIQUORS INC,GALLEY DISCOUNT LIQUOR,Liquor Store (city), 07/26/2015,4311 GALLEY DR,COLORADO SPRINGS,CO,809152728,
GBOGHY VENTURES LLC,EMBOL LIQUOR AND WINE STORE,Liquor Store (city), 12/14/2015,617 NORTH MURRAY BLVD #B,Colorado Springs,CO,80915,
GENO'S INC,LIQUOR DEPOT,Liquor Store (city), 03/23/2016,5984 STETSON HILLS BLVD,Colorado Springs,CO,80922,
H & H FINE ARTS INC,DOWNTOWN FINE SPIRITS & WINES,Liquor Store (city), 10/10/2015,103 S WAHSATCH AVE  STE A & B,Colorado Springs,CO,80903,
HAMILTON ENTERPRISES LLC,BEER CAVE,Liquor Store (city), 08/26/2015,220 N. CHELTON ROAD,Colorado Springs,CO,80909,
HAN MYONG H,LAKEVIEW LIQUOR,Liquor Store (city), 07/26/2016,4646 N NEVADA AVE,COLORADO SPRINGS,CO,809183914,
HAWK CORP,BOB'S LIQUOR,Liquor Store (city), 05/07/2016,3519 N EL PASO STREET,Colorado Springs,CO,80907,
HML INC,CORKS BOTTLES & BREWS,Liquor Store (city), 11/01/2015,1852 SOUTHGATE RD,Colorado Springs,CO,809062686,
HOPE SPIRITS LLC,HOPE SPIRITS,Liquor Store (city), 04/25/2016,7065 AUSTIN BLUFFS PKWY,Colorado Springs,CO,809239276,
HUIZAR SANTOS HUIZAR TAMMY,LIQUOR SPOT THE,Liquor Store (city), 02/16/2016,2831 N NEVADA AVE,Colorado Springs,CO,809076222,
HUNJAN LLC,J'S LIQUORS,Liquor Store (city), 09/09/2015,31 E FILLMORE ST,Colorado Springs,CO,809076236,
HUNJU INC,SCHNAPPS BOX LIQUOR,Liquor Store (city), 10/21/2015,2515 S CHELTON RD,COLORADO SPRINGS,CO,809162931,
J & B 8TH STREETLIQUOR INC,8TH STREET LIQUORS,Liquor Store (city), 06/30/2016,506 S 8TH STREET,COLORADO SPRINGS,CO,809051808,
J & D DISCOUNT LIQUOR INC,J & D DISCOUNT LIQUOR,Liquor Store (city), 07/01/2016,4884 GALLEY ROAD,Colorado Springs,CO,80915,
J & H MIDAS  INC,FRANK & JACK LIQUORS,Liquor Store (city), 01/16/2016,525 N 30TH ST,Colorado Springs,CO,809042128,
J AND S CHANA LLC,ODDONES LIQUORS,Liquor Store (city), 07/27/2016,441 N UNION BLVD,Colorado Springs,CO,809094627,
JACK C MASON INC,GARDEN OF THE GOD'S LIQUOR,Liquor Store (city), 07/07/2016,777 GARDEN OF GODS RD,COLORADO SPRINGS,CO,809073505,
JDT INC,JAMBOREE LIQUOR,Liquor Store (city), 02/26/2016,8290 RAZORBACK RD,Colorado Springs,CO,80920,
JOHNSAM INC,RED ROCK LIQUORS,Liquor Store (city), 07/30/2016,3139 W COLORADO AVE,COLORADO SPRINGS,CO,809042040,
JOSCONO COMPANY,PAY LESS LIQUORS,Liquor Store (city), 01/13/2016,3472 RESEARCH PARKWAY SUITE 100,Colorado Springs,CO,80920,
JUMAN LLC,SPRINGS LIQUORS,Liquor Store (city), 01/07/2016,2905 W COLORADO AVE,Colorado Springs,CO,809042445,
JUMAR INC,PEAK LIQUOR,Liquor Store (city), 10/18/2015,6455 SOURCE CENTER POINT,Colorado Springs,CO,80923,
JUNHEE INC,QUART HOUSE LIQUOR,Liquor Store (city), 02/05/2016,2738 PALMER PARK BLVD,COLORADO SPRINGS,CO,809093056,
KAMP BEVERAGES  LLC,PIKES PEAK PARK LIQUORS,Liquor Store (city), 12/19/2015,2831 E FOUNTAIN BLVD,Colorado Springs,CO,809102312,
KIM SUNG R,PLATTE AVENUE LIQUORS,Liquor Store (city), 07/01/2016,841 E PLATTE AVE,Colorado Springs,CO,809033547,
KIMBY INC,MESA LIQUOR,Liquor Store (city), 04/19/2016,1740 SHASTA DR,COLORADO SPRINGS,CO,809101912,
KYC INC,PLAZA 21 DISCOUNT LIQUORS,Liquor Store (city), 12/03/2015,1014 S 21ST ST,Colorado Springs,CO,809043768,
L&N ENTERPRISES INC,MK WINE AND LIQUOR,Liquor Store (city), 06/24/2016,5955 CONSTITUTION AVE,COLORADO SPRINGS,CO,809151211,
LAKE LIQUORS INC,LAKE LIQUORS,Liquor Store (city), 08/22/2016,501 S UNION BLVD,Colorado Springs,CO,809103458,
LAMBRIE INVESTMENTS INC,STEINS & VINES,Liquor Store (city), 04/04/2016,3260 CENTENNIAL DR,COLORADO SPRINGS,CO,809074077,
LEE YOUNG HWAN,BOURBON BOX LIQUORS,Liquor Store (city), 06/28/2016,4399 AIRPORT RD,Colorado Springs,CO,809161401,
LMR LIQUORS LLC,MISSION POINT LIQUOR,Liquor Store (city), 01/06/2016,3051 JETWING DR,Colorado Springs,CO,809163270,
LOTS A LIQUOR & TOBACCO INC,LOTS A LIQUOR & TOBACCO,Liquor Store (city), 03/07/2016,2308 N WAHSATCH AVE,Colorado Springs,CO,809076941,
M T COLLINS  LLP,VINTAGES WINE & SPIRIT,Liquor Store (city), 10/20/2015,9 S TEJON AVE,Colorado Springs,CO,809031505,
"MALKIT SINGH, INC.",LK LIQUORS,Liquor Store (city), 01/07/2016,2850 S ACADEMY #120,Colorado Springs,CO,80916,
MARTINEZ GASPAR JUDE,RUSKIN LIQUOR,Liquor Store (city), 02/05/2016,3960 AIRPORT ROAD,COLORADO SPRINGS,CO,809162404,
MCK WILD COMPANY,WILDSTEIN LIQUORS,Liquor Store (city), 01/29/2016,5406 N ACADEMY BLVD,Colorado Springs,CO,80918,
MCSQUARED INC,BETCHA LIQUORS,Liquor Store (city), 12/09/2015,5406 ACADEMY BLVD,COLORADO SPRINGS,CO,809183602,
MDD BASSI INC,UNITED WINE AND LIQUOR,Liquor Store (city), 03/02/2016,5752 NORTH ACADEMY BOULEVARD,Colorado Springs,CO,80918,
MONTANA LIQUORS OF COS INC,MONTANA LIQUORS,Liquor Store (city), 03/22/2016,6530 S ACADEMY BLVD #101,COLORADO SPRINGS,CO,809068635,
MORRISSEY MICHAEL J EMESON MARTIN,DRIVE IN LIQUORS,Liquor Store (city), 04/03/2016,141 N SPRUCE ST,COLORADO SPRINGS,CO,809051409,
MOUNTAIN LIQUOR COMPANY INC,COSTCO LIQUORS AT COLORADO SPRINGS,Liquor Store (city), 09/24/2015,5881 BARNES RD,COLORADO SPRINGS,CO,80922,
"MOUNTAIN SHADOWS LIQUOR, LLC",MOUNTAIN SHADOWS LIQUOR,Liquor Store (city), 11/03/2015,6840 CENTENNIAL BLVD,Colorado Springs,CO,80919,
N & K INC,VICKERS LIQUOR STORE,Liquor Store (city), 01/09/2016,5690 N UNION BLVD,COLORADO SPRINGS,CO,809181940,
N AND M ENTERPRISES LLC,FLINTRIDGE HOUSE OF SPIRITS,Liquor Store (city), 09/15/2015,4779 FLINTRIDGE DR,Colorado Springs,CO,809184230,
NEW GENERATION LIQUOR LLC,CHEERS LIQUOR MART,Liquor Store (city), 12/12/2015,1105 N CIRCLE DR,Colorado Springs,CO,809183134,
NYRCAN INC,D & S LIQUORS,Liquor Store (city), 05/13/2016,2535 DELTA DR,Colorado Springs,CO,80910,
P&C ENTERPRISES INC,CELLAR AT ROCKRIMMON,Liquor Store (city), 05/17/2016,6606 DELMONICO DR,COLORADO SPRINGS,CO,809191810,
PAHK BEVERAGES LLC,P WESTSIDE LIQUORS,Liquor Store (city), 05/01/2016,1431 W COLORADO AVE,COLORADO SPRINGS,CO,809044112,
PARADISE LIQUORS LLC,SOUTH NEVADA LIQUORS,Liquor Store (city), 08/05/2016,1107 S NEVADA AVE,Colorado Springs,CO,809034325,
PATEL NEELESH S,JOHNNIES LIQUOR STORE,Liquor Store (city), 04/15/2016,1725 S NEVADA AVE,Colorado Springs,CO,809062223,
PCWS LLC,PINE CREEK WINE,Liquor Store (city), 04/09/2016,9235 N UNION BLVD #100,COLORADO SPRINGS,CO,809207831,
"QUALITY LIQUORS, LLC","QUALITY LIQUORS, LLC",Liquor Store (city), 09/29/2015,2871 MURRAY BLVD,COLORADO SPRINGS,CO,809173618,
QUEEN LIQUOR INC,QUEEN LIQUOR,Liquor Store (city), 12/09/2015,1744 W UINTAH,COLORADO SPRINGS,CO,809042958,
RED CELLAR DOOR WINE & SPIRITS LLC,WINE GALLERY WINE & SPIRITS THE,Liquor Store (city), 06/24/2016,5903 DELMONICO DR,Colorado Springs,CO,80919,
RYAN C ENTERPRISESINC,CHEYENNE MOUNTAIN LIQUORS,Liquor Store (city), 08/24/2016,730 CHEYENNE MEADOWS RD,COLORADO SPRINGS,CO,809064943,
SALVADOR KIM Y SALVADOR BONG S,KS LIQUOR,Liquor Store (city), 12/07/2015,2060 S ACADEMY,Colorado Springs,CO,809102447,
SANJAY CORPORATION,BROADMOOR WINE & SPIRITS,Liquor Store (city), 10/10/2015,116 E CHEYENNE MTN BLVD,Colorado Springs,CO,809063718,
SARAI INVESTMENTS INC,J&K LIQUORS,Liquor Store (city), 01/07/2016,2906 POWERS BLVD,Colorado Springs,CO,809222801,
SARIKA CORPORATION,FILLMORE LIQUOR,Liquor Store (city), 12/09/2015,810 EAST FILLMORE ST,Colorado Springs,CO,80907,
SATELLITE LIQUOR LLC,SATELLITE LIQUOR,Liquor Store (city), 10/05/2015,296 S ACADEMY UNIT G,COLORADO SPRINGS,CO,80903,
SHERMAN SPIRITS LLC,FLYING HORSE WINE AND SPIRITS,Liquor Store (city), 07/01/2016,2678 NORTH GATE BLVD,Colorado Springs,CO,80921,
SINGH NELVI AVTAR SINGH ARVINDER,BARNES LIQUOR,Liquor Store (city), 12/16/2015,4819 BARNES RD,Colorado Springs,CO,809171721,
SMOKER KING INC,SMOKER KING INC.,Liquor Store (city), 01/11/2016,1951 W UINTAH ST,COLORADO SPRINGS,CO,809042739,
SONG STEPHEN J,AUDUBON LIQUORS,Liquor Store (city), 08/16/2015,2429 N UNION BLVD,Colorado Springs,CO,809091107,
SOVEREIGNTY WINES INC,SOVEREIGNTY WINES,Liquor Store (city), 02/18/2016,1785 S 8TH ST STE A/B,COLORADO SPRINGS,CO,809061986,
SPRING LIQUOR ENTERPRISE INC,RAMPART LIQUORS,Liquor Store (city), 01/03/2016,7635 N UNION BLVD,Colorado Springs,CO,809203863,
SPRINGS LIQUOR OUTLET INC,SPRINGS LIQUOR OUTLET,Liquor Store (city), 10/20/2015,6010 CAREFREE CIR NORTH,Colorado Springs,CO,809222402,
"SPRINGS TOTAL WINE & LIQUOR, INC.",SPRINGS TOTAL WINE & LIQUOR,Liquor Store (city), 02/04/2016,2713 S JANITELL RD,Colorado Springs,CO,80906,
SURAT INC,LIQUOR CITY,Liquor Store (city), 06/01/2016,1506 N ACADEMY BLVD STE B,COLORADO SPRINGS,CO,809092720,
TOLER CREATIONS LLC,PAUL'S LIQUOR,Liquor Store (city), 11/24/2015,2842 EAST PIKES PEAK AVENUE,Colorado Springs,CO,80909,
VETERANS LIQUOR LLC,VETERANS WINE & LIQUOR,Liquor Store (city), 09/10/2015,3630 AUSTIN BLUFFS PKWY STE 180,Colorado Springs,CO,809186631,
VINDICATOR VALLEY INC,PINON VALLEY LIQUORS,Liquor Store (city), 01/29/2016,809-811 VLLG CNTR DR,Colorado Springs,CO,809193603,
VINO VILLAGE INC,VOYAGER LIQUOR,Liquor Store (city), 12/22/2015,12225 VOYAGER PKWY STE 9,Colorado Springs,CO,809213754,
W H LIQUORS INC,COLORADO'S LIQUOR OUTLET,Liquor Store (city), 02/23/2016,1615 BRIARGATE BLVD,Colorado Springs,CO,809203448,
WOODMEN WINE & LIQUOR INC,WOODMEN WINE & LIQUOR,Liquor Store (city), 10/26/2015,3502 HARTSEL DRIVE,Colorado Springs,CO,809204165,
YI ENTERPRISES INC,AUSTIN BLUFFS PLAZA LIQUOR,Liquor Store (city), 12/15/2015,4331-4333 N ACADEMY BLVD,Colorado Springs,CO,80918,
YOUNG HWAN P,FILLMORE DISCOUNT LIQUOR,Liquor Store (city), 01/02/2016,3119 SINTON RD,COLORADO SPRINGS,CO,809095021,
YOUNG LEE BEVERAGES LLC,LIQUOR AT PINE CREEK,Liquor Store (city), 12/09/2015,9420 BRIAR VILLAGE POINT STE D-140,Colorado Springs,CO,80920,
YOUNG YUN ENTERPRISES CO,LIQUOR AT AUSTIN BLUFFS,Liquor Store (city), 05/04/2016,4150 AUSTIN BLUFFS PKWY,Colorado Springs,CO,80918,
ZOA INC,MOUNT VIEW LIQUOR,Liquor Store (city), 06/13/2016,313 MT VIEW LANE,Colorado Springs,CO,809074426,
1741 B STREET LIQUORS INC,1741 B STREET LIQUOR,Liquor Store (county), 12/25/2015,1741 B STREET,Colorado Springs,CO,809065365,
6525 FOUNTAIN MESAINC,LIQUOR STOP,Liquor Store (county), 08/24/2015,6525 FOUNTAIN MESA RD,COLORADO SPRINGS,CO,809119622,
BLACK FOREST LIQUOR STORE LLC,BLACK FOREST LIQUOR STORE,Liquor Store (county), 12/09/2015,11450 BLACK FOREST RD,Colorado Springs,CO,809083992,
CHONG'S LIQUORS LLC,CHONG'S LIQUORS,Liquor Store (county), 01/15/2016,5805 E GALLEY RD,Colorado Springs,CO,809153735,
GLENEAGLE LIQUORS LLC,GLENEAGLE LIQUOR,Liquor Store (county), 04/04/2016,13848 GLENEAGLE DR,Colorado Springs,CO,809213214,
KSC CORP,BOB'S WESTSIDE LIQUOR,Liquor Store (county), 05/30/2016,3601 W COLORADO AVE,COLORADO SPRINGS,CO,809041913,
MYJO KIM LLC,ARIES LIQUORS,Liquor Store (county), 03/18/2016,1873 PETERSON RD,Colorado Springs,CO,80915,
PAK JOHN,PETERSON DISCOUNT LIQUOR,Liquor Store (county), 03/25/2016,640 PETERSON RD,Colorado Springs,CO,809154002,
POWERS LIQUORS LLC,POWERS LIQUOR MART,Liquor Store (county), 06/13/2016,5847 PALMER PARK BLVD,Colorado Springs,CO,809151611,
R&R LIQUOR INC,R&R LIQUOR,Liquor Store (county), 04/09/2016,1845 MAIN ST,COLORADO SPRINGS,CO,809111156,
ROCKWELL RHONDA L,STRATMOOR LIQUORS,Liquor Store (county), 01/26/2016,1807 B ST,COLORADO SPRINGS,CO,809065300,
"SHUBHAN, INC.",LIQUOR STOP,Liquor Store (county), 10/27/2015,6525 FOUNDATION MESA RD,Colorado Springs,CO,80911,
SPIRITS HOUSE OF LIQUOR LLC,SPIRITS HOUSE OF LIQUOR,Liquor Store (county), 05/01/2016,6 WIDEFIELD BLVD,COLORADO SPRINGS,CO,809112125,
5275 QUEBEC INC,QUEBEC LIQUOR,Liquor Store (city), 07/16/2016,5275 QUEBEC ST,Commerce City,CO,800224840,
6610 MONACO INC,MONACO PLAZA LIQUORS,Liquor Store (city), 10/07/2015,6610 MONACO ST,Commerce City,CO,800222827,
DELS LIQUORS INC,DELS LIQUORS,Liquor Store (city), 12/25/2015,6079 QUEBEC,Commerce City,CO,800224150,
GARCHA ENTRPRIZES INC,TURNBERRY LIQUOR,Liquor Store (city), 03/27/2016,"12302 EAST 104 PLACE, UNIT 104",Commerce City,CO,80022,
JANS INC,SLJ LIQUORS,Liquor Store (city), 07/16/2016,"10401 BELLE CREEK BLVD, UNIT 106",Commerce City,CO,80640,
KIHWAN KIM INC,DERBY LIQUORS,Liquor Store (city), 12/07/2015,7270 HIGHWAY 2,Commerce City,CO,800221723,
LAXMI GANESH INC,RIVERDALE WINE & SPIRITS,Liquor Store (city), 09/04/2016,15550 EAST 103RD PLACE #106,Commerce City,CO,80022,
LIQUORS PLUS INC,LIQUORS PLUS,Liquor Store (city), 01/13/2016,5281 E 52ND AVE,COMMERCE CITY,CO,800224206,
RASSELS BEVERAGEHOUSE LLC,PARKWAY DISCOUNT LIQUORS,Liquor Store (city), 12/22/2015,6075 PARKWAY DR #101,Commerce City,CO,800225413,
ROSEMARY LIQUORS INC,ROSEMARY LIQUOR AND FOOD MART,Liquor Store (city), 01/22/2016,8210 ROSEMARY ST,COMMERCE CITY,CO,800224912,
SPOTLIGHT LIQUORS INC,IVY K LIQUOR,Liquor Store (city), 08/20/2015,6344 IVY ST,Commerce City,CO,800223335,
SSR3 LLC,REUNION WINE AND SPIRITS,Liquor Store (city), 10/09/2015,18220 E 104TH AVE SUITE #104 BLDG 1,Commerce City,CO,80022,
T&Z LLC,GARDEN LANE LIQUOR,Liquor Store (city), 04/11/2016,7586 HIGHWAY 2,Commerce City,CO,80022,
TAP A KEG LIQUORS INC,TAP A KEG LIQUORS,Liquor Store (city), 07/11/2016,7002 HIGHWAY 2,Commerce City,CO,800222044,
ADAMS CITY LIQUOR LLC,ADAMS CITY LIQUOR,Liquor Store (county), 11/05/2015,7031 BRIGHTON BLVD,Commerce City,CO,80022,
GAGAN & TANVIR INC,80TH AVENUE LIQUORS,Liquor Store (county), 11/27/2015,6933 E 80TH AVE,Commerce City,CO,800221119,
KIM JOUNG SIM,PAPPY'S LIQUOR,Liquor Store (county), 04/02/2016,7787 BRIGHTON RD,COMMERCE CITY,CO,800221507,
COMO COUNTRY STORE LLC,COMO COUNTRY STORE,Liquor Store (county), 10/25/2015,142 SIXTH ST,Como,CO,80432,
ASPEN PARK WINE & SPIRITS LLC,ASPEN PARK WINE & SPIRITS,Liquor Store (county), 02/02/2016,25937 CONIFER ROAD,Conifer,CO,804339042,
BIGGIE WINE AND LIQUORS LLC,BIGGIE WINE & LIQUOR,Liquor Store (county), 03/29/2016,25587 CONIFER RD,Conifer,CO,80433,
C V L INC,CONIFER VILLAGE LIQUORS,Liquor Store (county), 12/08/2015,27182 MAIN STREET,Conifer,CO,80433,
SEVEN EIGHTEEN CORTEZ INC,LIQUID ASSETS,Liquor Store (city), 08/14/2016,718 E MAIN ST,Cortez,CO,813213309,
TEEBOX INC,TEEBOX LIQUORS,Liquor Store (city), 08/24/2015,2410 FAIRWAY DR,Cortez,CO,813219310,
TUBROS LTD,CORK N BOTTLE,Liquor Store (city), 09/29/2015,443 E MAIN ST,CORTEZ,CO,813213318,
WEST SLOPE LIQUORS INC,WEST SLOPE LIQUORS,Liquor Store (city), 02/04/2016,2212-1 EAST MAIN ST,Cortez,CO,81321,
G WHIL LIQUORS LLC,G WHIL LIQUORS,Liquor Store (county), 03/02/2016,24001 ROAD G2,Cortez,CO,813219542,
SCHROEDER COLORADO INC,EAGLE CLAW TRADING POST & LIQUOR STORE,Liquor Store (county), 07/21/2016,4321 S US 160,CORTEZ,CO,81321,
TRIPLE H & J INC,SMITTY'S LIQUORS,Liquor Store (county), 04/06/2016,10255 HWY 491,Cortez,CO,813218301,
BIGHORN LIQUOR LLC,BIGHORN LIQUOR,Liquor Store (county), 06/11/2016,20180 HWY 50 SUITE B,COTOPAXI,CO,81223,
ELK LIQUOR STORE INC,ELK LIQUOR STORE,Liquor Store (city), 01/10/2016,1111 W VICTORY WAY #135,CRAIG,CO,816252950,
GILLAM INC,STOCKMEN'S LIQUOR,Liquor Store (city), 08/03/2016,574 PERSHING,Craig,CO,816253006,
HETTINGER CLYDE R,DARK HORSE DISCOUNT LIQUOR,Liquor Store (city), 01/26/2016,1520 W VICTORY WY,CRAIG,CO,816253414,
IRVIN'S LLC,LOADOUT LIQUOR'S,Liquor Store (city), 12/06/2015,1800 W VICTORY WAY,CRAIG,CO,816253420,
JIMMY D'S INC,EASTSIDE LIQUOR,Liquor Store (city), 09/17/2015,539 E VICTORY WY,Craig,CO,816251853,
LARIAT LEE LIQUORS INC,LARIAT LEE LIQUORS,Liquor Store (city), 07/28/2015,391 LINCOLN ST,Craig,CO,816251820,
MCCULLOUGH DON,CRAWFORD LIQUORS,Liquor Store (city), 04/24/2016,281 HWY 92,CRAWFORD,CO,814158104,
DESPERADO INC,DESPERADO LIQUOR,Liquor Store (county), 12/25/2015,40486 D LANE,Crawford,CO,814159124,
LIQUID AMBITIONS LIQUOR LLC,LIQUID AMBITIONS LIQUOR,Liquor Store (county), 04/01/2016,21315 HWY 149,Creede,CO,81130,
MADISONS WINE HOUSE LLC,WINE HOUSE,Liquor Store (city), 08/03/2016,301 6TH STREET,Crested Butte,CO,81224,
"PDC ENTERPRISES, LLC",ACME LIQUOR STORE,Liquor Store (city), 04/16/2016,510 BELLEVIEW,Crested Butte,CO,81224,
TOMCAT ENTERPRISES INC,MOUNTAIN SPIRITS LIQUORS,Liquor Store (city), 08/24/2016,220 ELK AVENUE,Crested Butte,CO,812249608,
RED MOUNTAIN LIQUORS INC,RED MOUNTAIN LIQUORS,Liquor Store (county), 12/20/2015,81 GILLASPEY,CRESTED BUTTE,CO,812249617,
CRESTONE SPIRITS CENTER LLC THE,CRESTONE SPIRITS CENTER THE,Liquor Store (city), 07/01/2016,158 E SILVER AVE,Crestone,CO,81131,
DONKEY LIQUORS LLC,DONKEY LIQUORS,Liquor Store (city), 08/04/2016,207 E CARR,Cripple Creek,CO,80813,
GESAM INC,CRIPPLE CREEK LIQUOR,Liquor Store (city), 02/26/2016,1073 TELLER COUNTY RD #1,CRIPPLE CREEK,CO,80813,
CUCHARA WINE & SPIRITS INC,CUCHARA WINE & SPIRITS,Liquor Store (county), 05/01/2016,34 CUCHARA AVE EAST,Cuchara,CO,810559729,
52 LIQUOR LLC,52 LIQUOR LLC,Liquor Store (city), 12/14/2015,901 CARBONDALE_DRIVE,DACONO,CO,805149550,
RRRL LLC,DACONO LIQUOR,Liquor Store (city), 02/12/2016,600 GLEN CREIGHTON DR,Dacono,CO,80514,
KUHNS-DEBEQUE PROPERTIES LLC,DEBEQUE LIQUORS,Liquor Store (city), 03/21/2016,381 STEWART AVENUE,De Beque,CO,81630,
PLATTE VALLEY LIQUOR INC,PLATTE VALLEY LIQUOR,Liquor Store (county), 05/19/2016,8570 S HWY 67 UNIT E,DECKERS,CO,801359504,
VASHUS KENT A,CORNER THE,Liquor Store (city), 02/02/2016,489 5TH AVE,DEER TRAIL,CO,801058018,
GONZALES LAWRENCE,TIN CUP LIQUOR THE,Liquor Store (city), 06/07/2016,216 OAK ST,Del Norte,CO,811322341,
WILD WEST WINE &SPIRITS INC,WILD WEST WINE & SPIRITS,Liquor Store (city), 08/10/2016,535 GRANDE AVE,DEL NORTE,CO,811322202,
D&B LIQUORS INC,D&B LIQUORS,Liquor Store (city), 05/14/2016,201 MAIN ST,Delta,CO,814161814,
GRAND VALLEY CONVENIENCE STORE LLC,GRAND VALLEY LIQUORS,Liquor Store (city), 12/05/2015,750 MAIN ST,Delta,CO,814161828,
HOGO LIQUORS LLC,WHISKEY'S,Liquor Store (city), 06/08/2016,1100 HWY 92,Delta,CO,81416,
SPIRITS INC,MOONSHINE LIQUOR,Liquor Store (city), 09/06/2015,268 HIGHWAY 92,Delta,CO,814162044,
TRIANTOS CRAIG A,PETERSON LIQUOR,Liquor Store (city), 12/02/2015,455 W 8TH,Delta,CO,814161637,
UPTOWN WINES LLC,UPTOWN WINES,Liquor Store (city), 03/24/2016,436 MAIN ST,Delta,CO,81416,
9TH & FEDERAL LIQUORS INC,USA LIQUORS,Liquor Store (city), 06/16/2016,900 FEDERAL BLVD,DENVER,CO,802043215,
A & H LIQUOR INC,FAIRFAX LIQUORS,Liquor Store (city), 05/02/2016,2801 FAIRFAX ST,DENVER,CO,802072748,
AARON ENTERPRISES INC,AARON'S LIQUORS,Liquor Store (city), 02/14/2016,7111 NORTH TOWER RD,DENVER,CO,802497305,
ABA LIQUOR INC,HOUSE OF SPIRITS,Liquor Store (city), 07/06/2015,12244 E 44TH AVE,Denver,CO,802393311,
ABAI INC,ABC DISCOUNT LIQUOR,Liquor Store (city), 11/20/2015,5600 W DARTMOUTH AV #106,DENVER,CO,802275546,
ABG LIQUORS INC,BUSBY LIQUORS,Liquor Store (city), 09/29/2015,4900 LOWELL BLVD,Denver,CO,802211028,
AD AX LLC,CUT RATE LIQUOR,Liquor Store (city), 03/31/2016,1537 S FEDERAL BLVD,Denver,CO,80219,
"AKED, INC.",MARLEE WINE & SPIRITS,Liquor Store (city), 01/29/2016,4317 E. FLORIDA AVE.,Denver,CO,80219,
AKK INC,CANA WINE AND LIQUORS,Liquor Store (city), 02/22/2016,3165 W 38TH AVE,Denver,CO,80211,
AL SILWADY INC,QUEBEC DISCOUNT LIQUOR,Liquor Store (city), 02/08/2016,1050 S QUEBEC ST,Denver,CO,80231,
ALAMEDA LIQUOR MART II LLC,ALAMEDA LIQUOR MART,Liquor Store (city), 12/15/2015,9660 E ALAMEDA AVE #103,Denver,CO,802471282,
AMAN & TEDDY LLC,MCNALLY'S LIQUORS,Liquor Store (city), 02/20/2016,1950 S HOLLY ST STE 1,Denver,CO,80222,
AN KEDONG,OLD LIQUOR,Liquor Store (city), 03/28/2016,3020 N SPEER BLVD,Denver,CO,802113756,
ANGEL'S LIQUOR INC,ANGEL'S LIQUOR,Liquor Store (city), 02/23/2016,6500 SMITH RD,DENVER,CO,802071464,
APB ENTERPRISES INC,BEAR VALLEY WINE & SPIRITS,Liquor Store (city), 02/23/2016,"3100 S SHERIDAN, UNITS E & F",Denver,CO,802275541,
APOGEE GROUP LLC,WESTERN LIQUORS,Liquor Store (city), 09/10/2015,4660 BALDWIN CT,Denver,CO,802162811,
ARBOR LIQUORS INC,ARBOR LIQUORS,Liquor Store (city), 02/05/2016,4550 S KIPLING STREET SUITE 9,Denver,CO,80127,
ARGONAUT WINE & LIQUOR STORE INC,ARGONAUT WINE & LIQUOR STORE INC,Liquor Store (city), 12/31/2015,760 EAST COLFAX AVE,DENVER,CO,802032006,
B & B LIQUORS INC,B & B LIQUORS,Liquor Store (city), 07/24/2016,7035 E COLFAX AVE,Denver,CO,802201803,
B O J ENTERPRISES INC,FAIRWAY LIQUORS,Liquor Store (city), 02/19/2016,10890 E DARTMOUTH AVE STE 14,Denver,CO,80014,
BD & PK INC,PINEY LIQUORS,Liquor Store (city), 11/27/2015,5135 CHAMBERS RD #F,Denver,CO,80239,
BEME CORPORATION,CAMPUS LIQUOR,Liquor Store (city), 08/22/2015,1100 S LOGAN ST,Denver,CO,802101523,
BEYENE DAWIT M,E&S LIQUORS,Liquor Store (city), 06/11/2016,6460 E YALE AVE,DENVER,CO,802227156,
BLAKE ST LIQUORS LLC,BLAKE ST LIQUORS,Liquor Store (city), 05/04/2016,2409 BLAKE ST,Denver,CO,80205,
BOGEY'S WINE AND SPIRITS INC,BOGEY'S BEER AND WINE,Liquor Store (city), 07/01/2016,3911 FOX STREET,Denver,CO,80216,
BONNIE BRAE BEVERAGE INC,BONNIE BRAE WINE & LIQUOR MART,Liquor Store (city), 09/25/2015,785 S UNIVERSITY BLVD,Denver,CO,80209,
BOOTLEGGER LIQUOR INC,BOOTLEGGER LIQUORS,Liquor Store (city), 08/31/2015,2375 W ALAMEDA AVE,DENVER,CO,802231912,
BUNGALOW LIQUORS OF DENVER LLC,BUNGALOW LIQUORS,Liquor Store (city), 06/01/2016,3000 W ALAMEDA AVE,DENVER,CO,802192002,
BYANDBY ENTERPRISES INC,WEST QUINCY WINES & SPIRITS,Liquor Store (city), 09/06/2015,3704-3706 W QUINCY AVE,Denver,CO,80236,
CHAFFEE PARK LIQUORS LLC,CHAFFEE PARK LIQUORS,Liquor Store (city), 04/11/2016,4836 PECOS ST,Denver,CO,802211513,
CITY SPIRITS WINE & LIQUORS LLC,CITY SPIRITS,Liquor Store (city), 03/17/2016,1512 LARIMER ST STE R-17,DENVER,CO,802021610,
COLORADO LIQUOR MART INC,COLORADO LIQUOR MART,Liquor Store (city), 10/10/2015,865 S COLORADO BLVD #206,Denver,CO,802228006,
CONNOISSEUR ENCOUNTERS COMPANY INC,WINE CELLAR AT LODO THE,Liquor Store (city), 12/11/2015,1920 MARKET ST #B,Denver,CO,80202,
COUNTRY CLUB LIQUORS INC,COUNTRY CLUB LIQUORS,Liquor Store (city), 01/04/2016,939 E CEDAR AVE,Denver,CO,802092304,
"DAE HAN USA, INC",ABSOLUTE LIQUOR MART,Liquor Store (city), 07/16/2016,1611 W 84TH AVE,Denver,CO,80260,
DEL SOL LIQUORS LLC,DEL SOL LIQUORS,Liquor Store (city), 07/14/2016,506 S FEDERAL BLVD A,DENVER,CO,802192932,
DELUXE CLEANER INC,EVANS DISCOUNT LIQUORS,Liquor Store (city), 06/10/2016,5350 W EVANS AVE #A&B,Denver,CO,802273776,
DESEL LIQUORS INC,SUPER WINE & SPIRITS,Liquor Store (city), 09/03/2015,1685 S COLORADO BLVD UNIT B,Denver,CO,80222,
DIA WINE & SPIRITS INC,DIA WINE & SPIRITS,Liquor Store (city), 01/14/2016,4739 YAMPA ST,Denver,CO,80239,
DIAZ CLARA,305 LIQUORS,Liquor Store (city), 04/01/2016,333 S SHERIDAN BLVD UNIT 1,Denver,CO,80226,
DISTILLERY WISDOM INC,DISTILLERY LIQUORS,Liquor Store (city), 12/13/2015,7195 E HAMPDEN AVE,Denver,CO,80224,
DIVINO LLC,DIVINO,Liquor Store (city), 01/22/2016,1240 S BROADWAY,DENVER,CO,802101504,
DNC LIQUORS LLC,LIQUOR,Liquor Store (city), 02/18/2016,16221 E 40TH AVE STE E,Denver,CO,802395879,
DONGDONG INC,PEPE'S LIQUORS,Liquor Store (city), 04/16/2016,535 E 45TH AVE,Denver,CO,802163559,
DRAGONFLY VENTURES INC,VILLAGE WEST LIQUOR,Liquor Store (city), 11/15/2015,8555 W BELLEVIEW AVE STE 2603 & 2604,DENVER,CO,801232196,
FAN'S LIQUOR INC,PAUL'S LIQUOR,Liquor Store (city), 04/05/2016,1131 E COLFAX AVE,DENVER,CO,802182103,
FANTASTIC FOUR ETERPRISES LLC,SPARKS LIQUOR,Liquor Store (city), 04/20/2016,6245 E 14TH AVE,Denver,CO,80220,
FEDERAL LIQUORS INC,FEDERAL LIQUORS,Liquor Store (city), 01/12/2016,3755 FEDERAL BLVD,DENVER,CO,802112857,
FEVEN INC,CAPITOL LIQUOR,Liquor Store (city), 08/16/2015,4600 E COLFAX AVE,DENVER,CO,802201202,
FURMO LLC,MR HANEYS,Liquor Store (city), 06/04/2015,3825 NEWPORT ST,DENVER,CO,802071509,
G CORPORATION,DRINK'S LIQUOR,Liquor Store (city), 10/04/2015,3615 W COLFAX AVE,DENVER,CO,802041512,
GALLEGOS PATRICIA D,EAST DENVER LIQUOR,Liquor Store (city), 08/20/2015,1434 E 22ND AVE,Denver,CO,802055302,
GANESHA INC,TAMARAC LIQUOR,Liquor Store (city), 10/27/2015,3333 S TAMARAC DR UNIT 0,Denver,CO,80231,
GG APOLLO LIQUORS INC,CAPITOL HILL LIQUORS,Liquor Store (city), 04/23/2016,1032 E 9TH AVE,Denver,CO,802183322,
GHEBREMEDHIN A H,EAST EVANS LIQUOR,Liquor Store (city), 06/22/2015,4970 E EVANS AVE,Denver,CO,802225216,
GIRMA SELAMAWIT,AB & P LIQUORS,Liquor Store (city), 12/14/2015,1472 S BROADWAY,Denver,CO,802102207,
GITINGREENHILL LLC,HAPPY CANYON LIQUORS,Liquor Store (city), 02/18/2016,5014 E HAMPDEN AVE,Denver,CO,80222,
GLYNN GLENN LLC,CORKS,Liquor Store (city), 02/17/2016,1620 PLATTE ST - B,DENVER,CO,802021124,
GOLDEN TRIANGLE WINE & SPIRITS INC,GOLDEN TRIANGLE WINE & SPIRITS,Liquor Store (city), 06/13/2016,1135 BROADWAY,Denver,CO,802032123,
GRAPE EXPECTATIONS LLC,GRAPE EXPECTATIONS WINE & SPIRITS,Liquor Store (city), 01/20/2016,2270 KEARNEY ST,DENVER,CO,802073922,
GRAPEVINE WINE & LIQUORS INC,GRAPEVINE WINE & LIQUORS INC,Liquor Store (city), 09/23/2015,900 S MONACO PKY 1&2,Denver,CO,802241601,
GREER JOE L,JOES LIQUOR STORE,Liquor Store (city), 01/27/2016,4705 WASHINGTON,Denver,CO,802162745,
H & D LIQUOR STORE INC,H & D LIQUOR STORE,Liquor Store (city), 10/16/2015,1929 W MISSISSIPPI,Denver,CO,802192936,
H & G CORPORATION,WASHINGTON STREET LIQUORS,Liquor Store (city), 08/21/2015,757 E 20TH AVE 300,DENVER,CO,802053227,
H & G LIQUOR CORP,REX LIQUOR,Liquor Store (city), 09/03/2015,2294 S BROADWAY,Denver,CO,802104419,
H & N ENTERPRISE INC,ORIGINAL BOULEVARD LIQUORS OF DENVER,Liquor Store (city), 11/18/2015,2150 S COLORADO BLVD,Denver,CO,802224912,
HADEMMI INC,MARINA SQUARE WINE AND SPIRITS,Liquor Store (city), 02/12/2016,8101 E BELLEVIEW AVE STE C,Denver,CO,802372903,
HAILISH INC,DOC'S DISCOUNT LIQUORS,Liquor Store (city), 07/29/2016,1025 S FEDERAL BLVD,Denver,CO,802194101,
HAMPDEN  LIQUORS AND WINE LLC,HAMPDEN PLAZA LIQUORS,Liquor Store (city), 07/28/2016,10017 E HAMPDEN AVE,Denver,CO,80231,
HIGHLANDS WINE AND LIQUOR STORE LLC,HIGHLANDS WINE AND LIQUOR STORE,Liquor Store (city), 02/12/2016,4650 W 38TH AVE #100,DENVER,CO,802122047,
HJM WINE & SPIRITS INC,HJM WINE & SPIRITS,Liquor Store (city), 02/20/2016,2016 W 32ND AVE,DENVER,CO,802113406,
HKB LLC,MONDO VINO,Liquor Store (city), 08/05/2015,3601 W 32ND AVE,Denver,CO,802113119,
HN GROUP CORPORATION,BARNUM LIQUORS,Liquor Store (city), 03/17/2016,1 S FEDERAL BLVD,DENVER,CO,802192049,
HOLLY HILLS PLAZA LIQUOR LLC,HOLLY HILLS PLAZA LIQUOR,Liquor Store (city), 11/05/2015,2120 S HOLLY STE UNIT 1,Denver,CO,80222,
HOME LIQUORS LLC,HOME LIQUORS,Liquor Store (city), 09/20/2015,236 S BROADWAY,DENVER,CO,802091510,
HTD ENTERPRISE LLC,ALL-V LIQUORS,Liquor Store (city), 07/12/2015,1840 S SHERIDAN BLVD,DENVER,CO,802328029,
HUGO'S BEER LLC,HUGO'S COLORADO BEER AND SPIRITS,Liquor Store (city), 05/16/2016,1205 E 13TH AVE UNIT C,Denver,CO,802182161,
HUN ENTERPRISES INC,TOM & JERRY'S LIQUOR,Liquor Store (city), 06/05/2016,1480 S SHERIDAN BLVD,DENVER,CO,802328002,
HWANGS ENTERPRISES INC,E & A LIQUORS,Liquor Store (city), 12/15/2015,3230 W COLFAX AVE,Denver,CO,802042209,
IHK ENTERPRISES INC,PAT'S LIQUORS,Liquor Store (city), 05/28/2016,2705 W 38TH AVE,Denver,CO,802112036,
IN VINO VERITAS INC,CITY WINE,Liquor Store (city), 04/26/2016,347 S COLORADO BLVD,Denver,CO,802228001,
J & J INC,SIR FREDERICKS LIQUORS,Liquor Store (city), 02/14/2016,2784 S WADSWORTH BLVD,DENVER,CO,802273408,
J & SEAN LLC,EIGHTH AVE WINE & SPIRITS,Liquor Store (city), 07/30/2016,4420 E 8TH AVE,DENVER,CO,802203801,
J Y P INC,GENO'S LIQUORS DENVER,Liquor Store (city), 12/04/2015,2336 W 32ND AVE,DENVER,CO,802113320,
J&H LIQUORS INC,WINE SELLER & SPIRIT TOO! THE,Liquor Store (city), 12/13/2015,600 E 6TH AV,Denver,CO,802033806,
JATT INC,DENVER LIQUOR GALAXY,Liquor Store (city), 08/12/2015,8968-8970 E. HAMPDEN AVE,Denver,CO,802314911,
JB WINE & SPIRITS INC,MILE HIGH LIQUORS,Liquor Store (city), 01/21/2016,1648 FEDERAL BLVD,DENVER,CO,802041911,
JERSEY ST LIQUORS INC,JERSEY STREET LIQUORS,Liquor Store (city), 11/03/2015,928 JERSEY ST,DENVER,CO,802204522,
JNR ENTERPRISES INC,SCOOTER LIQUORS,Liquor Store (city), 05/21/2016,1515 EAST COLFAX AVENUE,Denver,CO,80218,
JOY PHARMACY INC,JOY WINE AND SPIRITS,Liquor Store (city), 09/09/2015,1302 E 6TH AV,Denver,CO,802183416,
JTLHOP LLC,CHAMBERS PLACE LIQUOR,Liquor Store (city), 04/26/2016,4856 CHAMBERS ROAD,Denver,CO,80239,
K & HONG INC,SINGER'S LIQUOR,Liquor Store (city), 08/16/2015,3649 W 44TH AVE,DENVER,CO,802111301,
KALINCHOWK INC,QUEEN LIQUOR,Liquor Store (city), 04/13/2016,2426 W EVANS AVE,Denver,CO,80219,
KAROLIE CORPORATION,FAIRFAX WINE & SPIRITS,Liquor Store (city), 07/19/2016,5100 E COLFAX AVE,Denver,CO,802201302,
KGP ENTERPRISES INC,REGIS SQUARE LIQUORS,Liquor Store (city), 02/18/2016,5115 FEDERAL BLVE UNIT 40,Denver,CO,80221,
KIM BOB S,PEARL LIQUORS,Liquor Store (city), 04/11/2016,1093 S PEARL ST,Denver,CO,802094225,
KIM HAE DONG,SKY LINE LIQUOR STORE,Liquor Store (city), 05/11/2016,2865 COLORADO BLVD,Denver,CO,802073015,
KWANGSUN LEE,K LIQUOR,Liquor Store (city), 08/13/2015,2215 S SHERIDAN BLVD,Denver,CO,80227,
L&C LIQUORS LLC,L&C LIQUORS,Liquor Store (city), 11/19/2015,8100 W CRESTLINE A-18,Denver,CO,801231248,
LAKESIDE SPIRTS LLC,MOLLY'S SPIRITS,Liquor Store (city), 11/13/2015,5809 W 44TH AVE,Denver,CO,80212,
LE CORPORATION,OUZO LIQUOR,Liquor Store (city), 04/05/2016,7150 LEETSDALE #308,DENVER,CO,802243516,
LEEWAYE INC,BLAKE STREET WINE AND SPIRITS,Liquor Store (city), 07/06/2015,2409 BLAKE ST,DENVER,CO,802052110,
LEYAT INC,GLOBE LIQUORS,Liquor Store (city), 12/16/2015,4915 WASHINGTON ST,Denver,CO,80216,
LIM JEA HYUNG,COUNTRY GENTLEMEN LIQUORS,Liquor Store (city), 10/24/2015,4345 W 38TH AVE,DENVER,CO,802121909,
LITTLES LIQUORS INC,LITTLES LIQUORS INC,Liquor Store (city), 07/24/2016,2390 S DOWNING,Denver,CO,802105800,
LODO LIQUOR & WINE LLC,MR B'S WINE & SPIRITS,Liquor Store (city), 08/26/2015,2101 MARKET ST STE A,Denver,CO,802052024,
LOGAN LIQUORS LTD,LOGAN LIQUORS,Liquor Store (city), 10/22/2015,100 S LOGAN ST,DENVER,CO,802091811,
LOWRY LIQUORS LLC,LOWRY LIQUORS,Liquor Store (city), 12/18/2015,200 QUEBEC ST BLDG 200 STE 101,DENVER,CO,802307144,
LUCERO ENTERPRISESINC,TOWER LIQUORS,Liquor Store (city), 02/25/2016,18611 GREEN VALLEY RANCH BLVD #113,Denver,CO,80249,
M S Y INC,GOLDSMITH DISCOUNT LIQUOR,Liquor Store (city), 03/29/2016,8000 E QUINCY AVE SUITES 2100 & 2300,DENVER,CO,802372378,
M&L LIQUORS INC,44TH AVENUE LIQUORS,Liquor Store (city), 02/04/2016,2300 W 44TH AVE,DENVER,CO,802111506,
MARCZYK FINE WINES INC,MARCZYK FINE WINES,Liquor Store (city), 12/11/2015,770 B E 17TH AVE,DENVER,CO,80203,
MARK T BRADSHAW,CASK AND CRAFT,Liquor Store (city), 11/24/2015,3744 TEJON STREET LOTS 24 & 25 BLOCK 34 EICHOLTZ'S RESUBDIV,Denver,CO,80211,
MARLEY LIQUOR STORE LLC,MARLEY LIQUOR STORE,Liquor Store (city), 05/26/2016,7740 E COLFAX AVE UNIT #2,Denver,CO,80220,
MASSAWA INVESTMENTINC,VOLUME RATE LIQUORS,Liquor Store (city), 07/07/2016,7805 E 35TH AVE,DENVER,CO,802072458,
MAYFAIR LIQUORS INC,MAYFAIR LIQUORS,Liquor Store (city), 07/17/2016,1385 KRAMERIA ST,Denver,CO,802202729,
MD EAST COLFAX LIQUOR INC,MD EAST COLFAX LIQUOR,Liquor Store (city), 04/23/2016,8200 E COLFAX AVE,Denver,CO,80220,
MERCANTILE WINES LLC,WINES OFF WYNKOOP,Liquor Store (city), 06/04/2016,1610 16TH ST,DENVER,CO,802021308,
META LLC,QUARTERBACK LIQUOR,Liquor Store (city), 05/21/2016,4426 WEST 29TH AVE,DENVER,CO,802123015,
MIN WOO LEE INC,FEDERAL DISCOUNT LIQUOR,Liquor Store (city), 04/09/2016,880 S FEDERAL BLVD,Denver,CO,80219,
MISSISSIPPI AVENUE LIQUORS LLC,MISSISSIPPI AVENUE LIQUORS,Liquor Store (city), 05/29/2016,5300 W MISSISSIPPI AVE,Denver,CO,80232,
MONACO LIQUOR & KEGS LLC,MONACO LIQUOR & WINE,Liquor Store (city), 04/20/2016,6455 E EVANS AVE,Denver,CO,80222,
MUELL'S BAR & GRILL,METRO LIQUORS,Liquor Store (city), 05/31/2013,2907 HURON ST,DENVER,CO,802021029,
NATI CORPORATION,UNION WINE AND SPIRITS,Liquor Store (city), 02/26/2016,295 S UNION BLVD,Denver,CO,80228,
NAZAR SANDHU LLC,LOWRY WINE AND SPIRITS,Liquor Store (city), 03/15/2016,725 & 727 QUEBEC ST,DENVER,CO,802205546,
NEW HORIZON ENTPRS,PLAZA DE SANTA FE LIQUORS,Liquor Store (city), 11/20/2015,1355 SANTE FE DR,DENVER,CO,802042542,
NGUYEN VINCENT HIEN,MONROE LIQUOR,Liquor Store (city), 09/11/2015,3600 E COLFAX AVE,DENVER,CO,802061818,
"NINE & NELLY, LLC",BOTTLE CELLARS,Liquor Store (city), 06/11/2016,13 EAST 4TH AVENUE Unit 13,Denver,CO,80223,
NOBLE SWINE LLC,PROOF WINE & SPIRITS,Liquor Store (city), 04/29/2016,3360 LARIMER STREET,Denver,CO,80205,
OK GLOBAL INC,TEJON ST LIQUORS,Liquor Store (city), 11/08/2015,4560 TEJON STREET,Denver,CO,80211,
P H D INTERNATIONAL LLC,SYRACUSE LIQUORS,Liquor Store (city), 03/09/2016,1115 SYRACUSE ST,DENVER,CO,802203222,
PANS CORPORATION,KALAMATH LIQUORS,Liquor Store (city), 08/02/2016,990 W 6TH AVE #3,DENVER,CO,802045000,
PARK MIN SOOK,LU JACKS LIQUORS,Liquor Store (city), 11/16/2015,30 BROADWAY,DENVER,CO,802033915,
"PAULINE'S MOONSHINE, INC.",B-SANG LIQUORS,Liquor Store (city), 10/23/2015,4801 COLORADO BLVD. UNIT C,Denver,CO,80216,
PAYLESS RV LIQUORS INC,PATIO LIQUOR MART,Liquor Store (city), 02/01/2016,1971-81 W EVANS AVE,DENVER,CO,802233867,
PJMA LLC,MORGAN'S LIQUOR,Liquor Store (city), 06/30/2016,1200 E EVANS AVE,DENVER,CO,802104532,
"POP INVESTMENTS, INC",UPTOWN WINES BEERS & SPIRITS,Liquor Store (city), 06/09/2016,1936 PENNSYLVANIA ST,Denver,CO,80203,
PR CORPORATION,GREEN VALLEY LIQUORS,Liquor Store (city), 07/26/2016,4650 TOWER ROAD,DENVER,CO,802496600,
PROPER POUR LTD THE,PROPER POUR THE,Liquor Store (city), 10/22/2015,3350 BRIGHTON BLVD UNIT 125,Denver,CO,80216,
R N S CORPORATION,ATHMAR LIQUORS,Liquor Store (city), 06/11/2016,1777 W MISSISSIPPI AVE,DENVER,CO,802193012,
RAILYARD LIQUORS INC,RAILYARD LIQUORS,Liquor Store (city), 11/20/2015,3460 PARK AVE WEST STE A-C,Denver,CO,802165117,
RDK AND SDK LIQUOR CORP,ONEIDA LIQUORS,Liquor Store (city), 01/24/2016,2201B ONEIDA ST,Denver,CO,80207,
RHKIIM ENTERPRISE INC,RIO GRANDE LIQUOR,Liquor Store (city), 04/09/2016,1135 WEST 8TH AVE,Denver,CO,802044346,
"RIM & HAN ENTERPRISES, INC",FRANK'S LIQUOR,Liquor Store (city), 06/17/2016,3420 WEST ALAMEDA AVENUE,Denver,CO,80219,
RITHY CORP,BAYON LIQUORS,Liquor Store (city), 03/18/2016,3101 E COLFAX,DENVER,CO,802061709,
RMES COMMUNICATIONS INC,WINE,Liquor Store (city), 04/02/2016,8400 PENA BLVD CONCOURSE A - SP RMU 2003,Denver,CO,80249,
ROCHA'S LIQUOR INC,VIEJO LIQUOR,Liquor Store (city), 07/14/2016,3935 QUEBEC STREET,Denver,CO,80207,
ROHINI INC,SOUTHWEST LIQUOR,Liquor Store (city), 09/15/2015,8500 W CRESTLINE AVE UNIT G-2,Denver,CO,801230755,
ROMERO ENTERPRISESLLC,EAST 28TH LIQUORS,Liquor Store (city), 12/14/2015,3513 E 28TH AVE,Denver,CO,802055027,
ROYAL DRUG INC,ROYAL WINE & SPIRITS,Liquor Store (city), 03/18/2016,2239 E BRUCE RANDOLPH AVE,DENVER,CO,802054103,
RT&D LLC,DB'S WINE & LIQUOR,Liquor Store (city), 06/18/2016,4101 COLORADO BLVD,Denver,CO,80216,
RUCKERS LLC,WALNUT LIQUORS,Liquor Store (city), 05/06/2016,3729 WALNUT STREET,Denver,CO,80205,
RUM RUNNER LIQUORS INC THE,RUM RUNNER LIQUORS THE,Liquor Store (city), 06/11/2015,5062 FEDERAL BLVD,DENVER,CO,802211140,
"SAHAJ ""S"" CORPORATION",J PAD DISCOUNT LIQUOR,Liquor Store (city), 01/08/2016,560 S HOLLY #4,Denver,CO,802461460,
SDR BEVERAGE LLC,SAMS BROADWAY LIQUOR,Liquor Store (city), 12/30/2015,505 S BROADWAY,Denver,CO,80209,
SEO JI HYUN,K LIQUOR,Liquor Store (city), 02/18/2013,2215 S SHERIDAN BLVD,DENVER,CO,802273910,
SEOJIN INC,VILLA PARK LIQUORS,Liquor Store (city), 05/04/2016,3455 W 10TH AVE,Denver,CO,80204,
SEVENTEENTH STREET LIQUORS INC,SEVENTEENTH STREET LIQUORS,Liquor Store (city), 12/21/2015,2001 E 17TH AV,DENVER,CO,802061105,
SHL INC,ALADDIN LIQUORS,Liquor Store (city), 02/20/2016,2032 E COLFAX AVE,DENVER,CO,802061304,
SIKKA INC,VINNY'S LIQUORS,Liquor Store (city), 11/09/2015,5201 E 38TH AVE,Denver,CO,802071128,
SILENUS LLC,WINE CELLARS THE BOTTLE SHOP AT STAPLETON,Liquor Store (city), 10/29/2015,2955 ULSTER ST. STE #101 and #102,Denver,CO,80238,
SKS ENTERPRISES INC,TOBIN'S LIQUORS,Liquor Store (city), 07/27/2016,4100 W COLFAX AVE,DENVER,CO,802041451,
SKYLINE SPIRITS CORPORATION,SKYLINE SPIRITS,Liquor Store (city), 10/18/2015,939 E 11TH AVE,DENVER,CO,802182803,
SMALL BATCH LIQUORS LLC,SMALL BATCH LIQUORS,Liquor Store (city), 01/23/2016,4340 TENNYSON ST,Denver,CO,80212,
SMRCP LLC,SAMS CLUB LITTLETON DISCOUNT LIQUOR,Liquor Store (city), 04/04/2016,4827 S WADSWORTH WY,Denver,CO,801231846,
SOB LTD,J K LIQUORS,Liquor Store (city), 08/27/2016,1705 WADSWORTH BLVD,Denver,CO,80215,
SOUTH SHERIDAN ENTERPRISES INC,JEWELL LIQUORS,Liquor Store (city), 09/02/2015,1945 S SHERIDAN BLVD UNIT 101,Denver,CO,80227,
SOUTHMOOR WINE AND SPIRITS LLC,SOUTHMOOR WINE & SPIRITS,Liquor Store (city), 08/14/2015,3533 S MONACO PKWY,Denver,CO,802371228,
STAMM BEVERAGE CORP,VILLA MONACO LIQUORS,Liquor Store (city), 09/17/2015,2243 S MONACO PKWY  SUITE 111,Denver,CO,80222,
STAPLETON TOWN CENTER LIQUORS INC,THE GRAPE LEAF,Liquor Store (city), 06/24/2016,7340 E 29TH AVE,DENVER,CO,802072699,
SUARAO WINES LLC,LITTLE RAVEN VINEYARDS,Liquor Store (city), 07/10/2016,1590 LITTLE RAVEN ST #175,Denver,CO,80202,
SUN LIQUORS INC,SUN LIQUORS,Liquor Store (city), 10/21/2015,1630 BRUCE RANDOLPH AVE,Denver,CO,802054008,
SUNNYSIDE DRUG INC,SUNNYSIDE DRUG INC,Liquor Store (city), 05/11/2016,4600 LIPAN ST,Denver,CO,802112335,
SUNSHINE LIQUORS INC,SUNSHINE LIQUORS,Liquor Store (city), 12/31/2015,4300 JOSEPHINE,Denver,CO,802163938,
SWIZZLE BEVERAGE COMPNAY LLC,BOTTLE SHOP 33,Liquor Store (city), 05/28/2016,1080 S GAYLORD ST,Denver,CO,80209,
T AND S CORPORATION,DENVER DRUG & LIQUOR,Liquor Store (city), 11/30/2015,400 E COLFAX AVE,Denver,CO,802031909,
TCBA INC,GRAPES & GRAINS WINE & LIQUOR,Liquor Store (city), 07/14/2016,2780 S COLORADO BLVD #304,Denver,CO,802226629,
TCNS VENTURES INC,KING CROSS LIQUORS,Liquor Store (city), 08/26/2015,2035 B S BROADWAY,Denver,CO,80210,
THE EMPTY BOTTLE LLC,EMPTY BOTTLE THE,Liquor Store (city), 08/16/2015,1886 S PEARL ST,DENVER,CO,802103137,
"THE-DINGLE, LLC",SKYE LIQUOR,Liquor Store (city), 01/26/2016,"2907 INCA ST, STE A",Denver,CO,80202,
THERESAWIN INC,HARVEY PARK LIQUORS,Liquor Store (city), 03/01/2016,2418 S FEDERAL BLVD,DENVER,CO,802195903,
THREE WAY CORP,TOWN LIQUORS,Liquor Store (city), 04/28/2016,2817 DOWNING ST,Denver,CO,802054411,
TIFFANY PARK INC,JIMS LIQUOR,Liquor Store (city), 03/03/2016,3101 E BRUCE RANDOLPH AVE,Denver,CO,80205,
TOAST! WINE AND SPIRITS INC,TOAST! WINE AND SPIRITS,Liquor Store (city), 05/17/2016,3828 WEST 23RD AVE,Denver,CO,802114406,
TOM'S GATEWAY LIQUOR INC,TOM'S GATEWAY LIQUOR,Liquor Store (city), 10/17/2015,15470 ANDREWS DR,DENVER,CO,802395738,
TOP SHELF CORPORATION,ECONO LIQUOR,Liquor Store (city), 11/29/2015,3330 DOWNING ST,DENVER,CO,802053919,
TOTAL BEVERAGE LLC,TOTAL BEVERAGE,Liquor Store (city), 07/27/2016,900 E 104 AVE,Denver,CO,80233,
TRADER JOE'S COMPANY,TRADER JOE'S #310,Liquor Store (city), 12/05/2015,790 COLORADO BLVD,Denver,CO,80206,
TYK INC,BJ LIQUORS,Liquor Store (city), 02/27/2016,4211  E MISSISSIIPPI AVE,Denver,CO,80246,
U K C INC.,JOE'S LIQUOR STORE,Liquor Store (city), 06/06/2016,2644 LARIMER ST,Denver,CO,802052219,
UNITED K & C INC,SPORTSMAN LIQUOR,Liquor Store (city), 11/11/2015,610 PERRY ST,Denver,CO,802043044,
VAGO STORES INC,JERRI'S TOBACCO SHOP & FINE WINES,Liquor Store (city), 02/22/2016,500 16TH ST #136,Denver,CO,802024265,
VALDEZ EVELYN S,CIANCIO'S LIQUORS,Liquor Store (city), 12/17/2015,2223 E 47TH AVE,Denver,CO,802162826,
VIC'S LIQS ENTERPRISES LLC,VIC'S LIQUORS,Liquor Store (city), 02/11/2016,7305 E 35TH AVE UNIT 120,Denver,CO,80238,
VINEYARD INC THE,VINEYARD INC THE,Liquor Store (city), 12/31/2015,261 FILLMORE ST,Denver,CO,802065003,
"VINO TINTO, INC.",VINO TINTO,Liquor Store (city), 10/28/2015,"6760 E CHENANGO AVE, UNIT B",Denver,CO,80237,
VIRGINIA VILLAGE LIQUORS INC,VIRGINIA VILLAGE LIQUORS,Liquor Store (city), 02/08/2016,1455 S HOLLY ST,Denver,CO,802223509,
WALGO INVESTMENTS INC,WEST THIRTY EIGHTH AVE LIQUORS,Liquor Store (city), 09/11/2015,1347 38TH AVE,Denver,CO,802112614,
WATSONS WINE & SPIRITS INC,WATSON'S WINE & SPIRITS,Liquor Store (city), 05/28/2016,900 LINCOLN STREET,Denver,CO,802032712,
WHOLE FOODS MARKETROCKY MTN/SW LP,MERCHANT OF VINO,Liquor Store (city), 08/03/2012,7400 E HAMPDEN AVE UNIT D-1 SUITE A,DENVER,CO,802314884,
WILSEN INC,STATION LIQUOR,Liquor Store (city), 03/24/2016,782 SHERIDAN BLVD,Denver,CO,80214,
WINE CELLAR AT STAPLETON LLC,WINE CELLAR AT STAPLETON,Liquor Store (city), 04/22/2016,2955 N ULSTER ST #100,DENVER,CO,802383553,
Y J & K INC,SANTA FE LIQUORS,Liquor Store (city), 07/13/2016,340 SANTA FE DR,Denver,CO,802231132,
Y J LIM INC,MONTBELLO LIQUORS,Liquor Store (city), 03/09/2016,4690 PEORIA ST,Denver,CO,802394818,
YE JIN HAE,RAINBOW LIQUORS,Liquor Store (city), 02/24/2016,2045 S FEDERAL BLVD,DENVER,CO,802195429,
YKS INTERNATIONAL INC,CHAMPA FINE WINES & LIQUORS,Liquor Store (city), 07/07/2016,1600 CHAMPA STREET STE 001,Denver,CO,802022709,
YOON & KIM INC,GOLD NUGGET LIQUORS,Liquor Store (city), 08/16/2015,4050 TEJON ST,DENVER,CO,802112215,
YOU HYO KEUN,NEW FIRST AVENUE LIQUORS,Liquor Store (city), 04/06/2016,141 BROADWAY,DENVER,CO,802033916,
YOUNG MAN INC,WESTWOOD LIQUORS,Liquor Store (city), 11/28/2015,4005 MORRISON ROAD,Denver,CO,80219,
YOUNG PYO INC,V'S WINE AND LIQUOR,Liquor Store (city), 02/22/2016,1550 S FEDERAL BLVD #R&S,DENVER,CO,802194761,
ZULA LIQUORS LLC,ZULA LIQUORS,Liquor Store (city), 11/09/2015,5602 E COLFAX AVE,Denver,CO,80220,
640 EAST 58TH AVE LLC,MAPLETON DISCOUNT LIQUORS,Liquor Store (county), 02/28/2016,640 E 58TH AVE,Denver,CO,802161403,
ABRAHA BERHANE K,QUEBEC LIQUORS & SPIRITS,Liquor Store (county), 10/16/2015,2280 S QUEBEC ST UNIT B,Denver,CO,802317008,
AMAR INC,PECOS WINE & SPIRITS,Liquor Store (county), 05/09/2016,5595 PECOS ST,Denver,CO,80221,
AMERICAN PALACE LLC,LIQUOR BOX OF AMERICA,Liquor Store (county), 11/08/2015,6595 FEDERAL BLVD,DENVER,CO,802212322,
ANDEMICHAEL MESFIN,SUNNY SIDE LIQUOR,Liquor Store (county), 03/25/2016,4405 W 52ND AVE,Denver,CO,802124006,
BULLDOG LIQUORS INC,BULLDOG LIQUORS,Liquor Store (county), 08/31/2016,5201 1/2 FEDERAL BLVD,Denver,CO,802216511,
CARPE VINUM ENTERPRISES LLC,AMENDMENT TWENTY ONE,Liquor Store (county), 12/20/2015,2548 15TH ST,DENVER,CO,802113902,
CHOO INC,LABATES LIQUORS,Liquor Store (county), 10/26/2015,7570 BROADWAY,Denver,CO,802213616,
DK LIQUORS INC,DK LIQUORS,Liquor Store (county), 06/15/2016,7820 WASHINGTON ST UNIT C,Denver,CO,802295816,
E AND I ENTERPRISE LLC,GRAND LIQUOR,Liquor Store (county), 09/19/2015,"1202 E 58TH AVENUE, UNIT C",Denver,CO,80216,
HUYNH LIEU,SKYLINE II LIQUORS,Liquor Store (county), 12/02/2015,2235 W 84TH AVE,Denver,CO,802214682,
JINYKP CORPORATION,OK LIQUORS,Liquor Store (county), 01/20/2016,1422 S PARKER RD UNIT A140,Denver,CO,80231,
JMY INC,CENTRAL PARK LIQUORS,Liquor Store (county), 07/18/2015,7465 E ILIFF AVE,Denver,CO,802315368,
LEVINE LIQUORS AND WINE INC,LEVINE LIQUOR,Liquor Store (county), 02/17/2016,1160 S PARKER RD,DENVER,CO,802312126,
LUGANO WINE & SPIRITS LLC,LUGANO WINE & SPIRITS,Liquor Store (county), 09/04/2015,9597 E ILIFF AVE,Denver,CO,80231,
M2 INC,LIQUOR DADDY,Liquor Store (county), 10/16/2015,6960 N BROADWAY,Denver,CO,80221,
MGDE INC,TURNPIKE LIQUOR DEPOT,Liquor Store (county), 11/11/2015,1451 CORTEZ ST UNIT D,DENVER,CO,802216900,
P & D ENTERPRISES INC,WALLABY'S LIQUOR WAREHOUSE,Liquor Store (county), 08/07/2015,1550 S PARKER RD,Denver,CO,802312709,
PERL MACK LIQUORS INC,SPIRIT WORLD LIQUORS,Liquor Store (county), 12/31/2015,7156 PECOS,Denver,CO,802217209,
PGD INC,WABASH DISCOUNT WINE & LIQUOR,Liquor Store (county), 12/18/2015,8400 E ILIFF AVE UNIT 6,Denver,CO,802313336,
SCHMIDT STEVEN C,REALES LIQUORS,Liquor Store (county), 04/28/2016,5905 N WASHINGTON,DENVER,CO,802161336,
SERRANO'S LIQUOR LLC,SERRANOS LIQUORS,Liquor Store (county), 06/13/2016,5510 N WASHINGTON ST,DENVER,CO,802161723,
SIENGKUNG INCORPORATED,KORK & BOTTLE LIQUORS,Liquor Store (county), 07/12/2015,2221 S PARKER RD,Denver,CO,802313482,
SUNCOR ENTERPRISES LLC,DNJ LIQUOR,Liquor Store (county), 01/11/2016,7073 PECOS STREET,Denver,CO,80221,
TRAN LIQUOR LLC,T LIQUOR,Liquor Store (county), 02/13/2016,7348 WASHINGTON STREET,Denver,CO,80229,
"Y & K, INC",Y & K DISCOUNT LIQUOR,Liquor Store (county), 02/25/2016,2020 S PARKER RD,Denver,CO,802315784,
CLARY KEVIN CLARY MELINDA ET AL,LAKE DILLON DISCOUNT LIQUORS,Liquor Store (city), 12/12/2015,149 TENDERFOOT,Dillon,CO,804352693,
DILLON RIDGE LIQUORSINC,DILLON RIDGE LIQUORS,Liquor Store (city), 09/23/2016,294 US HWY 6 UNIT B,DILLON,CO,80435,
CURES N CURIOSITIES INC,ROCKIN R RANCH,Liquor Store (county), 11/03/2015,0091 RIVER RUN RD,Dillon,CO,804357700,
HAPPY HOUR LIQUOR LLC,BOTTLE SHOP LIQUOR STORE THE,Liquor Store (county), 12/01/2015,40 COVE BLVD UNIT C1,DILLON,CO,804358810,
S P S LIQUORS INC,SUMMIT LIQUORS,Liquor Store (county), 04/21/2016,21801 HWY 6,Dillon,CO,80435,
CHRISTIE'S LIQUOR LLC,CHRISTIE'S LIQUOR,Liquor Store (city), 05/07/2016,228 STEGOSAURUS FREEWAY,Dinosaur,CO,81610,
LAGREE LIQUOR STORES LLC,LAGREE LIQUORS DIVIDE,Liquor Store (county), 09/07/2015,11179 HWY 24,Divide,CO,80814,
DOLORES LIQUORS LLC,DOLORES LIQUORS,Liquor Store (city), 06/17/2016,202 S 3RD ST,DOLORES,CO,81323,
SMITH GRANT,GST LIQUOR,Liquor Store (city), 06/10/2016,102 S 11TH ST,Dolores,CO,81323,
LIM KONG V,HILLTOP LIQUORS,Liquor Store (county), 09/08/2015,27963 HWY 184,Dolores,CO,813239217,
TK GARDNER LLC,FROSTY'S LIQUOR STORE,Liquor Store (city), 02/08/2016,230 W 3RD ST,DOVE CREEK,CO,81324,
CANDELARIA CONSTRUCTION INC,GROUNDHOG LAKE LIQUOR STORE,Liquor Store (county), 09/12/2015,GROUNDHOG LAKE CTY RD H,Dove Creek,CO,81324,
ALLEN & GREENE ENTERPRISES INC,WINE MERCHANT THE,Liquor Store (city), 07/01/2016,1514 MAIN AVE,Durango,CO,813015143,
APA GROUP LTD,RIVER LIQUORS,Liquor Store (city), 10/19/2015,300 S CAMINO DEL RIO UNIT B,DURANGO,CO,813015385,
BROWN GARY CBROWN ELAINE D,DISCOUNT LIQUORS,Liquor Store (city), 05/15/2013,489 FLORIDA ROAD,DURANGO,CO,813014730,
DURANGO LIQUOR INC,DURANGO LIQUOR & WINE CO,Liquor Store (city), 06/25/2016,1145 S CAMINO DEL RIO #101,Durango,CO,81303,
EOFF LARSON,DISCOUNT LIQUORS,Liquor Store (city), 03/21/2016,489 FLORIDA RD,Durango,CO,81301,
EWG ENTERPRISES LLC,SKYRIDGE LIQUOR,Liquor Store (city), 10/18/2015,100 JENKINS RANCH RD STE A,Durango,CO,813019474,
FAT AL'S LLC,PUT A CORK IN IT,Liquor Store (city), 03/22/2016,1127 CAMINO DEL RIO,Durango,CO,81301,
H E W S ENTERPRISES INC,STAR LIQUORS,Liquor Store (city), 06/03/2016,"1485 FLORIDA RD,BLDG C, STE 100",DURANGO,CO,813016864,
KATZENJAMER LTD,SIXTH STREET LIQUORS,Liquor Store (city), 05/20/2016,273 E COLLEGE DR,DURANGO,CO,813015204,
LIQUOR WORLD INC,LIQUOR WORLD,Liquor Store (city), 06/24/2016,695 CAMINO DEL RIO,DURANGO,CO,813015415,
MAC'S LIQUORS INCORPORATED,MAC'S LIQUORS,Liquor Store (city), 07/19/2016,3124 MAIN AVE,DURANGO,CO,813014247,
"MEDICINE WHEEL, INC",WAGON WHEEL LIQUORS,Liquor Store (city), 06/28/2016,30 TOWN PLAZA,Durango,CO,813015102,
W J DOYLE WINE AND SPIRITS LLC,W J DOYLE WINE AND SPIRITS LLC,Liquor Store (city), 12/01/2015,509 E 8TH AVE STE 7,DURANGO,CO,813015677,
ANIMAS WINE & SPIRITS INC,ANIMAS WINE & SPIRITS,Liquor Store (county), 07/27/2016,67 TRIMBLE CROSSING DR STE B,Durango,CO,813018648,
BLISS DARLENE M,HERMOSA LIQUORS,Liquor Store (county), 07/28/2016,32225 HWY 550,Durango,CO,813018647,
KENDALL MOUNTAIN LIQUORS LLC,KENDALL MOUNTAIN LIQUORS,Liquor Store (county), 02/11/2016,71 NEEDLES WY #C-4,Durango,CO,81301,
LAZY T QUARTER CIRCLE LLC,NEEDLES LIQUOR STORE,Liquor Store (county), 06/08/2016,46825 HWY 550,Durango,CO,813018297,
LTITSNO LLC,WILDCAT CANYON LIQUORS,Liquor Store (county), 11/22/2015,20177 US HWY 160 W,Durango,CO,81301,
UES VENTURES INC,UPPER EAST SIDE LIQUORS,Liquor Store (county), 01/14/2016,60 CR 234,Durango,CO,81301,
J & J LIQUOR LLC,J & J LIQUOR LLC,Liquor Store (city), 11/26/2015,111 W 15TH,Eads,CO,81036,
EAGLE LIQUOR MART INC,EAGLE LIQUOR MART,Liquor Store (city), 06/16/2016,"65 MARKET DR, UNITS 1 & 2",Eagle,CO,81631,
EAGLE RANCH WINE& SPIRITS LLC,EAGLE RANCH WINE &SPIRITS,Liquor Store (city), 09/29/2015,1143 CAPITOL ST #3,Eagle,CO,81631,
MUDDY WATERS WINE & SPIRIT INC,SWEET WATERS LIQUOR,Liquor Store (city), 06/19/2016,701 CHAMBERS AVE,Eagle,CO,81631,
PRIMAVERA LIQUORS INC,PRIMAVERA LIQUORS,Liquor Store (city), 06/15/2016,448 GRAND AVE,Eagle,CO,81631,
D&J MAPLEWOOD WINEAND SPIRITS LLC, D&J MAPLEWOOD WINE AND SPIRITS,Liquor Store (city), 11/20/2015,201 S ELM AVE #11&12,Eaton,CO,806158267,
DVAD LLC,EATON LIQUORS,Liquor Store (city), 05/15/2016,128 OAK AVE,Eaton,CO,806153410,
RL SHILTS LLC,DELIRIOUS LIQUORS,Liquor Store (city), 10/12/2015,12840 HWY 65 #4,Eckert,CO,814185218,
BOOT LIQUORS LLC,BOOT LIQUORS,Liquor Store (city), 08/14/2015,17045 HWY 34 UNIT B,Eckley,CO,80727,
MESERET GEBRESLASSIE INC,J & J LIQUOR,Liquor Store (city), 10/30/2015,1711 SHERIDAN BLVD,EDGEWATER,CO,802141301,
NGUYEN INC,SLOAN LAKE LIQUORS,Liquor Store (city), 01/31/2016,5219 W 25TH AVE,EDGEWATER,CO,802141241,
YOUNG WON INC,DEPEW LIQUOR,Liquor Store (city), 08/24/2016,5507 W 20TH AVE,Edgewater,CO,802141215,
DRINK INC,DRINK,Liquor Store (county), 08/02/2015,0056 EDWARDS VILLAGE BLVD #103,EDWARDS,CO,81632,
EDWARDS DISCOUNT LIQUORS INC,BOTTLE 'N CORK,Liquor Store (county), 12/18/2015,0105 EDWARDS VILLAGE BLVD #C 105-106,EDWARDS,CO,816329914,
EDWARDS LIQUOR MART INC,RIVERWALK WINE AND SPIRITS,Liquor Store (county), 09/16/2015,34295 HWY 6 BLDG C-1-A,Edwards,CO,81632,
SADY FAMILY INC,EDWARDS LIQUORS,Liquor Store (county), 05/30/2016,0429 EDWARDS ACCESS RD A201-A202 NOSTR C,EDWARDS,CO,81632,
DESCHAMP GLORIA J,EL JEBEL LIQUORS,Liquor Store (county), 07/02/2016,60 EL JEBEL RD #104,El Jebel,CO,816239842,
HI-TEST LIQUOR LTD,HI-TEST LIQUOR,Liquor Store (county), 06/15/2016,24501 NORTH ELBERT ROAD,Elbert,CO,80106,
OUTBACK LIQUORS,OUTBACK LIQUORS,Liquor Store (city), 08/03/2016,113 S ELIZABETH,ELIZABETH,CO,80107,
TOMATO SPIRITS & SUPPLY INC,TOMATO SPIRITS & SUPPLY INC,Liquor Store (city), 05/14/2016,433 E PARK AVE,EMPIRE,CO,80438,
ALPHA LIQUOR LLC,ALPHA LIQUOR,Liquor Store (city), 05/25/2016,"351 ENGLEWOOD PARKWAY, SUITE H",Englewood,CO,80110,
DHILLON & DHILLON INC,ENGLEWOOD LIQUOR,Liquor Store (city), 06/21/2016,3531 S LOGAN ST UNIT K,Englewood,CO,801133700,
HJP ENTERPRISE LLC,BROADWAY DISCOUNT LIQUOR,Liquor Store (city), 11/03/2015,4615 S BROADWAY,Englewood,CO,801135725,
IJJM ENTERPRISES INC,THOROBRED LIQUORS,Liquor Store (city), 02/10/2016,5050 S FEDERAL BLVD UNIT 33/34,Englewood,CO,801106361,
LIQUOR BARN LTD THE,LIQUOR BARN LTD THE,Liquor Store (city), 09/09/2015,4415 S BDWAY,ENGLEWOOD,CO,80113,
MALWA INC,LIQUOR DEPOT,Liquor Store (city), 08/12/2015,5138 S BROADWAY,ENGLEWOOD,CO,801136706,
MASSEY LIQUOR & WINE INC.,MASSEY DISCOUNT LIQUOR AND WINE,Liquor Store (city), 09/10/2015,4692 S FEDERAL BLVD,Englewood,CO,80110,
MKP CORPORATION,WEST EVANS LIQUOR,Liquor Store (city), 11/12/2015,2020 W EVANS AVE,Englewood,CO,801101020,
OLD TOWN LIQUORS INC,OLD TOWN LIQUORS,Liquor Store (city), 04/26/2016,1215 E HAMPDEN AVE,ENGLEWOOD,CO,801102916,
PARNESS RONALD,GLASS BOTTLE LIQUOR,Liquor Store (city), 12/31/2015,336 W HAMPDEN,Englewood,CO,801102307,
RS LLC,KING LIQUOR,Liquor Store (city), 08/12/2016,851 ENGLEWOOD PARKWAY,Englewood,CO,80110,
"SHCJ ENTERPRISES, INC",ENGLEWOOD WINE & SPIRITS,Liquor Store (city), 06/03/2016,"2709 SOUTH BROADWAY, UNITS C & D",Englewood,CO,80113,
WINE PROS AT KENT PLACE LLC,KENT CELLARS FINE WINES & SPIRITS,Liquor Store (city), 10/01/2015,"3475 S UNIVERSITY BLVD, SUITE C",Englewood,CO,80113,
YODIT LLC,MD LIQUORS STORE,Liquor Store (city), 01/11/2016,2895 S BROADWAY,Englewood,CO,801131524,
ZALIK INVESTMENTS LLC,OFF BROADWAY WINE & SPIRITS,Liquor Store (city), 05/03/2016,51 ENGLEWOOD PARKWAY,ENGLEWOOD,CO,80110,
JSS BUSINESS MANAGEMENT INC,LINCOLN WINE AND SPIRITS,Liquor Store (county), 06/22/2016,12509 E LINCOLN AVE UNITS 301 AND 302,Englewood,CO,80112,
VILLAGE VIEW LIQUORS INC,BRONCOS PARKWAY WINE & SPIRITS,Liquor Store (county), 12/04/2015,"15500 E BRONCOS PARKWAY, STE A",Englewood,CO,80112,
VINO ALPINO LLC,AMORE VINO,Liquor Store (county), 06/12/2016,10111 INVERNESS MAIN ST UNIT G,Englewood,CO,80112,
ZENITH LIQUORS LLC,ZEN WINE & SPIRITS,Liquor Store (county), 10/07/2015,"9854 ZENITH MERIDIAN DR, STE A",Englewood,CO,80112,
ERIE LIQUORS INC,RIDGE LIQUORS,Liquor Store (city), 12/09/2015,3333 ARAPAHOE RIDGE A3,Erie,CO,80516,
SHMITKA ENTERPRISES INC,COUNTY LINE WINE AND SPIRITS,Liquor Store (city), 07/25/2015,460 ERIE PARKWAY,Erie,CO,80516,
STOS LIQUORS INC,ERIE LIQUOR,Liquor Store (city), 12/10/2015,235 CHEESMAN,Erie,CO,80516,
"VILLAGE VISTA LIQUORS, INC",VILLAGE VISTA WINE AND SPIRITS,Liquor Store (city), 10/29/2015,3160 VILLAGE VISTA DR #102,Erie,CO,80516,
DCT INTERNATIONAL CORP,MOUNTAIN DEW LIQUOR,Liquor Store (city), 01/13/2016,182 S SAINT VRAIN AVE,Estes Park,CO,805176355,
KNHI & E INC,ROCKY MOUNTAIN DISCOUNT LIQUORS,Liquor Store (city), 04/27/2016,350 WEST RIVERSIDE DRIVE,Estes Park,CO,80517,
RAMBEAU DIANE L,RAMBO'S LONGHORN LIQUOR,Liquor Store (city), 05/22/2016,1640 BIG THOMPSON,ESTES PARK,CO,80517,
SPUR LIQUOR INC,SPUR 66 LIQUOR,Liquor Store (city), 03/08/2016,900 MORAINE AVE,Estes Park,CO,805178201,
CHITWAN INC,37 LIQUOR,Liquor Store (city), 07/18/2015,3625 23RD AVE  UNIT 15 & 16,Evans,CO,80620,
DMDJ ENTERPRISES LLC,23RD AVENUE LIQUORS,Liquor Store (city), 02/25/2016,3210 23RD AVE,EVANS,CO,806201726,
GRACE DENVER ENTERPRISES LLC,UNIVERSITY LIQUORS,Liquor Store (city), 06/30/2015,2808 11TH AVE,EVANS,CO,806201009,
JBCF LLC,DUDLEY'S DISCOUNT LIQUORS @ SAM'S CLUB,Liquor Store (city), 12/01/2015,3251 23RD AVE,Evans,CO,806201733,
KNOTTY PINE LIQUOR INC,KNOTTY PINE LIQUOR,Liquor Store (city), 04/26/2016,3620 35TH AVE#9&10,EVANS,CO,806209300,
BEAR CREEK KHL INC,EVERGREEN MOUNTAINLIQUORS,Liquor Store (county), 01/26/2016,5071 HIGHWAY 73,EVERGREEN,CO,804397302,
COCONUTS INC,COCONUTS,Liquor Store (county), 02/25/2016,1153 BERGEN PKY UNIT P,EVERGREEN,CO,804399501,
E&M HOLDINGS LLC,BERGEN PARK LIQUORS,Liquor Store (county), 11/16/2015,1348 COUNTY ROAD 65,Evergreen,CO,80439,
EVERGREEN DRUG CO INC,EVERGREEN DISCOUNT LIQUORS,Liquor Store (county), 11/08/2015,3847 EVERGREEN PK,Evergreen,CO,804397724,
EVERGREEN WINE & LIQUOR CO,EVERGREEN WINE & LIQUOR,Liquor Store (county), 04/02/2016,29017 HOTEL WAY #105C,Evergreen,CO,80439,
PONDEROSA SPIRITS LLC,PONDEROSA SPIRITS,Liquor Store (county), 08/23/2015,4053 EVERGREEN PKWY ACCESS RD,Evergreen,CO,80439,
C&Z INC,EVEN IN THE END,Liquor Store (city), 08/11/2016,889 STEINFELT PRKW,Fairplay,CO,80440,
FALCON LIQUOR OUTLET LLC,FALCON LIQUOR OUTLET,Liquor Store (county), 09/10/2016,7189 N MERIDIAN ROAD,Falcon,CO,80831,
J & K LIQUORS INC,CMH LIQUORS,Liquor Store (county), 06/04/2016,7635 MCLAUGHLIN RD,Falcon,CO,808314710,
F&G CORPORATION,F&G LIQUORS,Liquor Store (city), 05/02/2016,1407 W 84TH AVE UNIT B1,FEDERAL HEIGHTS,CO,802604781,
FEDERAL PLAZA LIQUORS INC,FEDERAL PLAZA LIQUORS,Liquor Store (city), 10/04/2015,10350 FEDERAL BLVD #900,Federal Heights,CO,802608615,
GHENET CORPORATION,PECOS LIQUORS,Liquor Store (city), 08/28/2016,8411 PECOS ST #1,FEDERAL HEIGHTS,CO,802605075,
HEIGHTS LIQUORS LTD,HEIGHTS LIQUORS,Liquor Store (city), 10/27/2015,9090 FEDERAL BLVD,Federal Heights,CO,80260,
HORIZON HOLDINGS LLC,SAM'S WAREHOUSE LIQUOR,Liquor Store (city), 11/07/2015,9380 N FEDERAL BLVD,Federal Heights,CO,80260,
HPL INC,HOLIDAY PLAZA LIQUOR,Liquor Store (city), 10/23/2015,1842 W 92ND AVE,Federal Heights,CO,802605301,
KWON LLC,PARTI TYME LIQUORS,Liquor Store (city), 09/21/2015,1608 W 92ND AVE,Federal Heights,CO,802605304,
SP & ANMOL INC,U-DRINK  IT LIQUORS,Liquor Store (city), 01/27/2016,9000 FEDERAL BLVD,Federal Heights,CO,802605841,
CIMARRON LIQUORS OF FIRESTONE LLC,CIMARRON LIQUOR OF FIRESTONE,Liquor Store (city), 07/14/2016,11078 CIMARRON STREET UNIT I,Firestone,CO,80504,
FIRESTONE LIQUORS INC,FIRESTONE LIQUORS,Liquor Store (city), 10/14/2015,562 1ST AVE,Firestone,CO,805205962,
KASTORIA INC,CARBON VALLEY LIQUOR,Liquor Store (city), 05/29/2016,8196 COLORADO BLVD UNIT N1,Firestone,CO,805046400,
RELIABLE ENTERPRISE LLC,FLAGLER LIQUOR,Liquor Store (city), 08/28/2015,410 HIGH STREET,Flagler,CO,80815,
LIQUOR LOCKER LLC,THE LIQUOR LOCKER,Liquor Store (city), 10/20/2015,215 W MAIN ST,Florence,CO,812261423,
PARADISE LIQUOR INC,PARADISE LIQUOR,Liquor Store (city), 10/06/2015,201 E MAIN ST,Florence,CO,812261554,
CHRISTOPHER MEDINA,THE LIQUOR STATION,Liquor Store (county), 01/05/2016,8722 TELLER COUNTY RD # I UNIT 100,Florissant,CO,80816,
CLARK & NEPPEL INC,LOG CABIN LIQUORS,Liquor Store (county), 03/08/2016,2834 W HWY 24,FLORISSANT,CO,80816,
ADDIS CORPORATION,KWIK STOP LIQUORS,Liquor Store (city), 07/10/2015,1671 S COLLEGE AVE,Fort Collins,CO,805251006,
BBK LLC,FISH'S LIQUOR MART,Liquor Store (city), 01/07/2016,1007 E HARMONY ROAD,Fort Collins,CO,80525,
BISON LIQUORS LLC,BISON LIQUORS,Liquor Store (city), 11/21/2015,1015 WEST HORSETOOTH AVE #101,Fort Collins,CO,805265978,
BULLFROG WINE & SPIRITS INC,BULLFROG WINE & SPIRITS,Liquor Store (city), 05/12/2016,1820 N COLLEGE AVE,Fort Collins,CO,805241333,
CAMPUS WEST LIQUORS INC,CAMPUS WEST LIQUOR DEPOT,Liquor Store (city), 12/20/2015,1107 CITY PARK,Fort Collins,CO,805214443,
"CO CRAFT BEER GEEKS, LLC",CRAFT BEER CELLAR FORT COLLINS,Liquor Store (city), 06/04/2016,120-122 SOUTH MASON STREET,Fort Collins,CO,80524,
COTTONWOOD LIQUORS LLC,COTTONWOOD LIQUORS,Liquor Store (city), 02/01/2016,3645 S COLLEGE AVE #9,Fort Collins,CO,805253009,
D & L TANSKI LLC,VOM FASS,Liquor Store (city), 11/16/2015,"123 N COLLEGE AVE, STE 170",Fort Collins,CO,80524,
DONOHO'S BEER AND SPIRITS LLC,DONOHO'S BEER AND SPIRITS,Liquor Store (city), 06/23/2016,4562 DENROSE CT #6,Fort Collins,CO,805248364,
FORT COLLINS WAREHOUSE LIQUORS INC,FORT COLLINS WAREHOUSE LIQUORS INC,Liquor Store (city), 08/27/2015,4700 BOARDWALK DR,Fort Collins,CO,805253729,
FRIEDLAN ENTERPRISES INC,SADDLE UP LIQUOR,Liquor Store (city), 12/13/2015,1015 S TAFT HILL RD,Fort Collins,CO,805214240,
GOLDENMECK INC,FABBY'S WINE AND SPIRITS,Liquor Store (city), 04/27/2016,2608 S TIMBERLINE RD #112,Fort Collins,CO,805252803,
HENSLEY MUSIAL CORP,287 CRAFT SPIRITS,Liquor Store (city), 06/16/2016,5846 S COLLEGE AVE,Fort Collins,CO,805253950,
JIN YUAN CORP,HARMONY LIQUOR,Liquor Store (city), 01/08/2016,115 E HARMONY RD # 100,Fort Collins,CO,80525,
KOITA INVESTMENT GROUP LLC,MOONDANCE WINES AND SPIRITS,Liquor Store (city), 05/07/2016,2601 S LEMAY AV #46,Fort Collins,CO,805252295,
KSW LLC,LEMAY LIQUORS,Liquor Store (city), 06/22/2016,737 S LEMAY AVE #B2,Fort Collins,CO,80524,
LAYALINA LLC,OLD TOWN LIQUOR,Liquor Store (city), 09/22/2015,214 S COLLEGE AVE,Fort Collins,CO,805242870,
LEE YOUNG JOO,PROSPECT LIQUORS,Liquor Store (city), 12/25/2015,1115 W PROSPECT RD #105,Fort Collins,CO,805267700,
LIQUOR KABINET LTD.,LIQUOR KABINET,Liquor Store (city), 01/07/2016,3035 W PROSPECT RD,Fort Collins,CO,80526,
MCCURNIN FAMILY ENTERPRISES LLC,RAM LIQUOR,Liquor Store (city), 10/12/2015,1119 W DRAKE RD #C34,Fort Collins,CO,805266030,
"MULBERRY WINE & SPIRITS, INC",MULBERRY MAX WINE & SPIRITS,Liquor Store (city), 02/10/2016,460 S COLLEGE AVE STE G,Fort Collins,CO,80524,
NEIGHBORHOOD LIQUORS LLC,NEIGHBORHOOD LIQUOR,Liquor Store (city), 04/06/2016,4631 S MASON ST STE B2,Fort Collins,CO,80525,
PACIFIC ISLANDER INC,JB'S CONVENIENCE STORE,Liquor Store (city), 01/23/2016,710 E MAGNOLIA,Fort Collins,CO,805242928,
"POUDRE LIQUORS, LLC",POUDRE LIQUORS,Liquor Store (city), 08/12/2015,814 N COLLEGE AVE,Fort Collins,CO,80521,
PREMIER WINE AND SPIRITS INC,PREMIER WINE AND SPIRITS,Liquor Store (city), 11/20/2015,1414 E HARMONY RD,Fort Collins,CO,805253297,
RICH'S AGGIE DISCOUNT LIQUOR INC,RICHS AGGIE DISCOUNT LIQUOR INC,Liquor Store (city), 02/18/2016,429 CANYON AV,Fort Collins,CO,805212624,
RJ'S WINE & SPIRITS LLC,RJ'S WINE & SPIRITS,Liquor Store (city), 04/11/2016,4321 CORBETT DR STE 100,Fort Collins,CO,80525,
S&C INVESTMENTS INC,CRYSTAL'S LIQUOR,Liquor Store (city), 10/23/2015,356 E HARMONY RD UNIT 6-C,Fort Collins,CO,80525,
SCHMIDTBERGER ERNEST SCHMIDTBERGER K,CITY PARK LIQUOR,Liquor Store (city), 08/11/2016,2016 W LAPORTE,Fort Collins,CO,80521,
SENECA LIQUOR LLC,SENECA LIQUORS,Liquor Store (city), 09/15/2015,1721 W HARMONY #103,Fort Collins,CO,805267611,
THE CELLAR OF FORT COLLINS INC,THE CELLAR,Liquor Store (city), 07/10/2016,3600 MITCHELL DR UNIT 90,Fort Collins,CO,805255919,
THIRSTYS LIQUOR INC,THIRSTYS LIQUOR,Liquor Store (city), 07/31/2016,1001 SOUTH LEMAY AVENUE,Fort Collins,CO,80524,
TRAN SON ANHDOAN KATHY,CREEKSIDE LIQUOR,Liquor Store (city), 11/07/2015,1005 W STUART,Fort Collins,CO,805265620,
UPTOWN LIQUORS INC,UPTOWN LIQUORS,Liquor Store (city), 10/21/2015,1833 E HARMONY RD #3,Fort Collins,CO,805283414,
WILBURS JV LLC,WILBUR'S TOTAL BEVERAGE,Liquor Store (city), 09/06/2015,2201 S COLLEGE AVE #108,Fort Collins,CO,805251418,
BERING LLC,CITY LIMIT LIQUOR,Liquor Store (county), 10/21/2015,2001 N COLLEGE AVE,Fort Collins,CO,805241391,
YOUNG'S LIQUOR INC,YOUNG'S LIQUOR,Liquor Store (county), 12/26/2015,1432 E MULBERRY UNIT A,Fort Collins,CO,805243518,
TOCZEK ANDRZEJ,EL DORADO LIQUOR,Liquor Store (county), 04/15/2016,451 HWY 160,Fort Garland,CO,81133,
TRUJILLO CONRAD,FORT GARLAND LIQUOR,Liquor Store (county), 02/07/2016,CORNER OF HWY 159 & HWY 160,Fort Garland,CO,81133,
BAJWA BROTHERS COLORADO LLC,CORK & CAP LIQUORS,Liquor Store (city), 10/27/2015,115 1ST ST,Fort Lupton,CO,80621,
SINGH ENTERPRISES INC,AJ DISCOUNT LIQUOR,Liquor Store (city), 07/16/2016,1400 DEXTER ST,Fort Lupton,CO,80621,
YANG & HYON ENTERPRISES INC,FORT SUDS LIQUOR,Liquor Store (city), 12/09/2015,640 14TH ST,Fort Lupton,CO,80621,
K&M LLC,RAILROAD DISCOUNT LIQUORS,Liquor Store (city), 06/24/2016,420 E RAILROAD AVE,Fort Morgan,CO,80701,
V & B SANDHU INC,MID WEST LIQUORS,Liquor Store (city), 10/30/2015,105 S MAIN ST,Fort Morgan,CO,80701,
VERONICA CARRERA-CHAVEZ CADO CARRERAS,JOVI'S LIQUOR,Liquor Store (city), 07/31/2015,625 E. BURLINGTON AVENUE,Fort Morgan,CO,80701,
10G INC,WAYWARD WIND LIQUOR,Liquor Store (county), 11/03/2015,14424 HIGHWAY 34,Fort Morgan,CO,80701,
ROBADA LLC,HIGH PLAINS LIQUOR,Liquor Store (county), 10/30/2015,17601 HWY 34,Fort Morgan,CO,80701,
THIRSTY TURTLE LIQUORS LLC,THIRSTY TURTLE LIQUORS,Liquor Store (county), 02/20/2016,19527 US HWY 34,Fort Morgan,CO,80701,
GDW INC,MESA LIQUOR ENT,Liquor Store (city), 12/19/2015,965 LAKE AVE,FOUNTAIN,CO,808171683,
LIQUOR CITY FOUNTAININC,LIQUOR CITY FOUNTAIN,Liquor Store (city), 05/14/2016,7070 S HWY 85/87,Fountain,CO,80817,
S & S KO INC,HIGH SPIRITS LIQUOR,Liquor Store (city), 06/04/2016,301 S SANTA FE AVE,Fountain,CO,808171924,
SPEC OPS LIQUOR LLC,CARSON'S WINE & LIQUOR,Liquor Store (city), 08/06/2015,6877 MESA RIDGE PARKWAY,Fountain,CO,80817,
TFET ENTERPRISES S CORP,MOUTAIN POST LIQUORS,Liquor Store (city), 02/02/2016,6336 HWY 85/87,Fountain,CO,80817,
YOUNG & JULIE INC,TOM'S LIQUOR,Liquor Store (city), 01/22/2016,401 ROYALTY PL,Fountain,CO,808172025,
HAGERMAN DONNA MAY,RED TOP WINE AND LIQUOR,Liquor Store (city), 11/28/2015,601 E CRANSTON AVE,FOWLER,CO,810391258,
"LA CAVA, INC.",LIBATIONS WINE & SPIRITS,Liquor Store (city), 05/01/2016,16350 E ARAPAHOE RD UNIT 102,Foxfield,CO,80016,
"THE ZIONS FAMILY, INC",FRANKTOWN LIQUORS,Liquor Store (county), 11/12/2015,7524 E STATE HIGHWAY 86,Franktown,CO,80116,
BOTTLE PASS LIQUORS INC,BOTTLE PASS LIQUORS,Liquor Store (city), 02/09/2016,45 COUNTY RD 804  UNIT 1A,Fraser,CO,804429999,
ICEBOX LLC THE,ICEBOX THE,Liquor Store (city), 12/02/2015,46 MARKET ST,Fraser,CO,80442,
ROCKY MOUNTAIN MOONSHINE INC.,ROCKY MOUNTAIN MOONSHINE,Liquor Store (city), 04/01/2016,76827 US HIGHWAY 40,Fraser,CO,80442,
FREDERICK STORE INC.,FREDERICK STORE,Liquor Store (city), 01/28/2016,340A 5TH ST,Frederick,CO,80530,
GLACIER LIQUORS LLC,GLACIER LIQUORS,Liquor Store (city), 12/27/2015,3652 RELIANCE DR,Frederick,CO,80516,
BACCHUS LLC,FRISCO WINE MERCHANT,Liquor Store (city), 06/14/2016,111 MAIN ST UNIT 1,Frisco,CO,80443,
BASECAMP WINE & SPIRITS LLC,BASECAMP WINE & SPIRITS,Liquor Store (city), 10/29/2015,223 LUSHER COURT UNIT 1,Frisco,CO,80443,
FRISCO LIQUORS INC,FRISCO LIQUORS INC,Liquor Store (city), 06/07/2016,416 MAIN ST,FRISCO,CO,804439999,
GOLDEN LEAF OPPORTUNITY II INC,ANTLERS DISCOUNT LIQUORS,Liquor Store (city), 02/23/2016,842 N SUMMIT BLVD,Frisco,CO,80443,
SNOWBRIDGE LIQUORS LLC,SNOWBRIDGE SQUARE LIQUORS,Liquor Store (county), 06/01/2016,760 COPPER RD C-107A,Frisco,CO,80443,
BEST BOYS LLC,FRUITA LIQUOR MART,Liquor Store (city), 05/31/2016,423 E HWY 6 & 50,FRUITA,CO,815212628,
DEE & BEE INC,JACKALOPE LIQUORS,Liquor Store (city), 06/07/2016,404 JURASSIC AVE UNIT B,FRUITA,CO,815219535,
IN THE MIDDLE LIQUORS INC,IN THE MIDDLE LIQUORS,Liquor Store (city), 09/22/2015,303 US HWY 6 & 50,FRUITA,CO,81521,
LLENROC LIQUORS LLC,CENTER TOWN LIQUORS,Liquor Store (city), 04/07/2016,136 SOUTH MESA,Fruita,CO,815212517,
PRINGLE ENTERPRISES INC,PRINGLE BROS FINE WINE & SPIRITS,Liquor Store (city), 02/04/2016,2100 W DRAKE NO11,FT COLLINS,CO,805261400,
SOUTH COLLEGE LIQUORS INC,SOUTH COLLEGE LIQUORS,Liquor Store (city), 01/16/2016,2724 S COLLEGE AVE,FT COLLINS,CO,805252140,
WINE & LIQUOR SPECIALS INC,WINE AND LIQUOR SPECIALS,Liquor Store (city), 10/06/2015,2439 S COLLEGE AVE,FT COLLINS,CO,805251754,
BUTLER MANAGEMENT SVCS LLC,CAMPSITE PIZZA,Liquor Store (county), 05/31/2013,4025 CTY RD 38 E,FT COLLINS,CO,80526,
CHI AND YU INC,ZIPPY'S LIQUOR,Liquor Store (county), 06/30/2016,125 E COUNTY RD 32,FT COLLINS,CO,805256951,
DAKOTA KIDS INC,HORSETOOTH LIQUOR,Liquor Store (county), 05/15/2016,4791 W COUNTY RD 38E,FT COLLINS,CO,805265054,
JJ'S LIQUOR LLC,JJ'S LIQUOR,Liquor Store (county), 03/06/2016,4015 S TAFT HILL RD #3,FT COLLINS,CO,805267416,
SUPERMARKET LIQUORS INC,SUPERMARKET LIQUORS INC,Liquor Store (county), 10/03/2015,1300 E MULBERRY,FT COLLINS,CO,805243516,
MIDCAP LLC,NORTH MAIN LIQUOR,Liquor Store (city), 02/03/2016,716 MAIN ST,FT MORGAN,CO,807012028,
REATA LIQUORS INC,REATA LIQUORS,Liquor Store (city), 05/17/2016,1305 N BARLOW RD,FT MORGAN,CO,807014367,
EBY STEPHEN E EBY BETTY J,EAST PLATTE AVENUE LIQUORS,Liquor Store (county), 05/09/2016,19309 E PLATTE AV,FT MORGAN,CO,807010000,
TRUJILLO WILLIAM R,GARDNER LIQUORS,Liquor Store (county), 07/01/2016,25153 HWY 69,Gardner,CO,81040,
GEORGETOWN WINE AND SPIRITS LLC,GEORGETOWN WINE AND SPIRITS,Liquor Store (city), 06/17/2016,1406 ARGENTINE,GEORGETOWN,CO,80444,
GILCREST LIQUOR INC,GILCREST LIQUOR,Liquor Store (city), 04/07/2016,505 RAILROAD ST,GILCREST,CO,80623,
COST PLUS INC,COST PLUS WORLD MARKET,Liquor Store (city), 02/06/2016,770 S COLORADO BLVD,Glendale,CO,80246,
LEETSDALE LIQUOR INC,LEETSDALE LIQUOR,Liquor Store (city), 10/08/2015,4996 LEETSDALE DR,Glendale,CO,80246,
YKIM CORPORATION,CHERRI PLAZA LIQUORS,Liquor Store (city), 03/02/2016,4611 E MISSISSIPPI AVE,Glendale,CO,80246,
BRADY DUO LLC,COOPER WINE & SPIRITS,Liquor Store (city), 09/30/2015,732 COOPER  & SPIRITS,Glenwood Springs,CO,81601,
GLENWOOD FOOD & FUEL INC,GENOS,Liquor Store (city), 12/20/2015,0023 B MEL REY RD,GLENWOOD SPRINGS,CO,816012545,
GLENWOOD LIQUOR CABINET LLC,TURTLE'S GLENWOOD LIQUORS,Liquor Store (city), 08/21/2015,1918 GRAND AVE,Glenwood Springs,CO,816014114,
GRAND AVENUE LIQUORS INC,GRAND AVENUE LIQUORS,Liquor Store (city), 07/12/2016,1512 GRAND AVE #108,Glenwood Springs,CO,816013855,
KELLER DOUGLAS W,MOUNTAIN MARKET,Liquor Store (city), 11/07/2015,3950 MIDLAND AVE,GLENWOOD SPRINGS,CO,816014603,
RED MOUNTAIN WINE AND SPIRITS INC,RED MOUNTAIN WINE AND SPIRITS,Liquor Store (city), 06/09/2016,45 MARKET STREET #D,Glenwood Springs,CO,816018506,
ROARING FORK LIQUORSINC,ROARING FORK LIQUORS,Liquor Store (city), 10/22/2015,3120C BLAKE AVE,GLENWOOD SPRINGS,CO,816014464,
SPRINGS ENTERPRISES LTD,SPRINGS LIQUORS THE,Liquor Store (city), 10/28/2015,214 6TH ST,Glenwood Springs,CO,816013034,
UNCLE SIDS BOTTLES INC,UNCLE SIDS BOTTLES,Liquor Store (city), 12/13/2015,2306 GLEN AVE,GLENWOOD SPRINGS,CO,816014334,
82 LIQUORS LTD,82 LIQUORS,Liquor Store (county), 09/09/2015,2550 HWY 82 A-112 & 116,Glenwood Springs,CO,81601,
RHINO LIQUORS INC,RHINO LIQUORS,Liquor Store (county), 12/01/2015,6820 HWY 82,GLENWOOD SPRINGS,CO,816019627,
CANDELARIA LLC,CLEAR CREEK WINE & SPIRITS,Liquor Store (city), 09/17/2015,711 WASHINGTON AVENUE,Golden,CO,80401,
CANYON POINT WINE & SPIRIT INC,CANYON POINT WINE & SPIRIT,Liquor Store (city), 08/05/2015,103 N RUBEY DR #1 & 2,GOLDEN,CO,804032456,
DAIHAN LLC,GOLDEN TOWN LIQUOR,Liquor Store (city), 08/19/2015,"17121 S. GOLDEN ROAD, UNIT 115",Golden,CO,80401,
DHILLON ENTERPRISES INC,GOLDEN VILLAGE LIQUOR,Liquor Store (city), 02/26/2016,17730 S GOLDEN RD,Golden,CO,80401,
JIRO LLC,WINERY LIQUORS,Liquor Store (city), 08/05/2016,17851 W COLFAX AVE,Golden,CO,80401,
"LE BLANC, LLC",GOLDEN WINE,Liquor Store (city), 04/08/2016,"601 16TH STREET, UNIT E",Golden,CO,80401,
ROCKY MOUNTAIN SWIRL INC,LIGHT RAIL WINE & ALE,Liquor Store (city), 06/10/2016,14799 W 6TH AVE,Golden,CO,804015298,
SNK INTERNATIONAL,HERITAGE LIQUOR,Liquor Store (city), 05/19/2016,750 HERITAGE ROAD,Golden,CO,80401,
VERSIUS INC,GOLDEN LIQUOR,Liquor Store (city), 05/24/2016,601 13TH ST,GOLDEN,CO,804011901,
YDF ENTERPRISES LLC,FOSS BUILDING WINE & SPIRITS,Liquor Store (city), 02/25/2016,"1224 WASHINGTON AVE, #4",GOLDEN,CO,804011145,
AKA LIQUORS LLC,ACE LIQUOR,Liquor Store (county), 02/19/2016,16265 S GOLDEN RD,Golden,CO,80401,
FLINTLOCK ENTERPRISES INC,GENESEE WINE AND SPIRITS,Liquor Store (county), 03/03/2016,25948 GENESEE TRAIL ROAD UNIT H,GOLDEN,CO,804015762,
FRED'S LIQUOR INC,FRED'S LIQUOR,Liquor Store (county), 07/02/2016,1895 YOUNGFIELD ST #2,Golden,CO,80401,
LAHIA GROUP LIMITED LLC,CANYON LIQUORS,Liquor Store (county), 11/14/2015,30550 HWY 72,Golden,CO,804038469,
LEE SANG MU,OLD GOLDEN ROAD LIQUORS,Liquor Store (county), 06/22/2016,15750 OLD GOLDEN RD,Golden,CO,804013948,
CHOAT ENTEPRISES LLC,SYLWA'S LIQUOR,Liquor Store (city), 10/03/2015,105 WEST GOFF,Granada,CO,81041,
ANDERSON ROBERT F ANDERSON JOANN,R & J LIQUOR,Liquor Store (city), 04/23/2016,88 E AGATE AVE,GRANBY,CO,804460000,
BGL LLC,GRANBY MARKETPLACE LIQUOR,Liquor Store (city), 03/12/2016,1131 THOMPSON RD  # 102,Granby,CO,80446,
G & R PROPERTIES INC,SPIRIT N THINGS,Liquor Store (city), 10/28/2015,413 E AGATE AVE,GRANBY,CO,80446,
BOMBACE KENNETH A,FOUR SEASONS LIQUOR STORE,Liquor Store (county), 11/08/2015,10118 U S HWY 34,GRANBY,CO,804469249,
CARSON INC,JOHNY'S BEER & LIQUOR,Liquor Store (city), 05/07/2016,2648 PATTERSON ROAD,GRAND JUNCTION,CO,815061941,
CHANNCL LLC,TELLER ARMS LIQUOR,Liquor Store (city), 08/24/2015,2353 BELFORD AVE,Grand Junction,CO,815015129,
COLLEGE LIQUORS INC,COLLEGE LIQUORS,Liquor Store (city), 10/28/2015,2695 PATTERSON RD  UNIT 9,Grand Junction,CO,815068848,
DANCING SPIRITS LLC,HORIZON LIQUOR,Liquor Store (city), 07/21/2016,715 HORIZON DR  STE 207,Grand Junction,CO,81506,
FISHERS LIQUOR BARN INC,FISHERS LIQUOR BARN,Liquor Store (city), 09/18/2015,2438 PATTERSON ROAD,GRAND JUNCTION,CO,815051210,
HILLTOP LIQUORS INC,HILLTOP LIQUOR STORE,Liquor Store (city), 06/23/2013,1563 HWY 50 SOUTH,GRAND JUNCTION,CO,815031762,
JEMSKT INC,COUNTRY CLUB LIQUORS,Liquor Store (city), 01/12/2016,683 HORIZON DR #105,Grand Junction,CO,815065279,
JUNCTION LIQUORS LLC,FUN JUNCTION LIQUORS,Liquor Store (city), 09/18/2015,"510 28 3/4 ROAD, UNITS 202-205",Grand Junction,CO,81501,
MALABO LLC,GC DISCOUNT LIQUORS,Liquor Store (city), 09/03/2015,200 WEST GRAND AVENUE,GRAND JUNCTION,CO,815057304,
MIGHTY MENG LLC,NORTH AVENUE LIQUOR,Liquor Store (city), 06/09/2016,807 NORTH AVE,Grand Junction,CO,815013139,
MIMOSA INC,FAIRGROUND WINE & LIQUOR,Liquor Store (city), 02/10/2016,2771 B 1/2 ROAD,GRAND JUNCTION,CO,815032188,
PETE'S HOUSE OF SPIRITS INC,PETE'S HOUSE OF SPIRITS INC,Liquor Store (city), 06/23/2016,1560 NORTH AVENUE,GRAND JUNCTION,CO,815016407,
RUSH CORPORATION,KOKOPELLI LIQUOR,Liquor Store (city), 04/21/2016,2996 D ROAD,GRAND JUNCTION,CO,815048604,
SINH LLC,REDLANDS LIQUOR,Liquor Store (city), 07/13/2016,2500 BROADWAY SPACE A8,Grand Junction,CO,815032766,
STONER ENTERPRISES LTD,ANDY'S LIQUOR MART,Liquor Store (city), 01/17/2016,922 NORTH 1ST STREET,GRAND JUNCTION,CO,815012240,
VAT LLC,JACK RABBIT LIQUOR,Liquor Store (city), 03/11/2016,2681 UNAWEEP AVE UNIT C & D,GRAND JUNCTION,CO,815034421,
WALTERSCHEID INVSTMT CONSULTING INC,ALL PRO LIQUOR,Liquor Store (city), 03/07/2016,2913 PATTERSON RD #104,Grand Junction,CO,815045488,
CORONADO LIQUOR MART LLC,CORONADO LIQUOR MART,Liquor Store (county), 06/11/2016,569 32 RD 3A,GRAND JUNCTION,CO,815046095,
DAWNETT & STEVE ENTERPRISES INC,ENTERPRISE LIQUOR,Liquor Store (county), 07/22/2016,2923 NORTH AVENUE #7,Grand Junction,CO,815014977,
FRUITVALE LIQUORS INC,FRUITVALE LIQUORS,Liquor Store (county), 01/05/2016,505 30 ROAD,GRAND JUNCTION,CO,815045736,
J&B HITCHING POST LLC,TRADING POST LIQUORS,Liquor Store (county), 02/27/2016,2898 HWY 50,GRAND JUNCTION,CO,815033902,
MONUMENT VILLAGE LIQUORS LLC,MONUMENT VILLAGE LIQUORS,Liquor Store (county), 02/17/2016,2148 BROADWAY,Grand Junction,CO,815071098,
THIRD & ROOD CORP,BOOKCLIFF LIQUORS,Liquor Store (county), 06/06/2016,3026 F ROAD,Grand Junction,CO,815014264,
JAKE'S SPIRITS LLC,GRAND LAKE WINE & SPIRITS,Liquor Store (city), 03/29/2016,904 GRAND AVENUE,Grand Lake,CO,80447,
MILES GROUP LLC,LAKEVIEW LIQUOR,Liquor Store (city), 09/28/2015,14626 US HWY 34,GRAND LAKE,CO,80447,
WALLER JOHN R,DISCOUNT LIQUOR,Liquor Store (county), 07/27/2016,10217 US HWY 34,GRAND LAKE,CO,804478808,
SCHAUER DONALD A,THE GRANT MOTEL,Liquor Store (county), 06/07/2016,49578 HIGHWAY 285,Grant,CO,804489900,
AFEWORKI LLC,MIDNIGHT LIQUOR,Liquor Store (city), 08/12/2015,1020 11TH ST,Greeley,CO,806313818,
ASPEN CONSULTING INC,LIQUOR 4 LESS,Liquor Store (city), 07/15/2016,803 5TH ST,Greeley,CO,806312318,
BOOZE BROTHERS LIQUOR LLC,BOOZE BROTHERS LIQUOR,Liquor Store (city), 11/01/2015,2321 W 27TH ST #512B,Greeley,CO,806348054,
C&C INCORPORATED LLC,BITTERSWEET LIQUORS,Liquor Store (city), 07/13/2016,3504 W 10TH ST,GREELEY,CO,806341824,
COLLEGE GREEN LIQUOR INC,COLLEGE GREEN LIQUOR,Liquor Store (city), 10/26/2015,4681 W 20TH ST,GREELEY,CO,806343224,
CORAL BAY WINE & SPIRITS INC,CORAL BAY WINE & SPIRITS,Liquor Store (city), 11/03/2015,6624 W 10TH ST,GREELEY,CO,806349746,
E BOURBON STREET INC,EAST BOURBON STREET SPIRITS,Liquor Store (city), 09/09/2015,102 E 22ND ST,Greeley,CO,806316085,
GORDONS LIQUOR MART INC,GORDONS DISCOUNT LIQUOR MART,Liquor Store (city), 05/21/2016,2521 11TH AVE,GREELEY,CO,806316927,
"GRAPES AND HOPS, LLC","GRAPES AND HOPS, LLC",Liquor Store (city), 02/19/2016,"6560 29TH STREET, SUITE 107",Greeley,CO,80634,
GREELEY WEST SIDE LIQUOR INC,GREELEY WEST SIDE LIQUOR INC,Liquor Store (city), 10/08/2015,3017 W 10TH STREET,Greeley,CO,806345334,
GREWAL'Z LLC,HOFFA'S DOWNTOWN LIQUOR,Liquor Store (city), 05/05/2016,1102 9TH ST,GREELEY,CO,806313219,
HIGHLAND PARK LIQUORS LLC,HIGHLAND PARK LIQUORS,Liquor Store (city), 03/23/2016,1850 59TH AVENUE,Greeley,CO,80634,
KARA KAUR KHASRIYA  INC,ZIP MART DISCOUNT LIQUOR,Liquor Store (city), 11/01/2015,1500 8TH AVE,Greeley,CO,806314606,
LIQUOR TYME LLC,LIQUOR TYME,Liquor Store (city), 07/09/2015,108 8TH AVE,Greeley,CO,80631,
LONE STAR LIQUOR LLC,LONE STAR LIQUOR,Liquor Store (city), 03/19/2016,2724 11TH AVE,Greeley,CO,80631,
MARDI GRAS OUTLET INC,MARDI GRAS LIQUOR,Liquor Store (city), 06/22/2015,2401 8TH AVE,Greeley,CO,806317034,
MCREY LLC,HILLCREST LIQUOR,Liquor Store (city), 02/12/2016,5750 W 10TH ST UNIT G,GREELEY,CO,806344402,
ON THE ROCKS LLC,ON THE ROCKS,Liquor Store (city), 05/10/2016,4637 W 29TH ST UNIT 1,Greeley,CO,806349480,
PEHOWA LLC,WESTERN LIQUOR & WINE,Liquor Store (city), 01/01/2016,1005 54TH AVE,Greeley,CO,80634,
QUICKER LIQUOR INC,QUICKER LIQUOR,Liquor Store (city), 07/31/2015,1904 9TH STREET,Greeley,CO,806313028,
"SIMER, LLC",10 MARKETPLACE LIQUOR,Liquor Store (city), 04/16/2016,4751 W 10TH ST,Greeley,CO,80634,
SONI THIARA LNC,HARRY'S LIQUOR,Liquor Store (city), 07/13/2015,328 18TH STREET,Greeley,CO,806315981,
VINTAGE LIQUORS LLC,VINTAGE LIQUORS,Liquor Store (city), 12/26/2015,403 8TH ST,Greeley,CO,806312435,
WESTLAKE WINE & SPIRIT INC,WESTLAKE WINE & SPIRIT INC,Liquor Store (city), 06/20/2016,2024 35TH AVE,GREELEY,CO,806343926,
WOOD SIDE WINE-N- SPIRITS INC,WOOD SIDE WINE-N-SPIRITS,Liquor Store (city), 01/18/2016,1105 16TH ST,GREELEY,CO,806315401,
WART KIMBERLY ROLAND,MIDLAND RAILS LIQUOR,Liquor Store (city), 03/31/2016,10550 UTE PASS AVE,GREEN MTN FALLS,CO,80819,
WART NANCY L,MIDLAND RAILS LIQUOR,Liquor Store (city), 05/31/2013,10550 UTE PASS AVE,GREEN MTN FALLS,CO,80819,
BELLEVIEW SQUARE WINE & SPIRITS LLC,TECH CENTER WINE & SPIRITS,Liquor Store (city), 01/06/2016,4920 S YOSEMITE STE C1,GREENWOOD VILLAGE,CO,801111351,
JMP EMTERPRISES OF COLORADO,CHERRY HILLS WINE SHOP,Liquor Store (city), 08/02/2015,5910 SOUTH UNIVERSITY BOULEVARD UNIT D-4,Greenwood Village,CO,801212879,
KWANG SHIN KIM INC,PRIDE WINE & LIQUOR,Liquor Store (city), 06/09/2016,9676 E ARAPAHOE RD  STE B,Greenwood Village,CO,80112,
LMMC LLC,GOPHER LIQUORS,Liquor Store (city), 07/19/2016,5929 S UNIVERSITY BLVD,Greenwood Village,CO,801212835,
LYONS LIQUOR LLC,LYONS DEN FINE WINE & SPIRITS,Liquor Store (city), 03/08/2016,5332 DTC BLVD #500,Greenwood Village,CO,801113331,
MC LIQUOR 02 LLC,INCREDIBLE WINE & SPIRITS,Liquor Store (city), 09/13/2015,8557A E ARAPAHOE RD,GREENWOOD VILLAGE,CO,801121401,
MOSADA LIQUOR INVESTMENTS LLC,DSM LIQUORS,Liquor Store (city), 03/23/2016,9251 E PEAKVIEW ST SUITE E,Greenwood Village,CO,80111,
MOUNTAIN SUN INC,ORCHARDS WINE & SPIRITS,Liquor Store (city), 02/19/2016,5998 S HOLLY ST,Greenwood Village,CO,801114221,
WOON HYUNG INC,D-A LIQUOR MART,Liquor Store (city), 08/24/2015,9625 E ARAPAHOE RD UNIT Q,GREENWOOD VILLAGE,CO,801123752,
BOOTLEGGER LIQUORS LLC,BOOTLEGGER LIQUORS,Liquor Store (county), 06/29/2016,52 8TH ST,Guffey,CO,808209126,
B & D VENTURES INC,SECRET CREEK SPIRITS,Liquor Store (city), 10/22/2015,810 N MAIN ST,Gunnison,CO,812302414,
EAST TOMICHI CORP,WET GROCER DISCOUNT LIQUOR,Liquor Store (city), 02/13/2016,202 E TOMICHI AVE,GUNNISON,CO,812302327,
GUNNISON LIQUOR INC,GUNNISON LIQUOR,Liquor Store (city), 04/05/2016,603 W TOMICHI,Gunnison,CO,812303034,
HIGH MOUNTAIN LIQUOR INC,HIGH MOUNTAIN LIQUOR,Liquor Store (city), 07/20/2016,901 NORTH MAIN STREET,GUNNISON,CO,812302415,
SPLITAIL INVESTMENTS LLC,SPORTSMANS LIQUOR,Liquor Store (city), 05/29/2016,713 W TOMICHI AVE,Gunnison,CO,812303036,
FERRO JOHN FERRO KAY,FERROS LIQUORS,Liquor Store (county), 04/30/2016,3200 SOAP CREEK RD,Gunnison,CO,812309234,
CANYON LIQUORS LLC,CANYON LIQUORS,Liquor Store (city), 08/21/2015,3838 HWY 6,Gypsum,CO,81637,
JAKE'S LIQUORS INC,COSTCO LIQUORS AT GYPSUM,Liquor Store (city), 08/09/2016,170 COOLEY MESA RD SUITE B,GYPSUM,CO,816379707,
LIQUOR SHOP INC THE,LIQUOR SHOP THE,Liquor Store (city), 07/26/2015,600 BERTROCH LN NORTH END,Gypsum,CO,81637,
PKJSM INC,MAC'S LIQUOR,Liquor Store (city), 01/08/2016,106 OAKRIDGE,Gypsum,CO,816379904,
SHOP & HOP 3 LLC,HIWAY 6 LIQUORS,Liquor Store (city), 07/08/2016,0800 HIGHWAY 6,Gypsum,CO,81637,
BBCS OF HARTSEL INC,BADGER BASIN COUNTRY STORE,Liquor Store (county), 06/16/2016,12551 HWY 24,Hartsel,CO,80449,
PRAIRIE OASIS HOLDING COMPANY LLC,HAXTUN LIQUORS,Liquor Store (city), 05/21/2016,230 W 1ST ST,Haxtun,CO,807312714,
NANCY'S A-1 AUTO OF HAYDEN INC,A-1 LIQUOR,Liquor Store (city), 10/04/2015,106 E JEFFERSON AVE,Hayden,CO,81639,
CHANCE INVESTMENTS LLC,CHANCE LIQUORS,Liquor Store (county), 10/23/2015,6885 COUNTY RD 30,Heeney,CO,80498,
GOOD CORPORATION,A-1 LIQUOR STORE,Liquor Store (county), 07/11/2016,12345 BRIGHTON ROAD,Henderson,CO,806409747,
HODGIN CILLE B,TBR SERVICE,Liquor Store (county), 10/04/2015,6740 HWY 140,Hesperus,CO,813269316,
BACCHUS WINE & SPIRITS INC,BACCHUS WINE & SPIRITS,Liquor Store (county), 03/03/2016,9265 S BROADWAY STE 400,HIGHLANDS RANCH,CO,801266665,
BAM INC,VILLAGE CENTER WINE AND SPIRITS,Liquor Store (county), 01/27/2016,9553 S UNIVERSITY,Highlands Ranch,CO,801267803,
CORK WINE & SPIRITS INC,CORK WINE & SPIRITS,Liquor Store (county), 08/20/2016,9364 S COLORADO BLVD C-02,Highlands Ranch,CO,80126,
DAVIDSON'S LIQUOR INC,DAVIDSON'S LIQUOR,Liquor Store (county), 04/15/2016,5500 BOATWORKS DR,Highlands Ranch,CO,80126,
"MARSEC SERVICES, LLC",HIGHLANDS WINE SELLER,Liquor Store (county), 03/21/2016,6670 TIMBERLINE RD,Highlands Ranch,CO,80130,
OBI INC,HIGHLANDS RANCH WINE AND SPIRITS,Liquor Store (county), 09/18/2016,9455 S. UNIVERSITY BLVD.,Highlands Ranch,CO,80126,
SB ARARIO INC,WESTSIDE LIQUOR,Liquor Store (county), 07/17/2016,2209 W WILDCAT RESERVE PKWY #E2,HIGHLANDS RANCH,CO,80129,
VAN DUNG NGOC,PROM DISCOUNT LIQUOR,Liquor Store (county), 08/29/2016,2030 E COUNTY LINE RD,HIGHLANDS RANCH,CO,801262439,
HAUSNER CATHY SUE,EAST SIDE LIQUOR,Liquor Store (city), 12/28/2015,101 S 1ST ST,Holly,CO,81047,
VAN CAMPEN BARBARA J,TRAILSIDE LIQUOR,Liquor Store (city), 10/13/2015,1015 W COLORADO,HOLLY,CO,810479773,
HOMETOWN LIQUOR LLC,HOMETOWN LIQUOR,Liquor Store (city), 11/03/2015,119 N INTEROCEAN AVE,HOLYOKE,CO,807341012,
REDS LIQUORS LLC,RED'S LIQUORS,Liquor Store (city), 02/12/2016,140 E DENVER ST,Holyoke,CO,80734,
CANYON LIQUORS & GIFTS INC,CANYON LIQUORS,Liquor Store (city), 07/31/2016,501 BYERS AVE #14,Hot Sulphur Springs,CO,80451,
MAHALO BEVERAGES LLC,TRI-R LIQUORS,Liquor Store (city), 12/27/2015,620 EAST BRIDGE ST,Hotchkiss,CO,81419,
DHILLON INC,OLD BUFFALO LIQUORS,Liquor Store (city), 10/30/2015,540 FIR ST,Hudson,CO,80642,
PSL INVESTMENTS LLC,PIT STOP LIQUOR,Liquor Store (city), 02/08/2016,618 CEDAR,HUDSON,CO,80642,
NEWBANKS PARKER E JR NEWBANKS BEVERLY S,HUGO LIQUOR,Liquor Store (city), 09/21/2015,513 4th STREET,Hugo,CO,808210000,
RJB-CUB INC,CLEAR CREEK DISCOUNT LIQUORS,Liquor Store (city), 04/14/2016,2325 MINER ST,IDAHO SPRINGS,CO,80452,
SDS INCORPORATED,MOUNTAIN MOONSHINE,Liquor Store (city), 12/30/2015,2812 COLORADO BLVD,Idaho Springs,CO,80452,
CARPENTER WILLIAM M,ROADHOUSE LIQUORS,Liquor Store (county), 01/15/2016,26783 HWY 36,Idalia,CO,80735,
LEE EZRA E,WELLS LIQUOR SOUTH,Liquor Store (city), 09/29/2015,555 GODDARD AVE,IGNACIO,CO,81137,
QUICK THOMAS AZIMMERMAN VERA J,MAIN LIQUOR,Liquor Store (city), 06/10/2013,410 GODDARD AVE,IGNACIO,CO,81137,
SOL ENTERPRISES INC,PINON LIQUORS,Liquor Store (city), 01/03/2016,125 GODDARD AVE,Ignacio,CO,811379765,
ILIFF LIQUOR STORE INC,ILIFF LIQUOR CLOSET,Liquor Store (city), 09/15/2015,315 RAILROAD AVE UNIT B,Iliff,CO,80736,
MEADE DOROTHY J,JO'S LIQUOR,Liquor Store (county), 12/12/2015,6491 US HWY 36,JOES,CO,808229501,
JOHNSTOWN LIQUOR INC,JOHNSTOWN LIQUOR,Liquor Store (city), 02/20/2016,21 S PARISH AVE,Johnstown,CO,805349099,
ATKINS JON W,J&J LIQUORS,Liquor Store (city), 04/17/2016,420 W FIRST ST,JULESBURG,CO,807371404,
GRAHAM ENTERPRISES LLC,TIPSY TURTLE,Liquor Store (city), 08/10/2016,112 WEST 1ST STREET,Julesburg,CO,80737,
STIGALL INA M,COUNTRY LIQUOR STORE,Liquor Store (city), 09/29/2015,105 E HWY 2,Keenesburg,CO,80643,
WAGON WHEEL LIQUOR LLC,WAGON WHEEL LIQUOR,Liquor Store (city), 05/01/2016,110 HILL ST,Kersey,CO,80644,
SKYE HOLDINGS LLC,GATEWAY GROCERY & LIQUOR,Liquor Store (county), 08/13/2016,23110 US HIGHWAY  6  # 108,Keystone,CO,80435,
SULLIVAN VENTURES INC,LOVELAND PASS LIQUORS,Liquor Store (county), 12/21/2015,101 MOUNTAIN VIEW PLAZA,KEYSTONE,CO,80435,
"KRAFT & COMPANY, LLC",MK LIQUORS,Liquor Store (city), 02/14/2016,240 COMANCHE ST,KIOWA,CO,80117,
TRAILS END LIQUORS LLC,TRAILS END LIQUORS,Liquor Store (city), 02/07/2016,100 MAIN ST,Kit Carson,CO,80825,
KITTREDGE WINE & SPIRITS INC,KITTREDGE WINE & SPIRITS,Liquor Store (county), 01/06/2016,26279 HIGHWAY 74  SUITE 100,KITTREDGE,CO,804391133,
BASEMANN SERVICES INC,WEST END LIQUOR,Liquor Store (city), 12/12/2015,200 PARK AVE,Kremmling,CO,80459,
KREMMLING MERCANTILE LLC,KREMMLING MERCANTILE,Liquor Store (city), 07/13/2016,101 MARTIN WY K,Kremmling,CO,80459,
WELL INC THE,WELL THE,Liquor Store (city), 10/16/2015,102 N 2ND,Kremmling,CO,80459,
BUHR DARLENE S,T D LIQUOR,Liquor Store (city), 11/19/2015,422 SPRUCE ST,La Jara,CO,81140,
BIG D'S LIQUOR MART LLC,BIG D'S LIQUOR MART,Liquor Store (city), 11/18/2015,26730 W US HWY 50,La Junta,CO,81050,
J&S LIQUOR LLC,J&S LIQUOR STORE,Liquor Store (city), 11/17/2015,302 E 1ST ST,La Junta,CO,81050,
BECERRA JOHN F BECERRA ALFREDO C,BEER JOINT THE,Liquor Store (county), 02/02/2016,102 N MAIN,LA JUNTA,CO,810509223,
LASALLE CLASSIC LIQUORS INC,LASALLE CLASSIC LIQUORS,Liquor Store (city), 06/26/2016,536 N 2ND ST,La Salle,CO,806453309,
DAVENPORT TARA LYNN,LA VETA LIQUORS,Liquor Store (city), 09/07/2015,105 W FRANCISCO ST,La Veta,CO,81055,
5280 WINE & SPIRITS LLC,SUMMIT WINE & SPIRITS,Liquor Store (city), 04/22/2016,385 CROSSING DRIVE,Lafayette,CO,800261742,
BLACK DIAMOND LIQUOR LLC,BLACK DIAMOND LIQUOR,Liquor Store (city), 01/03/2016,489 N HWY 287 STE 150,Lafayette,CO,80026,
DUONG VINH DINH,LAFAYETTE LIQUOR DEPOT,Liquor Store (city), 08/16/2015,183 SO BOULDER RD,Lafayette,CO,800268836,
"LH INVESTMENT, INC",T3 GAS & LIQUORS,Liquor Store (city), 11/09/2015,508 W BASELINE RD,Lafayette,CO,80026,
PARTY LIQUOR INC,PARTY LIQUOR,Liquor Store (city), 02/09/2016,1021 S 112TH ST,Lafayette,CO,800269044,
SHIVALIK LIQUORS LLC,DELUXE LIQUORS,Liquor Store (city), 10/07/2015,709 S PUBLIC RD,LAFAYETTE,CO,800262125,
SOUTH BOULDER ROADLIQUORS INC,SOUTH BOULDER ROAD LIQUORS,Liquor Store (city), 02/18/2016,545 W S BOULDER RD #110,LAFAYETTE,CO,800268838,
J V VENTURES INC,SILVER SPUR,Liquor Store (city), 12/10/2015,301 N GUNNISON AVE,LAKE CITY,CO,81235,
TEXELTAC INC,ELKHORN LIQUORS,Liquor Store (city), 04/09/2016,144 S GUNNISON AVE,Lake City,CO,81235,
REED BENSON INC,SPORTMANS CAMPGROUND AND MOUNTAIN CABINS,Liquor Store (county), 05/06/2016,2095 TAYLOR LN,Lake City,CO,81235,
11 MILE GENERAL INC,11 MILE GENERAL STORE,Liquor Store (county), 03/11/2016,5790 COUNTY RD 92,LAKE GEORGE,CO,808279203,
STARKWEATHER INC,STARKY'S GENERAL STORE,Liquor Store (county), 10/04/2015,38316 HWY 24,Lake George,CO,80827,
A & C INC,AJ'S LIQUOR,Liquor Store (city), 05/14/2016,9590 W. COLFAX AVENUE,Lakewood,CO,80215,
ALAMEDA DISCOUNT LIQUORS INC,ALAMEDA DISCOUNT LIQUORS,Liquor Store (city), 06/03/2016,6241 W ALAMEDA AVE,LAKEWOOD,CO,802263540,
ANDREATTA di FIRENZE LLC,POUR BOY LIQUOR,Liquor Store (city), 08/18/2015,6468 W 20TH AVE,Lakewood,CO,80214,
AWASH INC,LAKEWOOD LIQUORS,Liquor Store (city), 01/24/2016,9181 W JEWELL,LAKEWOOD,CO,802326447,
BEAR CREEK LIQUOR INC,BEAR CREEK LIQUOR,Liquor Store (city), 05/26/2016,9886 W GIRTON DR,LAKEWOOD,CO,802274326,
BHOWMICK LIQUOR INC,NORMAN'S LIQUOR,Liquor Store (city), 06/26/2016,12065 W ALAMEDA PKWY UNIT F-6,LAKEWOOD,CO,802282701,
BLUE OCEAN INC,SHERIDAN FINE WINE & SPIRITS,Liquor Store (city), 04/07/2016,65 SHERIDAN BLVD,Lakewood,CO,802262426,
BOK ENTERPRISE LLC,MOUNTAIR LIQUORS,Liquor Store (city), 03/26/2016,5246 W COLFAX AVE,Lakewood,CO,80214,
BRITT LLC,FOOTHILLS DISCOUNT LIQUOR,Liquor Store (city), 04/26/2016,13079 W ALAMEDA PKWY,LAKEWOOD,CO,802283107,
BUNCH'S LIQUOR LLC,THE L Q,Liquor Store (city), 11/14/2015,12018-A W JEWELL AVE,LAKEWOOD,CO,802284485,
CHAMPION LIQUOR STORE LLC,CHAMPION LIQUOR,Liquor Store (city), 02/07/2016,6111 W COLFAX AVE,LAKEWOOD,CO,802141821,
CHANLIEU INC,TL DISCOUNT LIQUORS,Liquor Store (city), 07/22/2016,2010 KIPLING STREET,Lakewood,CO,80215,
COLORADO TWO LLC,LOW PRICE LIQUOR,Liquor Store (city), 02/23/2016,275 S SHERIDAN BLVD SUITE 104,Lakewood,CO,80226,
CONTINENTAL DISCOUNT LIQUORS INC,CONTINENTAL DISCOUNT LIQUORS,Liquor Store (city), 05/08/2016,650 S WADSWORTH BLVD STE E,Lakewood,CO,802263130,
CRABB INDUSTRIES LLC,BIG D LIQUORS,Liquor Store (city), 04/12/2016,1530 KIPLING,LAKEWOOD,CO,802152839,
DANAJ LLC,DANAJ LIQUORS,Liquor Store (city), 01/25/2016,7111 W ALAMEDA AVE UNIT G,Lakewood,CO,80226,
DSK LIQUORS INC,777 LIQUORS,Liquor Store (city), 02/16/2016,7175 - 7185 W COLFAX,Lakewood,CO,80214,
EDNA-VALLEY LLC,EDNA WINE & SPIRITS,Liquor Store (city), 11/25/2015,7986 W ALAMEDA AVE A & B,Lakewood,CO,80226,
EV & OB ENTERPRISES INC,GIANT DISCOUNT LIQUOR,Liquor Store (city), 04/11/2016,1000 S WADSWORTH BLVD #C,Lakewood,CO,80226,
GOOD LIQUOR MARKET INC,GOOD LIQUOR MARKET,Liquor Store (city), 12/21/2015,98 WADSWORTH BLVD #101,Lakewood,CO,802261550,
GOPI ENTERPRISES INC,SAI LIQUORS,Liquor Store (city), 05/14/2016,5066 S WADSWORTH BLVD #117,LAKEWOOD,CO,801231226,
H AND H CORP,GREEN MOUNTAIN LIQUORS,Liquor Store (city), 01/10/2016,12611 W ALAMEDA PKWY,Lakewood,CO,802282828,
HA INTERNATIONAL INC,WEST ALAMEDA LIQUORS,Liquor Store (city), 06/10/2016,99 S SHERIDAN BLVD,LAKEWOOD,CO,802262428,
HEY BEERMAN INCORPORATED,BEERMAN LIQUOR STORE,Liquor Store (city), 03/20/2016,10120 W 26TH AVE,LAKEWOOD,CO,802151483,
HYUNJIN INC,SPIRITS PLUS LIQUOR,Liquor Store (city), 07/31/2016,777 SIMMS ST,Lakewood,CO,80401,
IN AND OUT LIQUORSINC,IN AND OUT LIQUORS,Liquor Store (city), 03/29/2016,7007 W COLFAX AVE STE A,LAKEWOOD,CO,802145429,
JAMES MAN INC,HOLIDAY LIQUOR,Liquor Store (city), 05/09/2016,997 SHERIDAN BLVD,LAKEWOOD,CO,802142547,
JO-LY INC,FAMILY WINE & LIQUOR,Liquor Store (city), 04/30/2016,379 S GARRISON ST,Lakewood,CO,80226,
JV INC,LOCHWOOD SQUARE LIQUOR,Liquor Store (city), 09/17/2015,1555 SOUTH KIPLING PARKWAY UNIT A,Lakewood,CO,80232,
K & S REX INC,HI GRADE LIQUOR,Liquor Store (city), 09/18/2015,1070 UNIT C SOUTH UNION BLVD,LAKEWOOD,CO,80228,
KAMAL INC,FLORIDA LIQUOR,Liquor Store (city), 08/26/2015,7579 W FLORIDA AVE UNIT A,Lakewood,CO,80232,
LIQUOR TIME,LIQUOR TIME,Liquor Store (city), 06/05/2016,7560 W JEWELL AVE,Lakewood,CO,802326802,
MAUI CORPORATION,ATLAS WINE & SPIRITS,Liquor Store (city), 03/12/2016,11068 W JEWELL AVE #C-1,Lakewood,CO,802326121,
MHJ CORP,JOSH LIQUORS,Liquor Store (city), 10/11/2015,6569 W COLFAX AVE,Lakewood,CO,80214,
MILE HIGH WINE & SPIRITS LLC,MILE HIGH WINE AND SPIRITS,Liquor Store (city), 07/29/2015,435 S VANCE ST,Lakewood,CO,802261643,
MOON CORP,FOX POINT LIQUORS,Liquor Store (city), 12/18/2015,13655 W JEWELL AVE B101,LAKEWOOD,CO,802286030,
NGUYEN LIQUOR INC,AAA LIQUORS,Liquor Store (city), 07/26/2016,1115 S WADSWORTH BLVD,LAKEWOOD,CO,802325435,
ONKAR INVESTMENTS LLC,TWO ANGELS LIQUORS,Liquor Store (city), 03/17/2016,"2589 S LEWIS WAY #6F, 6G, 6H",Lakewood,CO,80227,
PHILNOR LIQUOR LLC,PHILNOR LIQUOR,Liquor Store (city), 11/11/2015,11200 W COLFAX,Lakewood,CO,802153771,
REEB LIQUORS LLC,REEB LIQUORS,Liquor Store (city), 12/02/2015,11000 W ALAMEDA AVE,Lakewood,CO,80226,
RLH COLORADO INC,TRADING POST LIQUORS,Liquor Store (city), 03/23/2016,3333 S WADSWORTH BLVD UNIT A-111,Lakewood,CO,80227,
SAHDRA INC,JEWELL SQUARE DISCOUNT LIQUORS,Liquor Store (city), 01/08/2016,7853 W JEWELL AVE,LAKEWOOD,CO,802266807,
SHINY INC,SY LIQUORS,Liquor Store (city), 02/03/2016,2049 WADSWORTH BLVD UNIT M,Lakewood,CO,80214,
SND INC,WILLOWS LIQUOR,Liquor Store (city), 10/26/2015,10815 W JEWELL AVE UNIT B,LAKEWOOD,CO,802326268,
SOUTH SHERIDAN LIQUORS LLC, SHERIDAN LIQUORS,Liquor Store (city), 01/12/2016,1295 S SHERIDAN BLVD,Lakewood,CO,80232,
SPRINGER KYONG H,CURVE LIQUORS,Liquor Store (city), 07/23/2016,6795 W MISSISSIPPI,LAKEWOOD,CO,802264667,
SUN VALLEY LIQUORS INC,SUN VALLEY LIQUORS,Liquor Store (city), 10/21/2015,10115 W KENTUCKY AVE,Lakewood,CO,802263942,
TORSCHER ENTERPRISES LLC,GREEN MOUNTAIN VILLAGE LIQUORS,Liquor Store (city), 11/03/2015,2950 S BEAR CREEK BLVD SUITE C & D,Lakewood,CO,802285337,
VILLA ITALIA LIQUORS INC,VILLA ITALIA LIQUORS,Liquor Store (city), 09/16/2016,1460 CARR ST,LAKEWOOD,CO,802146102,
WADSWORTH LIQUOR &WINE LLC,WADSWORTH LIQUOR & WINE,Liquor Store (city), 03/14/2016,1981 S WADSWORTH BLVD,Lakewood,CO,802272434,
XINGLONG INC,G-6 LIQUOR,Liquor Store (city), 02/23/2016,9080 W 6TH AVE,Lakewood,CO,80215,
A&B LIQUOR INC,A&B LIQUOR INC,Liquor Store (city), 06/11/2016,804 E OLIVE,Lamar,CO,810522945,
CORNER LIQUOR LLC,CORNER LIQUOR LLC,Liquor Store (city), 05/20/2016,1201 SOUTH MAIN STREET,Lamar,CO,81052,
MONCOR LLC,CORONICA'S,Liquor Store (city), 05/16/2016,100 N MAIN,Lamar,CO,810522524,
ROE KENNETH A,OLIVE STREET STATION,Liquor Store (city), 05/20/2016,403 E OLIVE ST,Lamar,CO,810522842,
ETALEM INC,BRANDING IRON LIQUOR,Liquor Store (county), 11/07/2015,3204 W CR 54 G,LAPORTE,CO,805359363,
HUTCHISON KENNETH H,VERNS LIQUOR,Liquor Store (county), 10/11/2015,4200 N HWY 287,Laporte,CO,80535,
JAMES AND CAROL CALLAHAN,SPRUCE MOUNTAIN WINE AND SPIRITS,Liquor Store (city), 09/25/2015,8993 SPRUCE MOUNTAIN ROAD,Larkspur,CO,80118,
LOMBARDO RYAN E,SPIRITS AT THE CORNER,Liquor Store (city), 04/14/2016,"9181 SPRUCE MTN RD, UNIT C",Larkspur,CO,80118,
J R LIQUOR INC,J R LIQUOR INC,Liquor Store (city), 03/08/2016,221 N BENT AVE,LAS ANIMAS,CO,810549403,
MAUPIN JERRY MAUPIN JOYCE,JERRYS LIQUOR STORE,Liquor Store (city), 12/15/2015,337 6TH ST,LAS ANIMAS,CO,810541713,
LIVING HIGH CORP,LEADVILLE LIQUOR,Liquor Store (county), 10/20/2015,1619 POPLAR,Leadville,CO,804613059,
SATURDAYS DISCOUNT INC,SATURDAYS DISCOUNT,Liquor Store (county), 02/17/2016,12655 HWY 24 SO,Leadville,CO,80461,
DOUBLE R LIQUORS LLC,DOUBLE R LIQUORS,Liquor Store (county), 02/20/2016,18794 HWY 491,Lewis,CO,81327,
DRMP LLC,WINDMILL LIQUOR,Liquor Store (city), 03/04/2016,290 MAIN ST,Limon,CO,80828,
HINES & CRAWFORD ASSOCIATES LLC,MARTINI'S LIQUOR,Liquor Store (city), 12/23/2015,2285 9TH ST,Limon,CO,80828,
ALL SPIRITS LLC,TOTAL WINE AND LIQUORS,Liquor Store (city), 06/14/2015,6901 S BROADWAY,Littleton,CO,801228005,
BEER WINE SPIRITS INC,SUNSET LIQUORS,Liquor Store (city), 11/03/2015,26 E ARAPAHOE RD,Littleton,CO,80122,
HANNAH LLC,CAPS LIQUOR MART,Liquor Store (city), 05/07/2016,5196 SO LOWELL BLVD,Littleton,CO,80123,
JESSHERI CORP,ADVANCE LIQUORS,Liquor Store (city), 08/02/2015,7945 S BROADWAY,LITTLETON,CO,801222715,
KING SOLOMON,KING SOLOMON LIQUOR,Liquor Store (city), 03/26/2016,4760 W MINERAL AVE #30,Littleton,CO,80128,
LIDO WINE MERCHANTS INC,LIDO WINE MERCHANTS INC,Liquor Store (city), 09/17/2015,2529 W MAIN ST,LITTLETON,CO,801201912,
LITTLETON DISCOUNT LIQUORS LLC (BRUCE T PECKHAM - SOLE MEMBER),LITTLETON DISCOUNT LIQUORS,Liquor Store (city), 08/18/2015,2737 W BELLVIEW AVE,Littleton,CO,80123,
"LITTLETON LIQUOR MART, LLC",LITTLETON LIQUOR MART,Liquor Store (city), 04/09/2016,"40 WEST LITTLETON BOULEVARD, UNITS 201, 202 & 203",Littleton,CO,80120,
MELSTROM KURT A,PYRAMID DISCOUNT LIQUORS,Liquor Store (city), 02/27/2016,599 W LITTLETON BLVD,LITTLETON,CO,801202335,
RAMMAR LLC,NAPA NECTARS,Liquor Store (city), 07/06/2015,5302 S FEDERAL CR #E,Littleton,CO,801238936,
SHANKER INC,SANTA FE SPIRITS,Liquor Store (city), 08/16/2015,6023 S SANTA FE DR,LITTLETON,CO,801201834,
8055 LIQUOR INC,ARROW DISCOUNT LIQUORS,Liquor Store (county), 06/03/2016,8055 W. BOWLES AVE # 2 W,Littleton,CO,80123,
82 LIQUORS LLC,82 LIQUORS,Liquor Store (county), 12/17/2015,10143 W CHATFIELD AVE UNIT 5,LITTLETON,CO,801274266,
ALKIRE SPIRITS MART LLC,TIPSYS LIQUOR WORLD,Liquor Store (county), 09/17/2015,5869 S ALKIRE ST,LITTLETON,CO,801271402,
BELMAR AVENUES INC,COLUMBINE WINES AND LIQUORS INC,Liquor Store (county), 09/09/2015,7660 S PIERCE ST,Littleton,CO,801285783,
BYUN YEOUNG C,KIPLING PLAZA LIQUOR,Liquor Store (county), 09/18/2015,5055 S KIPLING ST #C-6,LITTLETON,CO,801277932,
CHATFIELD DISCOUNT LIQUOR INC,CHATFIELD DISCOUNT LIQUOR,Liquor Store (county), 06/10/2016,7444 W CHATFIELD AVE #11 I-J,Littleton,CO,801289113,
"CHATFIELD WINE & SPIRITS, LLC",CHATFIELD WINE & SPIRITS,Liquor Store (county), 09/08/2016,"8156 S WADSWORTH BLVD UNIT A,B,C,D",Littleton,CO,801289114,
DOAN DAVID,GOVERNOR'S LIQUOR,Liquor Store (county), 01/21/2016,9876 W BELLEVIEW,LITTLETON,CO,801232101,
FSY INC,ROXBOROUGH LIQUORS,Liquor Store (county), 02/23/2016,8357 N RAMPART RANGE ROAD #103,Littleton,CO,80125,
GRONINGER ENTERPRISES INC,TRUDY'S LIQUORS,Liquor Store (county), 10/07/2015,5924 S KIPLING PKWY UNIT J&K,LITTLETON,CO,801275555,
"H & H ENTERPRISES, LLC",DUTCH CREEK LIQUORS,Liquor Store (county), 10/27/2015,8250 W COALMINE AVE #4,Littleton,CO,80123,
HWF PROPERTIES LLC,HAPPY HOUND WINE & LIQUORS,Liquor Store (county), 05/10/2016,10181 W BOWLES AVE A,Littleton,CO,801272085,
INDER INC,WILDCAT WINE & SPIRITS,Liquor Store (county), 07/18/2016,3996 RED CEDAR DRIVER UNIT A-7,Littleton,CO,80126,
JUDA INC,INFINITY LIQUORS,Liquor Store (county), 06/29/2016,9729 W COAL MINE AVE #Z,Littleton,CO,80123,
KAPOOR INC,FOOTHILLS GREEN LIQUOR,Liquor Store (county), 08/08/2016,5500 S SIMMS ST UNIT J,Littleton,CO,801272139,
PRINCE INCORPORATED,ROYAL LIQUOR,Liquor Store (county), 12/09/2015,7979 AND 7980 S DEPEW ST,Littleton,CO,80128,
RANJIT INC,KEN CARYL VILLAGE WINE & SPIRITS,Liquor Store (county), 01/13/2016,12482 W KEN CARYL AVE UNIT B-6,LITTLETON,CO,801273726,
ROLIANT INC,OLD VINE LIQUORS,Liquor Store (county), 12/07/2015,9956 W REMINGTON PL A-12,LITTLETON,CO,801286732,
SIMMS LIQUOR STORE CORPORATION,SIMMS LIQUOR STORE,Liquor Store (county), 06/29/2016,11614 W BELLEVIEW AVE #C,Littleton,CO,801271586,
"SJ GALAXY, LLC",HIGHLAND VINEYARDS,Liquor Store (county), 11/23/2015,"3506 TOWN CENTER DR, UNIT H & G",Littleton,CO,80129,
STUR LIQUORS LLC,KEN CARYL WINE & SPIRITS,Liquor Store (county), 11/17/2015,"11757 WEST KEN CARYL AVE., UNIT H / I",Littleton,CO,80127,
SUPER LIQUOR MART INC,SUPER LIQUOR MART,Liquor Store (county), 02/25/2016,6700 S PIERCE ST,Littleton,CO,801284574,
WERNER'S WEST PEAKVIEW LIQUORS INC,WERNER'S WEST PEAKVIEW LIQUORS INC,Liquor Store (county), 04/21/2016,9083 W PEAKVIEW DR,Littleton,CO,801233380,
MASTIN ROBIN J,LIL GREENEY'S LIQUOR,Liquor Store (city), 03/12/2016,129 MAINE ST,LOG LANE VILLAGE,CO,807054806,
BWS SALES LLC,CHATEAU LIQUORS,Liquor Store (city), 02/10/2016,10016 COMMONS STREET,Lone Tree,CO,80124,
COLORADO SUPERSTORES LLC,LUKAS LIQUOR SUPERSTORE,Liquor Store (city), 04/17/2016,8457 S YOSEMITE ST,LONE TREE,CO,801242861,
"FLATIRONS DISCOUNT LIQUORS, INC",FLATIRONS DISCOUNT LIQUORS,Liquor Store (city), 05/05/2016,7817 PARK MEADOWS DR,LONE TREE,CO,801242547,
HERITAGE HILLS WINE & SPIRITS LLC,HERITAGE HILLS WINE & SPIRITS,Liquor Store (city), 08/14/2015,9231 E LINCOLN AVE #100,Lone Tree,CO,801245508,
SY INC,MEADOW LIQUORS,Liquor Store (city), 01/13/2016,8864 E MAXIMUS DR,Lone Tree,CO,801242840,
BERG INVESTMENT INC.,FOX CREEK LIQUORS,Liquor Store (city), 10/29/2015,1610 PACE ST #700,Longmont,CO,80501,
CLOUSER LLC,THREE RIVERS WINE & SPIRITS,Liquor Store (city), 09/30/2015,1020 KEN PRATT BOULEVARD UNIT A,Longmont,CO,80501,
E C MOON ENTERPRISES INC,BRANDIN IRON LIQUORS,Liquor Store (city), 09/25/2015,1227 S MAIN ST,Longmont,CO,805016813,
JASSHN INC,9TH AVE LIQUOR WAREHOUSE,Liquor Store (city), 02/26/2016,750 W 9TH AVE UNIT A,Longmont,CO,80501,
JS INC,VINO CELLARS WINE & SPIRITS,Liquor Store (city), 07/29/2016,1635 PACE ST UNIT E-1,LONGMONT,CO,805013053,
KMC CORPORATION,QUICK LIQUORS,Liquor Store (city), 04/13/2016,1751 HOVER ST,LONGMONT,CO,805017181,
LONGMONT LIQUORS,LONGMONT LIQUORS,Liquor Store (city), 08/13/2015,137 MAIN STREET,Longmont,CO,80501,
"LONGMONT WINE AND SPIRITS, LLC",FRANCIS STREET LIQUORS,Liquor Store (city), 06/11/2016,1147 FRANCIS STREET,Longmont,CO,80501,
LUCKY'S LIQUOR LLC,LUCKY'S LIQUOR,Liquor Store (city), 07/08/2016,700 KEN PRATT BLVD UNIT 202,Longmont,CO,80501,
MEAN SEREY INC,CENTENNIAL SQUARE LIQUORS,Liquor Store (city), 04/27/2016,1600 HOVER STREET #B-1,Longmont,CO,80501,
P&H CORPORATION,SEVEN LIQUORS,Liquor Store (city), 09/11/2015,1668 MAIN ST,LONGMONT,CO,805012615,
P&S LIQUOR INC,P&S LIQUOR,Liquor Store (city), 03/10/2016,400 LASHLEY ST,LONGMONT,CO,805017611,
PEJONA INC,WESTVIEW LIQUORS,Liquor Store (city), 02/26/2016,1716 #L N MAIN ST,LONGMONT,CO,80501,
PRICE & ARIAS IVP LLC,SPORTSMAN'S DISCOUNT LIQUOR,Liquor Store (city), 03/24/2016,"1817 MAIN STREET, UNIT 201",Longmont,CO,805012037,
SNICKER-DOODLE LLC,PJ'S WINE & SPIRITS,Liquor Store (city), 03/19/2016,665 FRONTAGE RD_STE 130,LONGMONT,CO,805019022,
SNIFTERS & COMPANY LLC,SNIFTERS WINE & SPIRITS,Liquor Store (city), 12/17/2015,600 AIRPORT RD BLD B UNIT H,Longmont,CO,805036424,
SUNNYVALE LIQUORS INC,SUNNYVALE LIQUORS,Liquor Store (city), 12/19/2015,830 LASHLEY ST #F,LONGMONT,CO,805045141,
TENACITY WINE SHOPLLC,TENACITY WINE SHOP,Liquor Store (city), 11/23/2015,700 TENACITY DR #102,LONGMONT,CO,805047392,
TIGER LIQUORS INC,HORIZON PARK LIQUOR,Liquor Store (city), 07/15/2015,2255 N MAIN STREET SUITE 109,Longmont,CO,80501,
TRIPLE SK INC,QUALITY LIQUOR STORE,Liquor Store (city), 10/21/2015,1236 MAIN ST,Longmont,CO,805013824,
TWIN PEAKS LIQUORSINC,TWIN PEAKS LIQUOR,Liquor Store (city), 02/16/2016,999 S HOVER ST #1,LONGMONT,CO,805017908,
WETSTONE LIQUORS INC,HOVER CROSSING WINE & SPIRITS,Liquor Store (city), 05/19/2016,1844 HOVER ST UNIT E,LONGMONT,CO,80501,
"WYATT'S JV, LLC",WYATT'S WINES AND SPIRITS,Liquor Store (city), 10/27/2015,"1250 S. HOVER ST., UNIT C",Longmont,CO,80501,
RLF INC,C J'S LIQUORS,Liquor Store (county), 08/05/2015,3907 HWY 119,LONGMONT,CO,80504,
CABBZ INC,CENTENNIAL WINE & SPIRITS,Liquor Store (city), 03/20/2016,324 S MCCASLIN BLVD,Louisville,CO,80027,
DOWN UNDER LLC,DOWN UNDER LIQUOR,Liquor Store (city), 04/10/2016,1140 PINE ST #1,Louisville,CO,800271400,
T PHAM ENTERPRISES INC,BRASS MONKEY WINE & SPIRITS,Liquor Store (city), 09/08/2015,1387 A S BOULDER RD,Louisville,CO,800272330,
UNION JACK LIQUORS INC,UNION JACK LIQUORS,Liquor Store (city), 11/19/2015,1160 S BOULDER RD,LOUISVILLE,CO,800272525,
VILLAGE SQUARELIQUOR LLC,VILLAGE SQUARE LIQUOR,Liquor Store (city), 07/19/2016,645 E SOUTH BOULDER RD,LOUISVILLE,CO,800271328,
ABBESOLOM INC,LIQUOR ONE OF LOVELAND,Liquor Store (city), 11/27/2015,2231 W EISENHOWER BLVD,LOVELAND,CO,805373147,
B&E LLC,BENTLEY'S LIQUOR,Liquor Store (city), 12/07/2015,1775 ROCKY MOUNTAIN AVE,Loveland,CO,805388851,
BRIX WINE AND SPIRITS INC,BRIX WINE AND SPIRITS,Liquor Store (city), 06/23/2016,6130 E CROSSROADS BLVD,Loveland,CO,805388987,
COLORADO KSR INC,LIQUOR MAX WAREHOUSE,Liquor Store (city), 08/18/2015,1497 E EISENHOWER BLVD,Loveland,CO,805373927,
DONDEL-PIGG PROPERTIES INC,CORKSCREW WINE AND LIQUOR,Liquor Store (city), 04/19/2016,247-251 W 64TH ST,LOVELAND,CO,805381197,
ELEVATION LIQUORS INC,ELEVATION LIQUORS,Liquor Store (city), 07/12/2016,1904 W EISENHOWER BLVD,Loveland,CO,805373136,
KENSARA INC,THOMPSON VALLEY LIQUOR,Liquor Store (city), 04/30/2016,1195 EAGLE DRIVE,LOVELAND,CO,805370000,
LINCOLN HOUSE OF SPIRITS INC,HOUSE OF SPIRITS,Liquor Store (city), 07/05/2016,2585 N LINCOLN AVE,Loveland,CO,805383208,
LOCOMOTIVE LIQUORS LLC,LOCOMOTIVE LIQUORS,Liquor Store (city), 07/07/2016,2228 W 1ST,Loveland,CO,80537,
LOVELAND SPIRITS INC,LOVELAND LIQUOR,Liquor Store (city), 10/31/2015,639 N CLEVELAND AVE,Loveland,CO,805375511,
MOON JU,THIRTY FOUR LIQUORS,Liquor Store (city), 09/26/2015,1205 E EISENHOWER BLVD,Loveland,CO,805383925,
NU INC,1ST STREET LIQUORS,Liquor Store (city), 08/14/2015,1104 E 1ST ST,Loveland,CO,805375832,
S.I. FLATS INC,MRS TORRELLI'S WINE FLAT,Liquor Store (city), 01/22/2016,534 CLEVELAND AVE,Loveland,CO,80537,
WAREHOUSE LIQUORS WEST LLC,WAREHOUSE LIQUORS WEST,Liquor Store (city), 11/19/2015,1710 W EISENHOWER BLVD #9,LOVELAND,CO,805373197,
WARGO STEVEN J,COUNTRY SIDE LIQUORS,Liquor Store (city), 12/06/2015,109 E 37TH ST,Loveland,CO,805382306,
WORLD BEVERAGE INC,WORLD BEVERAGE,Liquor Store (city), 01/29/2016,3655 N GARFIELD AVE,Loveland,CO,805382243,
BIG S ENTERPRISES INC,GATEWAY LIQUOR,Liquor Store (county), 02/19/2016,530 S LINCOLN AVENUE,LOVELAND,CO,805376431,
HANGLOOSE LIQUORS LLC,FORT NAMAQUA LIQUORS,Liquor Store (county), 11/27/2015,3129 W EISENHOWER BLVD,Loveland,CO,80537,
FISHER MARILYN J,REDSTONE LIQUOR,Liquor Store (city), 12/16/2015,138 E MAIN,Lyons,CO,80540,
V-BOSS INC,LUMBER LIQUORS,Liquor Store (city), 04/07/2016,303 MAIN ST,Lyons,CO,80540,
"UINTAH LIQUORS ""CORP""",UINTAH LIQUORS,Liquor Store (county), 06/04/2016,1024 US HWY 6 & 50,Mack,CO,81525,
MANCOS LIQUOR LLC,MANCOS LIQUOR,Liquor Store (city), 05/29/2016,160 E FRONTAGE RD,Mancos,CO,81328,
LAWRENCE TED R,LOG CABIN LIQUOR,Liquor Store (county), 10/23/2015,41900 HWY 160,Mancos,CO,813289202,
D&D LIQUOR LLC,D&D LIQUOR,Liquor Store (city), 08/21/2016,1108 MANITOU AVENUE,MANITOU SPRINGS,CO,808291736,
MEAD LIQUORS OF COLORADO INC,MEAD LIQUORS INC,Liquor Store (city), 05/12/2016,4327 HWY 66,MEAD,CO,80542,
GJMCK LLC,WHITE RIVER LIQUOR,Liquor Store (city), 11/05/2015,606 MARKET ST,MEEKER,CO,816419644,
SULLIVAN FAMILY LLC,OL' CROWS BEER & BEVERAGE,Liquor Store (city), 11/05/2015,1030 MARKET STREET,MEEKER,CO,816413403,
PETTUS JOHN M,MESA LIQUORS,Liquor Store (county), 11/21/2015,10952 HWY 65,Mesa,CO,81643,
GARDNER JAMES GARDNER SHIRLEY,MILLIKEN LIQUORS,Liquor Store (city), 01/09/2016,811 BROAD ST,MILLIKEN,CO,805438010,
MCCUTTERS LLC,MCCUTTERS,Liquor Store (city), 06/16/2016,23175 HWY 257,MILLIKEN,CO,80543,
CROWDER GAIL W,MINTURN MILE LIQUORS,Liquor Store (city), 11/15/2015,341 MAIN ST,Minturn,CO,81645,
KATARZYNA TOCEK,RIO BRAVO LIQUOR,Liquor Store (city), 09/16/2015,1120 PARK AVENUE,Monte Vista,CO,81144,
SOUTHWEST LIQUOR LLC,SOUTHWEST LIQUOR,Liquor Store (city), 04/25/2016,2011 GRANDE,MONTE VISTA,CO,811449338,
FRANKLINS QUOTE LLC,LIQUOR MART,Liquor Store (county), 02/15/2016,1121 N HWY 285,Monte Vista,CO,81144,
HILD'S FINE WINES LTD,CORKS FINE WINES & SPIRITS,Liquor Store (city), 11/16/2015,16420 S TOWNSEND,MONTROSE,CO,814015404,
J&LL SERVICES_LLC,BEER BARN II,Liquor Store (city), 04/02/2016,1001 E MAIN,MONTROSE,CO,814014041,
LIQUOR STORE LLC THE,LIQUOR STORE THE,Liquor Store (city), 03/02/2016,1601 OXBOW DR UNIT 300,MONTROSE,CO,814014775,
MANGUM ENTERPRISES INC,BEAR CREEK LIQUOR,Liquor Store (city),,1840 EAST MAIN,Montrose,CO,81401,
PHIL'S ENTERPRISES LLC,WEST MAIN LIQUORS,Liquor Store (city), 04/24/2016,113 WEST MAIN,MONTROSE,CO,814013463,
PLATEAU ENTERPRISES LLC,BOTTLE BARN LIQUORS,Liquor Store (city), 08/01/2015,120 N TOWNSEND AVENUE,MONTROSE,CO,814013760,
POUR HOUSE LLC,POUR HOUSE WINES & SPIRITS,Liquor Store (city), 10/12/2015,10 BRISTLECONE DRIVE,Montrose,CO,814015170,
T N T LIQUORS INC,MONTROSE HOUSE OF SPIRITS,Liquor Store (city), 11/25/2015,1518 E MAIN ST,Montrose,CO,814013841,
OBERG HARRY T,COLONA COUNTRY LIQUOR STORE,Liquor Store (county), 01/11/2016,36926 HWY 550 S UN 2,Montrose,CO,81401,
EAGLE VENTURES II INC,EAGLE WINE & SPIRITS,Liquor Store (city), 08/10/2016,1060 BAPTIST RD,Monument,CO,80132,
IT'S MONUMENTAL INC,CORK'N BOTTLE,Liquor Store (city), 06/27/2016,351 HIGHWAY 105,Monument,CO,801329126,
LEXINGTON INC,MONUMENT LIQUOR MART,Liquor Store (city), 10/01/2015,15756 JACKSON CREEK PKWY,Monument,CO,801327183,
LOOP LIQUOR LLC,LOOP LIQUOR LLC,Liquor Store (city), 09/09/2015,1430 CIPRIANI LOOP,Monument,CO,80132,
YOON JUNG CORPORATION,TRI-LAKES LIQUOR,Liquor Store (city), 09/29/2015,586 HIGHWAY 105,MONUMENT,CO,801329125,
STAMP ENTERPRISES INC,WINE SELLER THE,Liquor Store (county), 06/05/2016,2805 ROBERTS DR SUITE A,Monument,CO,801327926,
BRIGGS GARRY LEE,MORRISON LIQUORS,Liquor Store (city), 01/03/2016,505 BEAR CREEK AVE,MORRISON,CO,80465,
14011 INC.,QUINCY PLAZA LIQUORS,Liquor Store (county), 05/08/2016,"14011 W QUINCY AVE, SUITE H&I",Morrison,CO,80465,
DRT INVESTMENTS LLC,FRUIT OF THE VINE SPIRITS & WINE,Liquor Store (county), 06/16/2016,19423 N TURKEY CREEK ROAD STE R,Morrison,CO,804658902,
DUNE VIEW SPIRITS LLC,DUNE VIEW SPIRITS,Liquor Store (county), 04/24/2016,5385 STATE HWY 17 N,Mosca,CO,81146,
KS CORPORATION,MOUNTAIN VIEW LIQUOR,Liquor Store (city), 10/07/2015,4305 SHERIDAN BLVD,MOUNTAIN VIEW,CO,802127334,
MOUNTAIN MIRACLE INC,TREASURY LIQUORS,Liquor Store (city), 07/19/2016,611 GOTHIC RD-GARDEN CONDO'S UNIT C & D,Mt Crested Butte,CO,81225,
CARIBOU LIQUOR INC,DAM LIQUOR STORE,Liquor Store (city), 06/11/2016,20 LAKEVIEW DR #114,NEDERLAND,CO,80466,
PEAK WINE AND SPIRITS LLC,PEAK WINE AND SPIRITS,Liquor Store (city), 11/23/2015,150 N JEFFERSON ST #B2,NEDERLAND,CO,80466,
ELMER SUDS LTD,ELMER SUDS LIQUOR MART,Liquor Store (city), 06/18/2016,820 CASTLE VALLEY BLVD 104,New Castle,CO,816479441,
K2 SPIRITS INC,SPIRITS OF NEWCASTLE,Liquor Store (city), 02/27/2016,302 W MAIN ST,NEW CASTLE,CO,81647,
LAMBERT CARY R,WILD HORSE JERRY'S,Liquor Store (city), 12/04/2015,134 HWY 14 UNIT B,New Raymer,CO,80742,
"NIWOT LIQUOR, INC",NIWOT LIQUORS,Liquor Store (county), 05/04/2016,361 2ND AVE #100,Niwot,CO,805445965,
BIG D S LIQUOR LLC,BIG D'S LIQUOR,Liquor Store (city), 10/22/2015,10651 MELODY DR #A2-A3,NORTHGLENN,CO,802344113,
CHHANG YEAN CHAO,DL DISCOUNT LIQUOR,Liquor Store (city), 03/31/2016,11423 N WASHINGTON,Northglenn,CO,802331912,
HANNAH'S DISCOUNT LIQUOR INC,HANNAH'S DISCOUNT LIQUOR,Liquor Store (city), 04/21/2016,11215 WASHINGTON ST,Northglenn,CO,80233,
HILLCREST LIQUORS & WINES INC,HILLCREST LIQUORS & WINES,Liquor Store (city), 05/13/2016,1416 W 104TH AVE,NORTHGLENN,CO,802343712,
HJS ENTERPRISES INC,LIQUOR BANK,Liquor Store (city), 04/05/2016,462 MALLEY DR,Northglenn,CO,802332059,
KHALSA INC,RANGE VIEW LIQUOR,Liquor Store (city), 11/13/2015,11350 NORTH HURON STREET,Northglenn,CO,80234,
LEGACY WEST LLC,APPLE LIQUORS,Liquor Store (city), 08/21/2015,900 W 104TH AVE,Northglenn,CO,80234,
R&M LIQUORS INC,R&M LIQUORS,Liquor Store (city), 10/06/2015,11926 WASHINGTON ST,Northglenn,CO,80233,
SR COMPANY LLC,UNITED BEVEREGES,Liquor Store (city), 10/31/2015,1750 E 112TH AVE,Northglenn,CO,80233,
SRK CORPORATION,NORTHGLENN DISCOUNT LIQUOR,Liquor Store (city), 06/11/2016,420 EAST 120TH AVE #B-3,Northglenn,CO,802331127,
N W D LLC,NORWOOD LIQUOR,Liquor Store (city), 04/01/2016,1505 GRAND AVE,NORWOOD,CO,81423,
ROUDEBUSH JOANNE M,ROUDEBUSH'S LOCAL LIQUOR INC,Liquor Store (city), 06/10/2016,1565 GRAND AVENUE,NORWOOD,CO,81423,
NUCLA LIQUORS INC,NUCLA LIQUOR STORE,Liquor Store (city), 06/28/2015,485 MAIN ST,Nucla,CO,81424,
GINPAX INC,SPIRO'S LIQUOR,Liquor Store (city), 06/29/2016,109 W MAIN ST,OAK CREEK,CO,804679990,
MIDDLETON BETTE JEAN,JUG LIQUOR STORE,Liquor Store (city), 01/11/2016,323 MAIN ST,Olathe,CO,81425,
R&B KOYOTE LIQUORS INC,KOYOTE LIQUORS,Liquor Store (city), 10/30/2015,202 N HWY 50 BUS LOOP,Olathe,CO,81425,
LIQUOR CUBBY THE LLC,LIQUOR CUBBY THE,Liquor Store (city), 01/27/2016,207 MAIN ST,Ordway,CO,81063,
LIQUOR STATION INC THE,LIQUOR STATION THE,Liquor Store (county), 01/20/2016,6989 HWY 71,ORDWAY,CO,81063,
OURAY LIQUORS LLC,OURAY LIQUORS LLC,Liquor Store (city), 10/24/2015,738 MAIN ST,Ouray,CO,81427,
DACH MARILYN K,SILVER DOLLAR LIQUORSTORE,Liquor Store (city), 04/30/2016,U S HWY 160,Pagosa Springs,CO,811479001,
MOUNTAIN SPIRITS INC,MOUNTAIN SPIRITS,Liquor Store (city), 12/07/2015,135 COUNTRY CENTER STE B-1,Pagosa Springs,CO,811478351,
SHABRI LLC,PLAZA LIQUOR,Liquor Store (city), 08/03/2016,511 SAN JUAN ST A,Pagosa Springs,CO,81147,
OLD WEST SPIRITS INC,OLD WEST SPIRITS,Liquor Store (county), 12/07/2015,40 PIEDRA RD,PAGOSA SPRINGS,CO,811479472,
OLSEN DAVID C,TURKEY SPRINGS TRADING POST,Liquor Store (county), 07/11/2016,11497 W HWY 160,PAGOSA SPRINGS,CO,811479611,
PAGOSA LIQUOR INC,PAGOSA LIQUOR,Liquor Store (county), 04/29/2016,30 B NORTH PAGOSA BLVD,PAGOSA SPRINGS,CO,81147,
COLUMBINE LIQUORS INC,COLUMBINE LIQUORS,Liquor Store (city), 04/26/2016,210 W 3RD ST,Palisade,CO,81526,
PEACHWOOD LLC,PEACHWOOD LIQUOR,Liquor Store (city), 12/26/2015,309 W 8TH ST UNIT #2,Palisade,CO,815268671,
COON DARMI,PALMER LAKE COUNTRY MARKET,Liquor Store (city), 09/04/2015,56 A HWY 105,Palmer Lake,CO,80133,
ONE THIRTY-THREE LLC,WEST ELK WINE & SPIRITS,Liquor Store (city), 06/09/2016,427 SAMUEL WADE RD,PAONIA,CO,814286127,
PAONIA LIQUORS INC,PAONIA LIQUORS,Liquor Store (city), 06/08/2016,4 THIRD STREET,Paonia,CO,81428,
SOMMERS LLC,ON THE ROCKS,Liquor Store (county), 03/16/2016,40823 HWY 133,PAONIA,CO,814286120,
ANTLER LIQUORS INC,ANTLER LIQUOR INC,Liquor Store (city), 03/29/2016,393 E 2ND ST UNIT 2,PARACHUTE,CO,81635,
BOTTLECAP LIQUORS LLC,BOTTLECAP LIQUORS,Liquor Store (city), 09/25/2015,150 COLUMBINE CT SUITE A,Parachute,CO,816359750,
BRUIN SPIRITS INC,BRUIN SPIRITS,Liquor Store (city), 11/11/2015,"11177 S DRANSFELDT RD, STE 139",Parker,CO,80134,
GUPTA HOLDINGS LLC,FIZZ LIQUORS,Liquor Store (city), 01/12/2016,11021 S PARKER RD,PARKER,CO,801347441,
HILLTOP LIQUOR LLC,HILLTOP LIQUORS,Liquor Store (city), 03/26/2016,19878 E HILLTOP RD #109,Parker,CO,801347318,
JANG SOO DUK,CHOKECHERRY LIQUORS,Liquor Store (city), 09/30/2015,10471 S PARKER RD #A 4,Parker,CO,801349084,
JULIE MORTON ENTERPRISES INC,JORDAN WINE & SPIRIT,Liquor Store (city), 02/01/2016,17021 LINCOLN AVE #G,Parker,CO,801343146,
L A C D INC,COTTONWOOD WINE & SPIRITS LTD,Liquor Store (city), 04/19/2016,17914 COTTONWOOD DRIVE,Parker,CO,801343939,
MAINSTREET LIQUOR LLC,MAINSTREET LIQUOR,Liquor Store (city), 05/21/2016,10970 S PARKER RD UNIT A-6-8,Parker,CO,80134,
PARKER LIQUOR COMPANY INC,COSTCO LIQUORS AT PARKER,Liquor Store (city), 04/23/2016,18410 COTTONWOOD DR,Parker,CO,80138,
PARKER SPIRITS & WINE INC,PARKER PAYLESS LIQUORS,Liquor Store (city), 09/01/2015,9749 S PARKER ROAD,Parker,CO,801348813,
S & A LIQUOR INC,PINE LANE DISCOUNT LIQUORS,Liquor Store (city), 09/24/2015,12543 HWY 83 #200,Parker,CO,80134,
STROH RANCH LIQUORS INC,STROH RANCH LIQUORS,Liquor Store (city), 10/08/2015,12939 S PARKER RD,Parker,CO,80134,
TOMMYLONG INC,STONEGATE WINE & SPIRITS,Liquor Store (city), 08/11/2015,16522 KEYSTONE BLVD #D,Parker,CO,80134,
WILD YANKEE ENTERPRISES LLC,WILD YANKEE LIQUOR,Liquor Store (city), 05/17/2016,17002 MAINSTREET UNIT D,Parker,CO,80134,
SINGING HILLS LIQUOR LLC,SINGING HILLS LIQUOR,Liquor Store (county), 10/15/2015,475 SINGING HILLS ROAD UNIT A,Parker,CO,80138,
MEICK PAM,D&J PACKAGE,Liquor Store (city), 06/10/2016,620 MAIN,Peetz,CO,80747,
CAT'S CORNER LLC,CAT'S CORNER,Liquor Store (county), 08/24/2015,411 BROADWAY,Penrose,CO,812409040,
KWIK STOP LIQUOR LLC,APPLE VALLEY LIQUOR,Liquor Store (county), 05/08/2016,930 HWY 115,Penrose,CO,81240,
MAGGIE'S GENERAL STORE LLC,STAGECOACH WINE AND LIQUOR,Liquor Store (county), 04/23/2016,18880 US HWY 24,Peyton,CO,80831,
PLAINS MARKET & LIQUOR INC,PLAINS MARKET & LIQUOR,Liquor Store (city), 12/14/2015,139 W MAIN ST,Pierce,CO,80650,
ALPINE LIQUORS INC,ALPINE LIQUORS,Liquor Store (county), 08/04/2016,34355 HWY 285,Pine,CO,80470,
L & C INC,LONG'S LIQUOR STORE,Liquor Store (county), 08/18/2016,67348 HWY 285 UNIT B,Pine,CO,80470,
MEG'S ELK CREEK SPIRITS LLC,MEGS ELK CREEK SPIRITS,Liquor Store (county), 04/01/2016,316 MOUNT EVANS BLVD UNIT 1,PINE,CO,804707956,
MCCLUER CYNTHIA L,M&M MERCANTILE,Liquor Store (county), 03/04/2016,240 FRONT ST,Placerville,CO,81430,
ALL LIQUORS INC,PLATTEVILLE LIQUORS,Liquor Store (city), 08/20/2015,306 GRAND AVE,Platteville,CO,80651,
COLORADO'S OWN LIQUOR LLC,COLORADO'S OWN,Liquor Store (county), 02/07/2016,26070 HWY 491,Pleasant View,CO,81331,
MOOKIE INC,4 ALARM LIQUORS,Liquor Store (city), 12/25/2015,10017 W HWY 50,Poncha Springs,CO,81242,
BIG BEAR WINE & LIQUOR INC,BIG BEAR WINE & LIQUOR,Liquor Store (city), 11/20/2015,2037 S PUEBLO BLVD,PUEBLO,CO,810052577,
BOLSA INVESTMENTS INC,PRAIRIE LIQUORS,Liquor Store (city), 01/31/2016,1659 S PRAIRIE AVE,PUEBLO,CO,810052310,
CHO CHA LLC,SHANTY LIQUORS,Liquor Store (city), 11/18/2015,2212 E 4TH ST,Pueblo,CO,810014241,
CJEM LLC,80/TWENTY WINES,Liquor Store (city), 11/23/2015,415 N GREENWOOD STE C,PUEBLO,CO,810033172,
EASTSIDE WINE & LIQUOR INC,EASTSIDE WINE & LIQUOR INC,Liquor Store (city), 04/14/2016,723 E 4TH ST,PUEBLO,CO,810013926,
GAUNA PAUL GAUNA CHARLENE,GAUNA'S WEST SIDE LIQUOR,Liquor Store (city), 03/09/2016,2201 W 16TH,PUEBLO,CO,810031135,
HANARI INC,PUEBLO LIQUOR,Liquor Store (city), 07/22/2015,1210 S PRAIRIE AVE,PUEBLO,CO,810052060,
HANCOR INVESTMENTS INC,J.R.'S LIQUOR,Liquor Store (city), 12/02/2015,721 N GRAND AVE,PUEBLO,CO,810033011,
HERCULES ENTERPRISES  INC,HERCULES LIQUOR,Liquor Store (city), 01/01/2016,112 BROADWAY,Pueblo,CO,810044203,
HMC LLC,POWDER KEG LIQUORS,Liquor Store (city), 02/25/2016,2001 E EVANS AVE,PUEBLO,CO,810043737,
IN FAMILY ENTERPRISE LLC,PUEBLO BLVD DISCOUNT LIQUOR,Liquor Store (city), 09/20/2015,1616 W PUEBLO BLVD,Pueblo,CO,810043868,
JAMES MICHAEL RICCARDI,MESA JUNCTION WINE & SPIRITS,Liquor Store (city), 12/08/2015,105 COLORADO BLVD,Pueblo,CO,81004,
JUN'S INC,NORWOOD DISCOUNT LIQUORS,Liquor Store (city), 05/05/2016,2103 N NORWOOD,Pueblo,CO,810012136,
K & D ENTERPRISES  INC,TROY VILLAGE LIQUOR,Liquor Store (city), 12/22/2015,1732 CONSTITUTION,Pueblo,CO,810012202,
KUM & GO LIQUOR LLC,BARREL BROTHERS LIQUOR,Liquor Store (city), 02/22/2016,2815 W PUEBLO BLVD,Pueblo,CO,810053182,
KWON'S LIQUOR INC,LANG'S LIQUOR,Liquor Store (city), 08/22/2016,2143 JERRY MURPHY RD,PUEBLO,CO,810011262,
"LAKE PUEBLO LIQUORS, LLC",LAKE PUEBLO LIQUORS,Liquor Store (city), 05/05/2016,4315 THATCHER AVENUE,Pueblo,CO,81005,
LAST STOP LIQUOR INC,LAST STOP LIQUOR,Liquor Store (city), 03/02/2016,609 W 29TH ST,Pueblo,CO,810081115,
LOCO LIQUORS INC,LOCO WINES & LIQUORS,Liquor Store (city), 11/17/2015,125 S SANTA FE,PUEBLO,CO,810034218,
M & M MIDTOWN LIQUOR LLC,M & M MIDTOWN LIQUOR,Liquor Store (city), 09/17/2015,905 W 4TH ST,Pueblo,CO,81003,
MARLIN ASSOCIATES LLC,COCO-MAN'S LIQUOR,Liquor Store (city), 11/15/2015,1908-1910 E 4TH ST,Pueblo,CO,810014149,
NAVA EZEQUIEL,ZEKES LAKE AVENUE LIQUOR,Liquor Store (city), 07/16/2016,2601 LAKE AVE,Pueblo,CO,810043826,
NICKS GOOD TIME LIQUOR INC,NICKS GOOD TIME LIQUOR,Liquor Store (city), 07/09/2016,3637 BALTIMORE AVENUE,Pueblo,CO,81008,
NORTH PUEBLO LIQUOR MART LLC,NORTH PUEBLO LIQUOR MART,Liquor Store (city), 06/21/2015,412 EAGLERIDGE BLVD,PUEBLO,CO,810082100,
NORTHERN AVENUE LIQUORS INC,NORTHERN AVENUE LIQUORS INC,Liquor Store (city), 02/13/2016,213 W NORTHERN AVE,Pueblo,CO,810043107,
OSCAR'S LIQUOR LANE LLC,OSCAR'S LIQUOR,Liquor Store (city), 06/23/2016,838 S PRAIRIE AVE,Pueblo,CO,810051779,
REGENCY LIQUOR INC,REGENCY LIQUOR,Liquor Store (city), 06/26/2016,25 RED CREEK SPRINGS RD,PUEBLO,CO,810051804,
SL PUEBLO LLC,EAGLE LIQUORS,Liquor Store (city), 02/10/2016,1020 EAGLERIDGE BLVD,Pueblo,CO,810082130,
SPANKY'S WINE & LIQUOR LLC,SPANKY'S LIQUOR WORLD,Liquor Store (city), 11/20/2015,1415 HWY 50 W,Pueblo,CO,81008,
THKIMS INC,BONNY HY-LAND LIQUOR,Liquor Store (city), 03/06/2016,1114 BONFORTE BLVD,Pueblo,CO,810011805,
TITO FLAMES INC,FLAME LIQUORS,Liquor Store (city), 09/17/2015,2225 LAKE AVENUE,Pueblo,CO,810043818,
VILLAGE WINE & SPIRITS INC,VILLAGE WINE & SPIRITS,Liquor Store (city), 05/23/2016,3037 N ELIZABETH ST,Pueblo,CO,810081137,
VINTAGE WINE & LIQUORS  INC,DOUBLE BARREL WINE  & LIQUOR,Liquor Store (city), 12/02/2015,1765 S PUEBLO BLVD,Pueblo,CO,810052103,
BEE/MAC INVESTMENTS LLC,BAXTER LIQUOR,Liquor Store (county), 05/16/2016,31298 EAST HWY 96,PUEBLO,CO,81006,
D & T VINELAND LIQUOR LLC,VINELAND LIQUOR,Liquor Store (county), 04/24/2016,34158 HWY 50 E,Pueblo,CO,81006,
D J L AND SONS LLC,ASPEN SQUARE WINES & LIQUORS,Liquor Store (county), 07/16/2015,1712 SANTA FE DR,Pueblo,CO,810061448,
INDIAN SPRINGS LIQUOR MART LLC,INDIAN SPRINGS LIQUOR MART,Liquor Store (county), 03/13/2016,24920 E HWY 50,Pueblo,CO,810061449,
BRYANNACO INC,PUEBLO WEST CHEERS,Liquor Store (county), 03/31/2016,316 S MCCULLOCH BLVD,Pueblo West,CO,810072890,
ED KEE INC,WAREHOUSE LIQUOR MART OF P-WEST,Liquor Store (county), 09/14/2015,74 N MCCULLOCH BLVD #E,Pueblo West,CO,810074444,
LENG JASON M,PURCELL BLVD LIQUOR,Liquor Store (county), 12/21/2015,198 PURCELL BLVD SUITE 170,Pueblo West,CO,81007,
P WEST WINE & SPIRITS INC,P WEST WINE & SPIRITS INC,Liquor Store (county), 05/31/2016,1021 N MARKET PLZA 104,PUEBLO WEST,CO,810071531,
PUEBLO WEST LIQUORS INC,DRIVE UP LIQUORS,Liquor Store (county), 08/17/2015,271 S JOE MARTINEZ,Pueblo West,CO,810072741,
PINYON TREE LIQUORS INC,PINYON TREE LIQUORS,Liquor Store (city), 09/25/2016,321 MAIN ST SPACE 3&4,Rangely,CO,816482710,
WILLIS RANGELY ENTERPRISES LLC,RANGELY LIQUOR STORE,Liquor Store (city), 03/29/2016,719 E MAIN ST,Rangely,CO,81648,
RED CLIFF LIQUORS LLC,CLIFF LIQUORS,Liquor Store (city), 02/04/2016,104 WATER ST,Red Cliff,CO,816499900,
MORIN & MORIN INC,SUNDANCE TRAIL GUEST RANCH,Liquor Store (county), 05/16/2016,17931 RED FEATHER LAKES RD,Red Feather Lakes,CO,80545,
RED FEATHER SUPER CORP,WESTLAKE LIQUOR,Liquor Store (county), 05/15/2016,137 COUNTY LAKE ROAD,RED FEATHER LAKES,CO,80545,
STOLTZ DELBERT,HILL TOP GENERAL STORE,Liquor Store (county), 02/18/2016,99 HIAWATHA RD,Red Feather Lakes,CO,80545,
TRADING POST LTD,THE RED FEATHER TRADING POST,Liquor Store (county), 06/08/2016,41 MAIN STREET,Red Feather Lakes,CO,80545,
FABIAN DAVID,MOTHERLODE LIQUOR,Liquor Store (city), 12/02/2015,5 N GLASGOW,RICO,CO,81332,
GMT ENT LLC,MOUNTAIN TOP LIQUOR,Liquor Store (city), 05/13/2016,235 SOUTH GLASGOW AVENUE,Rico,CO,81332,
CHAMBERLAIN KIMBERLY J,RIDGWAY LIQUORS,Liquor Store (city), 02/12/2016,580 SHERMAN ST,Ridgway,CO,81432,
DOUDT GREGORY M,SAN JUAN LIQUORS,Liquor Store (city), 02/06/2016,177 SHERMAN ST UNIT 105,RIDGWAY,CO,814329441,
VANDEN BRANDEN KAREN VANDEN BRANDEN MARK,HIGH SPIRITS,Liquor Store (city), 09/22/2015,141 US HWY 550,Ridgway,CO,81432,
BOX I INC,JONS LIQUORS,Liquor Store (city), 12/01/2015,401 W SECOND ST,RIFLE,CO,816502803,
GMT INVESTMENTS LLC,BLACK BEAR LIQUORS,Liquor Store (city), 09/15/2015,1250 RAILROAD AVENUE,Rifle,CO,81650,
PLAZA LIQUORS LLC,PLAZA LIQUORS,Liquor Store (city), 08/20/2016,2000 RAILROAD AVE,RIFLE,CO,816503208,
ROCKY MOUNTAINLIQUORS INC,ROCKY MOUNTAIN LIQUORS,Liquor Store (city), 08/24/2015,1735 RAILROAD AVE,RIFLE,CO,816503333,
TEDREX INC,CHOICE LIQUORS,Liquor Store (city), 07/20/2016,680 WAPITI CT,RIFLE,CO,81650,
BB'S LIQUOR LLC,BB'S LIQUOR,Liquor Store (city), 03/16/2016,220 ELM AVE,Rocky Ford,CO,81067,
CORK BROTHERS INC,CORK BROTHERS LIQUOR,Liquor Store (city), 02/19/2016,1200 ELM AVENUE,Rocky Ford,CO,810671822,
ESPINOZA PROPERTIES LLC,ROMEO LIQUORS,Liquor Store (city), 06/04/2016,103 MAIN STREET,Romeo,CO,81148,
HAZARD ERNIE DHAZARD KAREN K,MOUNTAIN LIQUOR,Liquor Store (city), 11/11/2015,638 GUNNISON AVE,SAGUACHE,CO,81149,
CAHILL PROPERTIES INC,HIGH'S LIQUOR,Liquor Store (city), 01/21/2016,1435 E RAINBOW BLVD,Salida,CO,812013203,
HIXON INC,ARLIE DALE'S JUG LIQUORS,Liquor Store (city), 12/29/2015,220 F STREET,Salida,CO,812012104,
KARLI 20 LLC,CELLAR WINE & SPIRITS,Liquor Store (city), 07/27/2015,7555 W HWY 50  UNIT A,Salida,CO,812019583,
ROXYS BOTTLE SHOP INC,ROXY'S BOTTLE SHOP,Liquor Store (city), 10/06/2015,102 E RAINBOW BLVD,SALIDA,CO,812012518,
SEAN & MARCY PUMMILL LLC,PARTY SPIRITS,Liquor Store (city), 10/17/2015,348 W 1ST ST,SALIDA,CO,812011602,
MEDINA LEROY A MEDINA LORRAINE C,MEDINA'S LIQUOR,Liquor Store (city), 01/07/2016,359 MAIN ST,San Luis,CO,81152,
PADILLA AUGUSTIN,GUS'S LIQUOR,Liquor Store (city), 12/31/2015,LOT 11 BLK 2,San Luis,CO,81152,
TRUJILLO MARY HELEN,GARCIA DRIVE THRU LIQUOR STORE,Liquor Store (county), 01/23/2016,132 COUNTY RD 13.2,San Luis,CO,81152,
RAEL JOSEPHINEVIGIL DORICE,LA VALLEY LIQUOR,Liquor Store (county), 09/04/2015,SW 1/2 NE 1/4 SC34T2R,SAN PABLO,CO,81153,
BUCKNELL VENTURES II LLC,SAWPIT LIQUOR,Liquor Store (city), 09/11/2016,20643 HIGHWAY 145,SAWPIT,CO,81430,
SECURITY DISCOUNT LIQUORS LLC,SECURITY DISCOUNT LIQUORS,Liquor Store (county), 08/11/2016,314 MAIN ST,Security,CO,809111713,
BAINS INDER S,SEDALIA LIQUOR,Liquor Store (county), 12/10/2015,5587 HWY 85,Sedalia,CO,80135,
RD'S LLC,RD'S LLC,Liquor Store (city), 08/28/2016,127 MAIN ST,SEDGWICK,CO,807499433,
RINGO PATTI L,PATTIS LIQUOR,Liquor Store (county), 12/31/2015,LOT 1 BLK 3&4,Segundo,CO,81070,
ROCKIN B LIQUOR LLC,ROCKIN B LIQUOR LLC,Liquor Store (city), 04/01/2016,300 CHICAGO AVE,SEIBERT,CO,80834,
SCOTCH PINE LIQUOR INC,SCOTCH PINE LIQUOR,Liquor Store (city), 02/08/2016,385 W 4TH AVE UNIT A,SEVERANCE,CO,80546,
DANNYS LIQUORS LTD,SOUTH FEDERAL DISCOUNT LIQUORS,Liquor Store (city), 10/31/2015,3378 S FEDERAL BLVD,Sheridan,CO,801101947,
FRIENDSHIP LIQUOR LLC,BRONCOS LIQUOR,Liquor Store (city), 12/01/2015,4390 S FEDERAL BLVD,Sheridan,CO,80110,
JAY TEE ENTERPRISES LLC,HAMPDEN WAREHOUSE LIQUORMART,Liquor Store (city), 04/17/2016,3371 W HAMPDEN AVE,Sheridan,CO,80110,
SHERIDAN LIQUORS INC,HB LIQUORS,Liquor Store (city), 04/21/2016,4020 RIVER POINT PARKWAY,SHERIDAN,CO,80110,
TEKLEHAYMANOT DEMISSIE S,MARY A'S LIQUOR,Liquor Store (city), 10/27/2015,2496 W HAMPDEN AVE,Sheridan,CO,801101902,
COLUMBINE LIQUOR INC,COLUMBINE LIQUOR INC,Liquor Store (city), 07/22/2016,840 MAIN ST,SILT,CO,81652,
JGRJ ENTERPRISES INCORPORATED,SILT DISCOUNT LIQUOR,Liquor Store (city), 07/16/2016,710 MAIN STREET UNIT 101,Silt,CO,816528634,
SQUIRE RICHARD F,LIQUOR CABINET THE,Liquor Store (city), 04/14/2016,100 E MAIN ST,SILVER CLIFF,CO,812529527,
DANCORP INC,PORKY'S LIQUOR,Liquor Store (city), 12/17/2015,293 SUMMIT PL,Silverthorne,CO,80498,
LOCALS LIQUORS LLC,LOCAL LIQUORS,Liquor Store (city), 10/26/2015,358 BLUE RIVER PKWY UNIT H,Silverthorne,CO,80498,
SILVERTHORNE DISCOUNT LIQUORS LLC,PLAIN JANE LIQUORS,Liquor Store (city), 12/17/2015,191 BLUE RIVER PARKWAY,Silverthorne,CO,80498,
WILDERNEST LIQUORS LLC,WILDERNEST LIQUORS,Liquor Store (county), 04/02/2016,11 FAWN CT,Silverthorne,CO,80498,
PERINO ROY RPERINO EVELYN J,SILVERTON LIQUORS,Liquor Store (city), 12/05/2015,857 GREENE ST,Silverton,CO,81433,
BACKROADS LIQUOR LLC,BACKROADS LIQUOR,Liquor Store (city), 08/04/2015,229 SIOUX AVE,Simla,CO,80835,
SNOWMASS RANCH LIQUORS LLC,SNOWMASS RANCH LIQUORS,Liquor Store (county), 07/29/2015,26808 HWY 82,Snowmass,CO,81654,
SUNDANCE DRUG CORP,SUNDANCE,Liquor Store (city), 04/11/2016,"0016 KEARNS RD STE101,104,115/116c",Snowmass Village,CO,816159999,
VILLAGE LIQUORS OF SNOWMASS INC,DALY BOTTLE SHOP,Liquor Store (city), 09/10/2015,"SNOWMASS MALL, SUITE 215",Snowmass Village,CO,81615,
DARROW SUMNER C & DARROW BEVERLY J,WOLF CREEK LIQUORS,Liquor Store (city), 10/21/2015,0098 HYW 149,SOUTH FORK,CO,81154,
SOUTH FORK LIQUOR LLC,SOUTH FORK LIQUOR LLC,Liquor Store (city), 05/12/2016,30483 W HWY 160,South Fork,CO,81154,
COOK THOMAS J,CITY LIQUOR,Liquor Store (city), 05/02/2016,708 MAIN ST,SPRINGFIELD,CO,810731543,
WADE CECIL A,POPS LIQUOR,Liquor Store (city), 05/09/2016,1236 MAIN ST,SPRINGFIELD,CO,810731831,
7TH STREET LIQUOR,7TH STREET LIQUOR,Liquor Store (city), 12/10/2015,644 LINCOLN AVE,Steamboat Springs,CO,804878901,
BASE MOUNTAIN LIQUORS LLC,SKI TOWN WINE & SPIRITS,Liquor Store (city), 09/09/2015,2300 MT WERNER CIR C-8B,STEAMBOAT SPRINGS,CO,804879027,
BLUE SKY LIQUORS INC,SOUTH SIDE LIQUORS,Liquor Store (city), 08/30/2015,905 WEISS DRIVE,STEAMBOAT SPRINGS,CO,804889315,
D + B SPIRITS INC,ARCTIC LIQUORS,Liquor Store (city), 08/04/2015,2093 CURVE PLAZA C-1O4,Steamboat Springs,CO,804874986,
FIFTY 5 DEGREES OF STEAMBOAT LLC,FIFTY 5 DEGREES OF STEAMBOAT LLC,Liquor Store (city), 12/08/2015,2522 COPPERRIDGE DR BI,Steamboat Springs,CO,804879496,
FISH CREEK STORES INC,SKI HAUS LIQUORS,Liquor Store (city), 11/03/2015,1450 S LINCOLN AVE,Steamboat Springs,CO,804875024,
SBS VILLAGE LIQUORS LLC,WILDPLUM,Liquor Store (city), 02/20/2016,2525 VILLAGE DR # 1A,Steamboat Springs,CO,80487,
STEAMBOAT DISCOUNT LIQUORS INC,STEAMBOAT DISCOUNT LIQUORS,Liquor Store (city), 03/24/2016,500 S LINCOLN AVE,STEAMBOAT SPRINGS,CO,80487,
STETPRO INVESTMENTS INC,CENTRAL PARK LIQUOR INC,Liquor Store (city), 11/29/2015,1835 CENTRAL PARK DR,STEAMBOAT SPRINGS,CO,80487,
WEST END LIQUOR INC,WEST END LIQUOR INC,Liquor Store (city), 08/03/2015,2432 LINCOLN AVE,STEAMBOAT SPRINGS,CO,804884983,
COBERLY CRAIG E COBERLY LINDA,MAJOR LIQUORS,Liquor Store (city), 11/18/2015,529 IRIS DR,Sterling,CO,807514655,
DISCOUNT LIQUORS LLC,DISCOUNT LIQUORS,Liquor Store (city), 03/24/2016,1000 W MAIN,Sterling,CO,807512829,
G & K LLC,ELM STREET LIQUOR,Liquor Store (city), 09/21/2015,201 ELM ST,STERLING,CO,807513209,
HAROLD'S LIQUOR LLC,HAROLD'S LIQUOR,Liquor Store (city), 12/27/2015,336 E CHESTNUT ST,Sterling,CO,807514364,
NICKS THIRD AVE LIQUOR INC,NICK'S THIRD AVE LIQUOR INC,Liquor Store (city), 04/15/2016,115 S 3RD AV,Sterling,CO,807513615,
S.U.D.ENTERPRISES LLC,BROADWAY WINE & SPIRITS,Liquor Store (city), 01/08/2016,207 BROADWAY ST,Sterling,CO,80751,
DALTON ENTERPRISES INC,D'S LIQUOR STORE,Liquor Store (county), 11/23/2015,56720 COLFAX,Strasburg,CO,801369412,
STAY THIRSTY LLC,LIBATION STATION,Liquor Store (city), 05/14/2016,113 COLORADO AVE,Stratton,CO,80836,
ROCK CREEK WINE & SPIRITS DL INC.,ROCKCREEK WINE & SPIRITS,Liquor Store (city), 09/03/2015,1611 COALTON RD,Superior,CO,800274610,
SUPERIOR LIQUOR MARKET LLC,SUPERIOR LIQUOR MARKET,Liquor Store (city), 05/25/2016,100 SUPERIOR PLAZA WAY,SUPERIOR,CO,800279736,
COYOTE ENTERPRISES OF GRAND COUNTY LLC,SNOOTY COYOTE LIQUORS,Liquor Store (county), 07/01/2016,72215 US HWY 40,Tabernash,CO,80478,
C2TELLURIDE LLC,WINE MINE AT PACIFIC STREET LIQUORS,Liquor Store (city), 10/27/2015,220 S DAVIS,Telluride,CO,81435,
LATIMER LIQUORS LLC,TELLURIDE LIQUORS,Liquor Store (city), 01/24/2016,123 E COLORADO AVE,Telluride,CO,81435,
SPIRITS AT MOUNTAIN VILLAGE LLC,SPIRITS AT MOUNTAIN VILLAGE,Liquor Store (city), 08/08/2016,455 MTN VILLAGE BLVD STE B,Telluride,CO,814359415,
TELLURIDE BOTTLE WORKS LLC,TELLURIDE BOTTLE WORKS,Liquor Store (city), 06/18/2016,129 W SAN JUAN,Telluride,CO,81435,
AMERICAN LIQUOR MART INC,AMERICAN LIQUOR MART,Liquor Store (city), 11/16/2015,160 WEST 84TH AVE,Thornton,CO,80260,
BELLA VITA INC,WAREHOUSE LIQUORS,Liquor Store (city), 08/16/2015,9601 GRANT ST,Thornton,CO,802292155,
"BOOZE BARN, LLC",BOOZE BARN LLC,Liquor Store (city), 07/31/2016,12720 N COLORADO BLVD #B,Thornton,CO,802412802,
CA LLC,LARKSPUR LIQUOR,Liquor Store (city), 01/21/2016,10372 COLORADO BLVD,Thornton,CO,80229,
DAVECO LIQUORS CORP,DAVECO LIQUORS,Liquor Store (city), 08/01/2015,16434 WASHINGTON ST,Thornton,CO,800238906,
GLEENLAND INC.,STAR LIQUORS,Liquor Store (city), 11/06/2015,624 RUSSELL BLVD,Thornton,CO,80229,
HAZEMO LLC,RANCH LIQUOR,Liquor Store (city), 01/14/2016,3724 & 3726 EAST 120 AVENUE,Thornton,CO,80233,
HI-TIME SPIRITS INC,HI-TIME WINE & SPIRITS,Liquor Store (city), 05/14/2016,2300 EAST 120 AVENUE UNIT 105,Thornton,CO,80233,
HUB LIQUORS LLC,HILLTOP LIQUORS,Liquor Store (city), 02/23/2016,9217 HURON ST,Thornton,CO,802605495,
J AND G LLC,JJ'S WINE & SPIRITS,Liquor Store (city), 10/02/2015,3857 E 120TH AVE,Thornton,CO,80233,
KH&H-COLORADO INC,KH&H LIQUORS,Liquor Store (city), 10/18/2015,16371 WASHINGTON STREET,Thornton,CO,80229,
KIRAN-JOSH INC,OLD COUNTRY LIQUOR,Liquor Store (city), 03/14/2016,875  THORNTON PKWY,Thornton,CO,80229,
LONG FONG INC,WOODGLEN LIQUORS,Liquor Store (city), 09/06/2015,3901 E 112TH AVE,Thornton,CO,802332566,
MKC INC,COLORADO MARKET PLACE LIQUORS,Liquor Store (city), 09/17/2015,3762 E 104TH AVE,Thornton,CO,802334434,
MOON LIQUOR ENTERPRISES INC,MOON'S LIQUOR,Liquor Store (city), 05/07/2016,9170 HURON ST,Thornton,CO,802296843,
PRABHATCHAD INC,LIQUOR MART,Liquor Store (city), 09/07/2015,285 E 88TH AVE,Thornton,CO,802294406,
PRO LIQUOR ENTERPRISE INC,BOSS LIQUOR,Liquor Store (city), 02/17/2016,5781 E 128TH AVE,Thornton,CO,80602,
R & N LIQUORS INC,R&N LIQUOR,Liquor Store (city), 12/16/2015,1550 W 88TH AVE,THORNTON,CO,802604381,
ROCKIES LIQUORS LLC,ROCKIES LIQUORS,Liquor Store (city), 08/25/2016,8600 WASHINGTON ST,Thornton,CO,80229,
RS22 CORPORATION,80000 LIQUORS,Liquor Store (city), 01/21/2016,2683 E 120TH AVE UNIT B1,Thornton,CO,80233,
TOP OF HILL GROCERY INC,MR CC LIQUOR,Liquor Store (city), 07/15/2015,1680 W 100TH AVE,Thornton,CO,802605901,
VALLEY LIQUOR INC,VALLEY LIQUOR,Liquor Store (city), 12/15/2015,8807 HURON ST,Thornton,CO,802606804,
B&G LLC,B&G LIQUOR,Liquor Store (county), 04/30/2016,7786-7790 WASHINGTON ST,Thornton,CO,80229,
DSG CORPORATION,TOGETHER LIQUORS,Liquor Store (county), 04/19/2016,8796 CORONA ST,Thornton,CO,80229,
KAUR KULWANT,NORTH VALLEY LIQUORS,Liquor Store (county), 04/15/2016,750 E 83RD DR UNIT D,THORNTON,CO,802295478,
M&A LLC,CORONADO LIQUORS,Liquor Store (county), 08/13/2015,1991 CORONADO PARKWAY N,Thornton,CO,80229,
SUNSET WINE AND SPIRITS INC,COSTCO LIQUORS AT TIMNATH,Liquor Store (city), 08/08/2015,4705 WEITZEL ST STE A,Timnath,CO,80547,
GEHL ENTERPRISES LLC,TOPONAS COUNTRY LIQUORS,Liquor Store (county), 09/29/2015,10000 HWY 131 UNIT B,TOPONAS,CO,804799719,
BARRON ANDERSON L T,MOUNTAIN LIQUOR & GENERAL STORE,Liquor Store (city), 02/24/2016,1144 ROBINSON AVE,Trinidad,CO,810822837,
EL PASO LIQUOR INC,EL PASO LIQUOR,Liquor Store (city), 01/22/2016,1508 ATCHISON,Trinidad,CO,81082,
LOPEZ LUIS A II,SANTA FE TRAIL HOPS & VINES,Liquor Store (city), 03/02/2016,1530 SANTA FE TRAIL DR,TRINIDAD,CO,810823602,
OPERA HOUSE WINE & SPIRITS LLC,TIRE SHOP WINE & SPIRITS,Liquor Store (city), 07/13/2016,601 W MAIN ST,Trinidad,CO,810822627,
ROBINSON LIQUOR LLC,ARIZONA LIQUOR STORE,Liquor Store (city), 06/21/2015,847 ARIZONA AVE,Trinidad,CO,810822115,
TRINIDAD BEER LIQUOR & WINE DEPOT LLC,TRINIDAD BEER LIQUOR & WINE DEPOT,Liquor Store (city), 08/29/2015,111 E KANSAS AVE,Trinidad,CO,81082,
TRINIDAD PLAZA LIQUORS INC,MAIN STREET LIQUORS,Liquor Store (city), 12/08/2015,803 MAIN STREET EAST,TRINIDAD,CO,810822722,
FATUR JOHN J,LUDLOW VALLEY LIQUOR,Liquor Store (county), 12/31/2015,SEC 21 R 31 TWP 64,Trinidad,CO,81082,
HI COUNTRY LIQUOR LLC,HI COUNTRY LIQUOR LLC,Liquor Store (county), 09/13/2015,24638 HWY 12,Trinidad,CO,81082,
ROMERO MARY Y,ROMEROS LIQUORS,Liquor Store (county), 10/18/2015,1804 N LINDEN,Trinidad,CO,810821235,
"TWIN LAKES GENERAL STORE, LLC","TWIN LAKES GENERAL STORE, LLC",Liquor Store (county), 07/02/2016,6451 COLORADO HWY 82,Twin Lakes,CO,81251,
B J MCFADDEN & CO,LIONSHEAD LIQUOR STORE,Liquor Store (city), 09/01/2015,641 W LIONSHEAD CIR,Vail,CO,816575217,
C&H SPIRIT SOLUTIONS LLC,MARKET PLACE ON MEADOW DRIVE,Liquor Store (city), 05/14/2013,ONE WILLOW BRIDGE RD,VAIL,CO,816575303,
GORE VALLEY ENTERPRISES INC,WEST VAIL LIQUOR MART,Liquor Store (city), 12/31/2015,2151 N FRONTAGE RD W,Vail,CO,816573936,
LIONSHEAD STORE LLC,ALPINE WINE & SPIRITS,Liquor Store (city), 02/28/2016,2109 N FRONTAGE RD WEST SPACE H,Vail,CO,816574897,
MRT WINES INC,VAIL FINE WINES,Liquor Store (city), 07/13/2016,196 GORE CREEK DR UNIT 164,VAIL,CO,816574511,
SPIKE VENTURES INC,SPIKE'S LIQUORS,Liquor Store (city), 08/30/2015,3971 BIGHORN RD A,VAIL,CO,816574783,
VALET WINE AND SPIRITS LLC,VALET WINE AND SPIRITS,Liquor Store (city), 10/21/2015,520 EAST LIONS HEAD CIRCLE,Vail,CO,81657,
VILLAGE INN PLAZA LIQUORS INC,GRAPPA FINE WINES & SPIRITS,Liquor Store (city), 07/28/2016,100 E MEADOW DR #32,Vail,CO,816575319,
JACKMAN DAVID L,MOUNTAIN VALLEY LIQUORS,Liquor Store (county), 09/11/2015,34106 CR LL57,Villa Grove,CO,81155,
BLOSS AND ASSOCIATES LLC,KLONDIKE LIQUORS,Liquor Store (city), 03/13/2016,444 MAIN ST,Walden,CO,80480,
ZIRKEL LIQUORS INC,ZIRKEL LIQUORS,Liquor Store (city), 06/25/2016,497 MAIN ST,Walden,CO,80480,
DURAN MIGUEL C DURAN DELLA L,UP TOWN LIQUORS,Liquor Store (city), 12/10/2015,702 WALSEN AVE,Walsenburg,CO,810892475,
KAYS LIQUOR LLC,KAY'S LIQUOR,Liquor Store (city), 01/11/2016,338 W 7TH ST,WALSENBURG,CO,810892214,
SCARCELLA RONALD,38 SPECIAL DISCOUNT WINES & LIQUORS,Liquor Store (city), 12/29/2015,132 W 7TH ST,WALSENBURG,CO,810892210,
KANDT TAYLOR J,BAR KN LIQUOR,Liquor Store (county), 09/22/2015,42592 HWY 160,Walsh,CO,81090,
PFANKUCH ENTERPRISES LLC,CANTINA LIQUOR,Liquor Store (city), 08/07/2016,8310 6TH ST,WELLINGTON,CO,80549,
VM WELLINGTON LLC,BELLA'S MARKET,Liquor Store (city), 10/02/2015,"7670 5TH ST, UNIT A",Wellington,CO,80549,
"ANTLER, LLC",ANTLER LIQUOR,Liquor Store (city), 08/31/2015,102 S 6TH,Westcliffe,CO,81252,
ADAMS CITY LIQUOR INC,CORK AND KEG LIQUORS,Liquor Store (city), 08/02/2016,6935 LOWELL BLVD,Westminster,CO,800302654,
ALL AMERICANDISCOUNT LIQUORS INC,ALL AMERICAN DISCOUNT LIQUORS INC,Liquor Store (city), 08/20/2015,9975 WADSWORTH PKWY UNIT H-2,WESTMINSTER,CO,800216805,
AUM INC,WILLOW RUN LIQUORS,Liquor Store (city), 04/08/2016,12860 N ZUNI ST #D122,Westminster,CO,80234,
BANWAIT INC,BOULEVARD WINE & SPIRITS,Liquor Store (city), 05/07/2016,8159 W 94TH AVENUE,Westminster,CO,80021,
DHAKMANI INC,FALLBROOK WINE AND SPIRITS,Liquor Store (city), 09/17/2015,"13644 ORCHARD PKWY, STES 500-600",Westminster,CO,80023,
DIVGUN INC,NORTHPARK LIQUORS,Liquor Store (city), 07/08/2015,10355 N FEDERAL BLVD #A,Westminster,CO,80260,
DNJ WINE LLC,STANDLEY LAKE WINE & SPIRITS,Liquor Store (city), 12/15/2015,8765 WADSWORTH BLVD,Westminster,CO,80003,
G MART WESTMINSTER CORPORATION,H MART,Liquor Store (city), 06/18/2016,5036 W 92ND AVE,Westminster,CO,80031,
HILLS STORE INC THE,G & G LIQUOR,Liquor Store (city), 10/03/2015,8801 LOWELL BLVD,Westminster,CO,80031,
JATINDER CORPORATION,ROCKY MOUNTAIN LIQUOR WAREHOUSE,Liquor Store (city), 09/07/2015,5140 W 120TH AVE UNIT I,WESTMINSTER,CO,800203307,
JVL INC,LA LIQUORS,Liquor Store (city), 07/18/2015,12051 & 12053 N PECOS,Westminster,CO,80234,
"K FOR W LIQUOR MARKET, INC.",K FOR W LIQUOR MARKET,Liquor Store (city), 02/07/2016,"7211 SHERIDAN BLVD, STE 300",Westminster,CO,80003,
KHG INC,SHERIDAN GREEN DISCOUNT LIQUOR,Liquor Store (city), 03/12/2016,11187 N SHERIDAN BLVD #1,WESTMINSTER,CO,800203231,
LEE LIQUORS INC,LEE LIQUORS INC,Liquor Store (city), 07/17/2016,8426 FEDERAL BLVD,WESTMINSTER,CO,800303818,
L-H VIVA LIQUORS LLC,VIVA LIQUORS,Liquor Store (city), 01/08/2016,3003 W 74TH AVE,Westminster,CO,80030,
M AND J INC,WESTBROOK WINE AND SPIRITS,Liquor Store (city), 02/09/2016,9100 W 100th AVE B-11 & B-12,Westminster,CO,80021,
MANIHANI INC,LAKE PLAZA LIQUOR,Liquor Store (city), 04/28/2016,9118 WEST 88TH AVENUE,Westminster,CO,80005,
NGUYEN MARIA,J M LIQUORS,Liquor Store (city), 01/22/2016,8374 SHERIDAN BLVD,WESTMINSTER,CO,800306001,
NORTH FEDERAL LIQUOR INC,NORTH FEDERAL LIQUORS,Liquor Store (city), 01/09/2016,8020 FEDERAL BLVD #7,Westminster,CO,80031,
ORCHARD WINE CELLAR LLC,ORCHARD WINE CELLAR,Liquor Store (city), 06/03/2015,14697 DELAWARE ST STE 1100,Westminster,CO,800239178,
REGASSA TEFERA,HILLTOP LIQUORS,Liquor Store (city), 07/25/2016,2735 WEST 72ND AVE,Westminster,CO,800305502,
RON'S LIQUORS INC,RON'S LIQUORS,Liquor Store (city), 07/26/2016,6400 W 92ND AVE SUITE 100,Westminster,CO,800302952,
SAMANPREET INC,KIRAN'S LIQUOR,Liquor Store (city), 08/30/2015,1005 W 120TH AVE STE 750A,WESTMINSTER,CO,802342714,
SHAW HEIGHTS LIQUOR INC,SHAW HEIGHTS LIQUOR,Liquor Store (city), 11/06/2015,8835 LOWELL BLVD,WESTMINSTER,CO,800303316,
SOIN INC,MIDNIGHT LIQUORS,Liquor Store (city), 04/23/2016,11225 DECATUR STREET # 400-500,Westminster,CO,80234,
"STANDLEY LAKE MARKETPLACE LIQUOR, INC.",STANDLEY LAKE MARKETPLACE LIQUOR,Liquor Store (city), 10/06/2015,8533 CHURCH RANCH BLVD UNIT 600,Westminster,CO,800215546,
TIRFE MESSELE A,COUNTRY MEADOWS LIQUORS,Liquor Store (city), 01/01/2016,7550 SHERIDAN,Westminster,CO,800036209,
V & J ENTERPRISES INC,BRADBURN LIQUORS,Liquor Store (city), 01/27/2016,3949 W 72ND AVE,Westminster,CO,800305207,
VINTAGE INTRNTL INC,VINTAGE INTERNATIONAL,Liquor Store (city), 08/24/2016,"8791 WOLFF COURT, UNIT 130",Westminster,CO,800313600,
VISTA LIQUORS LLC,VISTA LIQUORS,Liquor Store (city), 08/11/2016,762 W 120TH AVE,Westminster,CO,80234,
WESTMINSTER LIQUOR  INC,WESTMINSTER LIQUOR,Liquor Store (city), 01/25/2016,6030 W 92ND AVE,Westminster,CO,800312928,
WESTMINSTER PLAZA LIQUORS INC,WESTMINSTER PLAZA LIQUORS,Liquor Store (city), 03/29/2016,7243 FEDERAL BLVD #400,WESTMINSTER,CO,800304901,
WESTMINSTER TOTAL BEVERAGE LLC,WESTMINSTER TOTAL BEVERAGE,Liquor Store (city), 07/19/2016,9359 SHERIDAN BLVD,Westminster,CO,800316529,
YOUTH & STAR ENTERPRISE  INC,SUNSET LIQUOR STORE,Liquor Store (city), 01/01/2016,4955 W 72ND AVE UNIT Q,Westminster,CO,800305126,
CARMICHAEL GROUP LLC,STONEWALL SHOPPING BAG,Liquor Store (county), 09/01/2015,6689 HWY 12,WESTON,CO,81091,
7605 WINE & SPIRITS INC,VERN'S LIQUORS & WINE,Liquor Store (city), 01/20/2016,7605 W 44TH AVE #A,Wheat Ridge,CO,80033,
"APPLEJACK WINE & SPIRITS, LLC",APPLEJACK WINE & SPIRITS AND APPLEJACK LIQUORS,Liquor Store (city), 10/13/2015,3320 YOUNGFIELD STREET,Wheat Ridge,CO,80033,
ARAIA TSEHAYE G,WILMORE LIQUORS,Liquor Store (city), 12/07/2015,7777 W 38TH AVE A-108,Wheat Ridge,CO,800336168,
D & M LIQUOR INC,D & M LIQUOR,Liquor Store (city), 04/25/2016,3910 WADSWORTH BLVD,WHEAT RIDGE,CO,800334615,
DUMINDU & SEUN LLC,DS LIQUORS,Liquor Store (city), 05/13/2016,10065 W 44TH AVE,WHEAT RIDGE,CO,800332801,
G & Y CORPORATION,VILLAGE LIQUORS,Liquor Store (city), 11/07/2015,5305 W 38TH AVE UNIT D,Wheat Ridge,CO,802127156,
HIKO INC,PRK N PIK LIQUORS,Liquor Store (city), 11/15/2015,9345 W 44TH AVE,Wheat Ridge,CO,800333008,
MPG INCORPORATED,WHEAT RIDGE LIQUOR,Liquor Store (city), 06/20/2016,5806 W 38TH AVE,Wheat Ridge,CO,802127127,
MY LIQUOR STORE INC,MY LIQUOR STORE,Liquor Store (city), 03/18/2016,6595 W 44TH AVE UNIT B,Wheat Ridge,CO,80033,
OLD PROSPECTORS LIQUORS INC,OLD PROSPECTORS LIQUORS INC,Liquor Store (city), 12/17/2015,5012 KIPLING ST,WHEAT RIDGE,CO,800332250,
PEAK BEVERAGE INC,PEAK BEVERAGE,Liquor Store (city), 05/09/2016,"10790 W 50TH AVE, STE 600A",Wheat Ridge,CO,80033,
POBS LLC,HAPPY LIQUORS,Liquor Store (city), 05/21/2016,4141 KIPLING ST,Wheat Ridge,CO,80033,
RED GARDEN LIQUOR & WINE INC,RED GARDEN LIQUOR,Liquor Store (city), 03/03/2016,9075 W 44TH AVE,WHEAT RIDGE,CO,800333002,
ROGER DODGERLLC,LAKESIDE LIQUORS,Liquor Store (city), 09/25/2015,5820 W 44TH AVE,WHEAT RIDGE,CO,800337425,
TJ WINE & LIQUOR INC,TJ WINE & LIQUOR,Liquor Store (city), 07/10/2016,5795 W 29TH AVE #B,WHEAT RIDGE,CO,802148403,
VINI ITALIA CO,VINI ITALIA CO,Liquor Store (city), 11/13/2015,3208 WADSWORTH BLVD,Wheat Ridge,CO,80033,
YSK GROUP INC,VALLEY LIQUORS,Liquor Store (city), 10/11/2015,4992 WARD RD,Wheat Ridge,CO,800332124,
LOUIE'S LIQUOR INC,LOUIE'S LIQUOR,Liquor Store (city), 11/30/2015,400 W CENTERAL,Wiggins,CO,80654,
STUBS GAS & OIL INC,STUBS GAS & OIL INC,Liquor Store (city), 12/28/2015,16740 HWY 39,Wiggins,CO,806548919,
IBRAHIM MUAATASEM M,W J LIQUORS,Liquor Store (county), 06/28/2016,17104 HIGHWAY 39,Wiggins,CO,806548904,
AKS LLC,CINDER & CRUISE LIQUORS,Liquor Store (city), 01/07/2016,7845 WESTGATE DR,Windsor,CO,80550,
ANGKOR LIQUORS INC,ANGKOR LIQUORS,Liquor Store (city), 03/27/2016,1540 MAIN ST UNIT 254,Windsor,CO,805507913,
CORNER LIQUOR,CORNER LIQUOR,Liquor Store (city), 06/11/2016,117 NORTH 6TH STREET,Windsor,CO,80550,
REMPE HOLDINGS INC,UNCORKED WINE & LIQUOR,Liquor Store (city), 01/11/2016,1345 WATER VALLEY PKY #100,WINDSOR,CO,80550,
SPORTS CENTER DISCOUNT LIQUOR,SPORTS CENTER DISCOUNT LIQUOR,Liquor Store (city), 09/16/2015,1055 MAIN STREET,Windsor,CO,805504707,
WINDSOR DISCOUNTLIQUOR LLC,WINDSOR DISCOUNT LIQUOR,Liquor Store (city), 10/13/2015,1215 MAIN ST STE L,WINDSOR,CO,805505987,
PLAZA LIQUORS INC,PLAZA LIQUORS,Liquor Store (city), 10/09/2015,78697 HWY 40,WINTER PARK,CO,80482,
RIVERSIDE SPIRITS LLC,RIVERSIDE SPIRITS,Liquor Store (city), 10/11/2015,201 ZEPHYR WAY SPACE 1-G,Winter Park,CO,80482,
WINTER PARK WINE & SPIRITS LTD,WINTER PARK WINE & SPIRITS,Liquor Store (city), 02/26/2016,78878 U S HIGHWAY 40,Winter Park,CO,80482,
GOLD HILL LIQUOR ACQUISITION CORP,GOLD HILL WINE AND LIQUOR OUTLET,Liquor Store (city), 08/22/2015,797 GOLD HILL SQUARE SOUTH,Woodland Park,CO,80866,
LAKESIDE PARADISE INC,PARADISE SPIRITS,Liquor Store (city), 08/10/2016,1099 US HWY 24,WOODLAND PARK,CO,808632120,
RC & CC LLC,BANANA BELT LIQUORS,Liquor Store (city), 04/02/2016,300 E HWY 24,Woodland Park,CO,80863,
WESTERN CONVENIENCE STORES INC,WESTERN CONVENIENCE STORE,Liquor Store (city), 05/11/2016,20421 E HIGHWAY 24,Woodland Park,CO,80863,
REVELL LIQUORS LLC,B & L LIQUOR,Liquor Store (city), 07/19/2016,227 W 3RD STREET,WRAY,CO,807581003,
VV ENTERPRISES LLC,JOES LIQUOR MART,Liquor Store (city), 07/21/2016,101 EAST 3RD ST,Wray,CO,80758,
LITTLE BEAVER'S LIQUOR INC,LITTLE BEAVER'S LIQUOR STORE,Liquor Store (city), 05/18/2016,239 MOFFAT AVE,YAMPA,CO,804839990,
J&L LIQUOR LLC,LOG CABIN LIQUOR,Liquor Store (city), 01/29/2016,701 W 8TH AVE,Yuma,CO,80759,
JENNY WAYNES HIGH OCTANE,JENNY WAYNES HIGH OCTANE,Liquor Store (city), 03/01/2016,717 S ALBANY,Yuma,CO,80759,
